ID;NOMBRE;REFERENCIA;CALLE;ALTURA;ALTURA_2;CRUCE;STATUS;DETALLE_UB;CP;LOCALIDAD;TEL;MAIL;DIREC_NORM;NOM_MAPA;LONGITUD;LATITUD
89;SAGRADO CORAZON DE JESUS;BASILICA;AVDA. VELEZ SARSFIELD;1351;;;M;;C1285AAC;BUENOS AIRES;4301-0142;ADRIANAPERUILH@YAHOO.COM.AR;1351 VELEZ SARSFIELD AV.;SAGRADO CORAZON DE JESUS;-58.389.283.851.380.100;-3.465.045.487.222.980
94;SAN ANTONIO DE PADUA (D);BASILICA;AVDA. LINCOLN;3751;;;M;;C1419IFC;BUENOS AIRES;4501-1066;BASILICA_SANANTONIO@YAHOO.COM.AR;3751 LINCOLN AV.;SAN ANTONIO DE PADUA;-58.507.043.237.918.400;-34.599.824.311.017.800
99;SAN CARLOS BORROMEO;BASILICA;HIPOLITO IRIGOYEN;4000;;;M;;C1208ABT;BUENOS AIRES;4981-4741;-;4000 YRIGOYEN, HIPOLITO AV.;SAN CARLOS BORROMEO;-58.422.998.669.706.600;-34.614.936.482.045.100
116;SAN JOSE DE FLORES;BASILICA;AVDA. RIVADAVIA;6950;;;M;;C1406GLZ;BUENOS AIRES;"4612-2629; 4637-1489";SANJOSEDEFLORES@ACONECTARSE.COM;6950 RIVADAVIA AV.;SAN JOSE DE FLORES;-58.463.259.748.724.900;-34.629.197.323.702.100
131;SAN NICOLAS DE BARI;BASILICA;AVDA. SANTA FE;1352;;;M;;C1059ABU;BUENOS AIRES;"4811-7755; 4813-3028";SANNICOLASDEBARI@FIBERTEL.COM.AR;1352 SANTA FE AV.;SAN NICOLAS DE BARI;-58.386.457.622.527.300;-34.595.888.071.908.600
168;SANTA ROSA DE LIMA;BASILICA;AVDA. BELGRANO;2216;;;M;;C1094AAR;BUENOS AIRES;4308-0504/5313;PARROQUIASANTAROSA@FIBERTEL.COM.AR;2216 BELGRANO AV.;SANTA ROSA DE LIMA;-58.397.718.766.864.000;-34.614.400.924.635.500
174;SANTISIMO SACRAMENTO;BASILICA;SAN MARTIN;1039;;;M;;C1004AAU;BUENOS AIRES;"4312-2314; 4311-0391";BASILICASANTISIMOSACRAMENTO@HOTMAIL.COM.AR;1039 SAN MARTIN;SANTISIMO SACRAMENTO;-58.374.121.012.030.300;-34.595.876.484.851.400
32;NUESTRA SEÑORA DE BUENOS AIRES;BASILICA;AVDA. GAONA;1730;;;M;;C1416DRS;BUENOS AIRES;"4581-0440; 4584-4197";PARROQUIABUENOSAIRES@FIBERTEL.COM.AR;1730 GAONA AV.;NTRA. SRA. DE BUENOS AIRES;-58.452.749.594.989.900;-34.611.151.541.129.300
37;NUESTRA SEÑORA DE GUADALUPE;BASILICA;PARAGUAY;3901;;;M;;C1425BSC;BUENOS AIRES;4824-0270;PARRGUADAL@HOTMAIL.COM;3901 PARAGUAY;NTRA. SRA. DE GUADALUPE;-58.417.731.723.226.200;-34.589.472.179.266.800
45;NUESTRA SEÑORA DE LA MERCED;BASILICA;RECONQUISTA;207;;;M;;C1003ABE;BUENOS AIRES;4343-9623;-;207 RECONQUISTA;NTRA. SRA. DE LA MERCED;-58.372.112.015.890.000;-34.605.402.056.955.600
48;NUESTRA SEÑORA DE LA PIEDAD;BASILICA;BARTOLOMÉ MITRE;1523;;PARANA;M;;C1037ABD;BUENOS AIRES;4383-9765;-;1523 BARTOLOME MITRE;NTRA. SRA. DE LA PIEDAD;-58.387.870.847.569.600;-34.607.812.165.183.500
73;NUESTRA SEÑORA DEL PILAR;BASILICA;JUNIN;1904;;;M;;C1113AAV;BUENOS AIRES;4803-6793;IGLESIADELPILAR@ARNET.COM.AR;1904 JUNIN;NTRA. SRA. DEL PILAR;-58.391.920.277.797.500;-34.586.836.694.999.300
77;NUESTRA SEÑORA DEL SOCORRO;BASILICA;JUNCAL;888;;;M;;C1062ABT;BUENOS AIRES;4393-1423/4079;PARROCO@FIBERTEL.COM.AR / PDELSOCORRO@FIBERTEL.COM.AR;888 JUNCAL;NTRA. SRA. DEL SOCORRO;-58.379.865.457.052.000;-34.593.044.045.071.700
1;ASUNCION DE LA SANTISIMA VIRGEN;PARROQUIA;AVDA. GAONA;2798;;;M;;C1406DSP;BUENOS AIRES;4581-0471;PADREJOSE@CIUDAD.COM.AR / PADREROMERO@HOTMAIL.COM;2798 GAONA AV.;ASUNCION DE LA SANTISIMA VIRGEN;-58.465.516.733.072.100;-3.461.641.533.066.870
2;BUEN PASTOR;PARROQUIA;DR. JUAN ARANGUREN;691;693;;M;;C1405CRM;BUENOS AIRES;4904-0590;PARROQUIABUENPASTOR180@GMAIL.COM;691 ARANGUREN, JUAN F., DR.;BUEN PASTOR;-58.442.235.536.340.600;-34.614.241.460.404.600
3;CORAZON DE JESUS;PARROQUIA;AVDA. GRAL PAZ;5370;;;M;;C1419FYQ;BUENOS AIRES;4573-0385;COR_IESU@HOTMAIL.COM;5370 PAZ, GRAL. AV.;CORAZON DE JESUS;-58.512.129.133.233.000;-34.577.109.866.624.100
4;CORPUS DOMINI;PARROQUIA;ALBARIÑO;256;;;M;;C1408HOF;BUENOS AIRES;4682-3803;-;256 ALBARIÑO;CORPUS DOMINI;-58.508.416.827.393.400;-34.640.877.262.697.100
5;CRISTO MAESTRO;PARROQUIA;MERCEDES;1632;;;M;;C1407AIF;BUENOS AIRES;4566-6762;CRISTOMAESTRO@HOTMAIL.COM;1632 MERCEDES;CRISTO MAESTRO;-58.494.852.081.027.300;-34.619.817.755.219.900
6;CRISTO OBRERO;PARROQUIA;CALLE 14;0;;AVDA. RAFAEL CASTILLO;;;C1104CAA;BUENOS AIRES;4116-4307;CRISTOBRERO@HOTMAIL.COM;;CRISTO OBRERO;-58.388.249.670.392.000;-34.576.410.256.399.700
7;CRISTO OBRERO Y SAN BLAS;PARROQUIA;LAFUENTE;3242;;;M;;C1437BVO;BUENOS AIRES;4918-2290;BUENOSAIRES@MURIALDO.ORG;3242 LAFUENTE;CRISTO OBRERO Y SAN BLAS;-58.438.206.055.127.500;-34.662.959.538.499.400
8;CRISTO REY;PARROQUIA;ZAMUDIO;5551;;;M;;C1419EHK;BUENOS AIRES;4572-5459;-;5551 ZAMUDIO;CRISTO REY;-58.502.505.934.750.700;-34.575.875.865.483.400
9;DULCISIMO NOMBRE DE JESUS;PARROQUIA;VALDENEGRO;3611;;;M;;C1431GAU;BUENOS AIRES;4541-9796/0099;PATERFABRIZIO@HOTMAIL.COM;3611 VALDENEGRO;DULCISIMO NOMBRE DE JESUS;-58.490.748.170.093.200;-34.560.560.919.515.300
10;ENCARNACION DEL SEÑOR;PARROQUIA;GRAL. MANUEL A. RODRIGUEZ;2444;;;M;;C1416CNB;BUENOS AIRES;4582-4195;RAFAELMARINO2@YAHOO.COM.AR;2444 RODRIGUEZ, MANUEL A., GENERAL;ENCARNACION DEL SEÑOR;-58.458.893.912.890.900;-34.598.340.777.469.100
11;ESPIRITU SANTO;PARROQUIA;PACHECO;2059;;;M;;C1431FIE;BUENOS AIRES;4521-7697/8366;INAQUIMED@CIUDAD.COM.AR;2059 PACHECO;ESPIRITU SANTO;-58.481.132.358.186.200;-34.575.934.616.667.300
12;INMACULADA CONCEPCION (B);PARROQUIA;VUELTA DE OBLIGADO;2042;;;M;;C1428ADF;BUENOS AIRES;4784-3596;INMACULADACONCEPCIODEBELGRANO@GMAIL.COM;2042 VUELTA DE OBLIGADO;INMACULADA CONCEPCION;-58.455.374.201.532.000;-34.562.117.511.609.900
13;INMACULADA CONCEPCION (C);PARROQUIA;AVDA. INDEPENDENCIA;0;;TACUARI;M;;C1099AAW;BUENOS AIRES;4300-5547/3944;-;AV INDEPENDENCIA Y TACUARI;INMACULADA CONCEPCION;-58.378.894.672.003.500;-34.617.708.124.135.500
14;INMACULADA CONCEPCION (D);PARROQUIA;JOSE CUBAS;3599;;;M;;C1419GNC;BUENOS AIRES;4503-0192;PMOLERO@ARNET.COM.AR;3599 CUBAS, JOSE;INMACULADA CONCEPCION;-58.509.525.392.334.500;-34.594.110.929.165.000
15;INMACULADA VIRGEN DE FATIMA;PARROQUIA;JOSE LUIS CANTILO;5656;;;M;;C1419HPF;BUENOS AIRES;4642-6667;VINMFATIMA@GMAIL.COM;5656 CANTILO, JOSE LUIS;INMACULADA VIRGEN DE FATIMA;-58.530.039.928.960.600;-34.615.951.340.553.100
16;INMACULADO CORAZON DE MARIA;PARROQUIA;CONSTITUCION;1077;;;M;;C1151AAA;BUENOS AIRES;4116-8611;CONSTITUCION@CLARETIANOS.ORG.AR;1077 CONSTITUCION;INMACULADO CORAZON DE MARIA;-58.381.286.331.402.400;-34.624.455.636.106.700
17;JESUS DE LA BUENA ESPERANZA;PARROQUIA;JOSE LEON CABEZON;3350;;;M;;C1419FCP;BUENOS AIRES;4571-1212;-;3350 CABEZON, JOSE LEON;JESUS DE LA BUENA ESPERANZA;-58.511.018.024.253.400;-34.586.742.734.997.700
18;JESUS DE NAZARET;PARROQUIA;AVDA. LA PLATA;2258;;;M;;C1437DHN;BUENOS AIRES;4922-3332;NAZARET1832@GMAIL.COM;2258 LA PLATA AV.;JESUS DE NAZARET;-58.423.140.419.622.100;-34.640.695.270.715.700
20;JESUS SALVADOR;PARROQUIA;AVDA. SOLDADO DE LA FRONTERA;5184;;;M;;C1439FPF;BUENOS AIRES;4605-3859;-;5184 SOLDADO DE LA FRONTERA AV.;JESUS SALVADOR;-58.463.581.613.951.600;-34.684.763.708.344.400
21;MADRE ADMIRABLE;PARROQUIA;ARROYO;931;;;M;;C1007AAC;BUENOS AIRES;4393-3887;INFOPARROQUIA@MADREADMIRABLE.COM.AR;931 ARROYO;MADRE ADMIRABLE;-58.380.617.372.475.000;-34.591.317.996.518.400
22;MADRE DE DIOS;PARROQUIA;AVDA. ESCALADA;2350;;;M;;C1439FHD;BUENOS AIRES;4635-0395;PARROQUIAMADREDEDIOS@YAHOO.COM.AR;2350 ESCALADA AV.;MADRE DE DIOS;-58.476.317.861.284.800;-3.465.956.910.760.410
23;MARIA MADRE DE LA ESPERANZA;PARROQUIA;MIRALLA;3838;;;M;;C1439EQD;BUENOS AIRES;4638-5225;-;3838 MIRALLA;MARIA MADRE DE LA ESPERANZA;-58.468.689.741.571.500;-34.673.114.498.163.100
24;MARIA MADRE DE LA IGLESIA;PARROQUIA;AVDA. PEDRO GOYENA;1628;;;M;;C1406GWS;BUENOS AIRES;4432-6913;-;1628 GOYENA, PEDRO AV.;MARIA MADRE DE LA IGLESIA;-58.450.947.860.087.100;-3.462.843.160.826.760
25;MARIA MADRE DEL REDENTOR;PARROQUIA;MEXICO;2745;;;M;;C1223ABE;BUENOS AIRES;4957-4763;FMPARROQUIAL1051@YAHOO.COM;2745 MEXICO;MARIA MADRE DEL REDENTOR;-58.404.816.794.396.600;-3.461.706.584.427.520
26;MARIA REINA;PARROQUIA;CERETTI;2622;;;M;;C1431ELF;BUENOS AIRES;4572-8422;-;2622 CERETTI;MARIA REINA;-58.494.752.620.640.500;-34.576.409.630.823.300
27;NATIVIDAD DE MARIA SANTISIMA;PARROQUIA;SAN ANTONIO;555;;;M;;C1276ADE;BUENOS AIRES;4139-4707;PARROQUIANATIVIDADEMARIA@GMAIL.COM;555 SAN ANTONIO;NATIVIDAD DE MARIA SANTISIMA;-58.378.564.349.150.600;-34.648.762.816.485.200
28;NAVIDAD DEL SEÑOR;PARROQUIA;CONCEPCION ARENAL;3545;;;M;;C1427EKC;BUENOS AIRES;4553-1805;NAVIDADDELSENOR@GMAIL.COM;3545 ARENAL, CONCEPCION;NAVIDAD DEL SEÑOR;-58.446.865.391.844.300;-34.584.185.885.625.300
29;NIÑO JESUS;PARROQUIA;MURGUIONDO;4055;;;M;;C1439FQW;BUENOS AIRES;4601-0163;NIÑO_JESUS2003@YAHOO.COM;4055 MURGUIONDO;NIÑO JESUS;-58.477.131.405.627.600;-34.676.078.472.654.000
30;NUESTRA SEÑORA DE BALVANERA;PARROQUIA;BARTOLOME MITRE;2411;;;M;;C1039AAM;BUENOS AIRES;4951-2218;GALLEGOARES@FIBERTEL.COM.AR;2411 MITRE, BARTOLOME;NTRA. SRA. DE BALVANERA;-58.400.735.370.142.800;-34.608.385.064.399.200
31;NUESTRA SEÑORA DE BELEN;PARROQUIA;BURELA;3243;;;M;;C1431EHQ;BUENOS AIRES;4542-9045;-;3243 BURELA;NTRA. SRA. DE BELEN;-58.497.699.896.435.400;-34.570.163.900.723.600
34;NUESTRA SEÑORA DE CZESTOCHOWA;PARROQUIA;AVDA. ENTRE RIOS;1951;;;M;;C1133AAH;BUENOS AIRES;4306-1587;PADREPANCHOCZESTOCHOWA@HOTMAIL.COM;1951 ENTRE RIOS AV.;NTRA. SRA. DE CZESTOCHOWA;-58.390.938.620.251.100;-34.631.051.538.180.400
35;NUESTRA SEÑORA DE FATIMA (B);PARROQUIA;FRANKLIN D. ROOSEVELT;2066;;;M;;C1428BOD;BUENOS AIRES;4783-1903;-;2066 ROOSEVELT FRANKLIN D.;NTRA. SRA. DE FATIMA;-58.457.437.529.095.900;-34.555.673.787.937.800
38;NUESTRA SEÑORA DE ITATI;PARROQUIA;AVDA. DIAZ VELEZ;4019;;;M;;C1200AAH;BUENOS AIRES;4982-9179;-;4019 DIAZ VELEZ AV.;NTRA. SRA. DE ITATI;-58.423.373.402.988.600;-34.608.425.769.546.500
39;NUESTRA SEÑORA DE LA ANUNCIACION;PARROQUIA;ALTOLAGUIRRE;2041;;;M;;C1431ECM;BUENOS AIRES;4523-6680;ANUNCIACION@ARNET.COM.AR;2041 ALTOLAGUIRRE;NTRA. SRA. DE LA ANUNCIACION;-58.487.834.372.924.000;-34.580.451.590.406.000
40;NUESTRA SEÑORA DE LA CANDELARIA;PARROQUIA;BAHIA BLANCA;363;;;M;;C1407ABE;BUENOS AIRES;4636-1825;PQUIACANDELARIA@UOL.COM.AR;363 BAHIA BLANCA;NTRA. SRA. DE LA CANDELARIA;-58.481.924.436.613.100;-34.629.489.723.007.600
41;NUESTRA SEÑORA DE LA CONSOLACION;PARROQUIA;AVDA. RAUL SCALABRINI ORTIZ;1073;;;M;;C1414DNK;BUENOS AIRES;4773-0716;CONSOLACION@FIBERTEL.COM.AR;1073 SCALABRINI ORTIZ, RAUL AV.;NTRA. SRA. DE LA CONSOLACION;-58.430.249.483.339.900;-34.594.651.996.471.000
42;NUESTRA SEÑORA DE LA DIVINA PROVIDENCIA;PARROQUIA;TRAFUL;3535;;;M;;C1437HME;BUENOS AIRES;4911-9105;DONORIONE@ARGENTINA.COM;3535 TRAFUL;NTRA. SRA. DE LA DIVINA PROVIDENCIA;-5.841.017.637.610.540;-34.650.425.223.708.600
43;NUESTRA SEÑORA DE LA ESPERANZA;PARROQUIA;AIME PAINE;1698;;;M;;C1107CFL;BUENOS AIRES;4576-7654;PDELAESPERANZA@YAHOO.COM.AR;1698 PAINE, AIME;NTRA. SRA. DE LA ESPERANZA;-58.360.689.718.396.300;-34.617.334.395.238.500
46;NUESTRA SEÑORA DE LA MISERICORDIA;PARROQUIA;AVDA. LARRAZABAL;2394;;;M;;C1440CVP;BUENOS AIRES;4635-0605/7182;PARROQUIA@CMISERICORDIA.EDU.AR;2394 LARRAZABAL;NTRA. SRA. DE LA MISERICORDIA;-58.490.893.681.846.000;-3.466.145.016.157.220
47;NUESTRA SEÑORA DE LA PAZ;PARROQUIA;PERGAMINO;63;;;M;;C1406FHA;BUENOS AIRES;4611-9463/68;COLEGIOLAPAZ@CIUDAD.COM.AR;63 PERGAMINO;NTRA. SRA. DE LA PAZ;-58.474.428.331.225.800;-3.463.296.978.127.110
49;NUESTRA SEÑORA DE LA RABIDA;PARROQUIA;AVDA. BELGRANO;1502;;;M;;C1093AAQ;BUENOS AIRES;5218-7757/58;INFO@PARROQUIALARABIDA.COM.AR;1502 BELGRANO AV.;NTRA. SRA. DE LA RABIDA;-58.387.538.777.823.300;-34.613.719.163.021.400
50;NUESTRA SEÑORA DE LA SALUD;PARROQUIA;MARCOS SASTRE;6115;;;M;;C1408BAQ;BUENOS AIRES;4641-0045;-;6115 SASTRE, MARCOS;NTRA. SRA. DE LA SALUD;-58.523.984.228.068.700;-34.625.466.165.692.800
51;NUESTRA SEÑORA DE LA VISITACION;PARROQUIA;PAEZ;2871;;;M;;C1406FQW;BUENOS AIRES;"4611-7768; 4613-9822";ALEJVIGNALE@YAHOO.COM.AR;2871 PAEZ;NTRA. SRA. DE LA VISITACION;-58.473.129.990.016.800;-34.621.890.154.196.800
52;NUESTRA SEÑORA DE LAS GRACIAS;PARROQUIA;CONDOR;2150;;;M;;C1437FJP;BUENOS AIRES;4918-0196/0196;CURIAMSA@SICOAR.ORG.AR/FR_RICARDO@HOTMAIL.COM;2150 CONDOR;NTRA. SRA. DE LAS GRACIAS;-58.428.967.566.165.300;-34.657.643.536.226.400
53;NUESTRA SEÑORA DE LAS MERCEDES;PARROQUIA;ECHEVERRIA;1395;;;M;;C1428DQO;BUENOS AIRES;4784-8011;NSM@NSMERCEDES.COM.AR;1395 ECHEVERRIA;NTRA. SRA. DE LAS MERCEDES;-58.445.882.709.204.700;-34.556.823.009.906.900
54;NUESTRA SEÑORA DE LAS NIEVES;PARROQUIA;VENTURA BOSCH;6662;;;M;;C1408ECH;BUENOS AIRES;4641-4171/2771/2748/2350;PARROQUIA@LASNIEVES.EDU.AR;6662 BOSCH, VENTURA;NTRA. SRA. DE LAS NIEVES;-58.520.194.796.590.200;-34.642.760.571.265.100
55;NUESTRA SEÑORA DE LAS VICTORIAS;PARROQUIA;PARAGUAY;1204;;;M;;C1057AAT;BUENOS AIRES;"4816-4901; 5128-4902";LASVICTORIAS@IPLANMAIL.COM.AR;1204 PARAGUAY;NTRA. SRA. DE LAS VICTORIAS;-58.384.147.633.442.100;-34.598.265.034.319.100
56;NUESTRA SEÑORA DE LORETO;PARROQUIA;JUNCAL;3115;;;M;;C1425AYO;BUENOS AIRES;4804-4873;PARROQUIALORETO@ARNET.COM.AR;3115 JUNCAL;NTRA. SRA. DE LORETO;-58.408.271.897.405.900;-34.585.882.826.171.400
57;NUESTRA SEÑORA DE LOS DOLORES;PARROQUIA;AVDA. DIAZ VELEZ;4850;4860;;M;;C1405DCQ;BUENOS AIRES;4982-0492;MMSSCCBAIRES@GMAIL.COM;4850 DIAZ VELEZ AV.;NTRA. SRA. DE LOS DOLORES;-58.435.407.010.109.200;-34.608.933.067.233.400
58;NUESTRA SEÑORA DE LOS REMEDIOS;PARROQUIA;FRANCISCO BILBAO;4310;;;M;;C1407HPB;BUENOS AIRES;"4682-2611/3595; 4683-9101";REMEDIOS@ADVANCDDL.COM.AR;4310 BILBAO, FRANCISCO;NTRA. SRA. DE LOS REMEDIOS;-58.478.952.932.452.800;-34.649.836.297.987.500
59;NUESTRA SEÑORA DE LOURDES;PARROQUIA;CAP. GRAL. RAMON FREIRE;2490;;;M;;C1428CZJ;BUENOS AIRES;4541-0642;LOURDES@ORUE.COM.AR / LOURDES_ALOIS@CIUDAD.COM.AR;2490 FREIRE, RAMON, CAP. GRAL.;NTRA. SRA. DE LOURDES;-58.467.626.439.389.000;-34.563.178.083.044.700
60;NUESTRA SEÑORA DE LUJAN (CASTRENSE);PARROQUIA;AVDA. CABILDO;425;;;M;;C1426AAE;BUENOS AIRES;4771-1696;LEMARTINOIA@CIUDAD.COM.AR;425 CABILDO AV.;NTRA. SRA. DE LUJAN;-5.844.093.574.985.910;-34.571.784.224.685.200
61;NUESTRA SEÑORA DE LUJAN DE LOS PATRIOTAS;PARROQUIA;AVDA. EMILIO CASTRO;7156;;;M;;C1408IGV;BUENOS AIRES;4687-8645;-;7156 CASTRO, EMILIO AV.;NTRA. SRA. DE LUJAN DE LOS PATRIOTAS;-58.518.629.507.048.000;-34.653.659.900.381.600
62;NUESTRA SEÑORA DE LUJAN DEL BUEN VIAJE;PARROQUIA;GRECIA;4328;;;M;;C1429BEH;BUENOS AIRES;4702-4473;BUENVIAJE@ARGENTINA.COM;4328 GRECIA;NTRA. SRA. DE LUJAN DEL BUEN VIAJE;-58.467.492.549.180.000;-34.541.185.549.767.000
63;NUESTRA SEÑORA DE LUJAN PORTEÑO;PARROQUIA;FRANCISCO BILBAO;3474;;;M;;C1406FGR;BUENOS AIRES;4612-6710;LUJANPORTEÑO@GMAIL.COM;3474 BILBAO, FRANCISCO AV.;NTRA. SRA. DE LUJAN PORTEÑO;-5.846.964.499.019.240;-34.641.427.802.138.200
64;NUESTRA SEÑORA DE MONTSERRAT;PARROQUIA;AVDA. BELGRANO;1151;;;M;;C1092AAL;BUENOS AIRES;4383-3096;P.E.MONTSERRAT@HOTMAIL.COM;1151 BELGRANO AV.;NTRA. SRA. DE MONTSERRAT;-58.382.517.992.698.600;-34.613.003.519.528.900
65;NUESTRA SEÑORA DEL BUEN CONSEJO;PARROQUIA;CARDOSO;242;;;M;;C1407BBD;BUENOS AIRES;4671-4787;-;242 CARDOSO;NTRA. SRA. DEL BUEN CONSEJO;-58.492.943.628.081.000;-34.633.746.892.391.800
66;NUESTRA SEÑORA DEL CARMELO;PARROQUIA;MARCELO T. DE ALVEAR;2465;;;M;;C1122AAM;BUENOS AIRES;4821-5954;PARROQUIABSAS@OCDARGENTINA.COM.AR;2465 ALVEAR, MARCELO T. DE;NTRA. SRA. DEL CARMELO;-58.402.289.670.480.800;-34.595.848.444.443.000
67;NUESTRA SEÑORA DEL CARMEN (C);PARROQUIA;RODRIGUEZ PEÑA;840;;;M;;C1020ADR;BUENOS AIRES;4812-2748;PARRCARMEN@FIBERTEL.COM.AR;840 RODRIGUEZ PEÑA;NTRA. SRA. DEL CARMEN;-58.391.807.852.384.700;-34.599.229.955.556.600
68;NUESTRA SEÑORA DEL CARMEN (D);PARROQUIA;AVDA. TRIUNVIRATO;4940;;;M;;C1431FCP;BUENOS AIRES;"4521-1311; 4522-0142";-;4940 TRIUNVIRATO AV.;NTRA. SRA. DEL CARMEN;-58.488.533.038.231.800;-34.572.861.616.246.600
69;NUESTRA SEÑORA DEL CARMEN (F);PARROQUIA;AVDA. EVA PERON;6378;;;M;MANZANA 8, CASA 1;C1439BTO;BUENOS AIRES;4601-0423;-;6378 PERON, EVA AV.;NTRA. SRA. DEL CARMEN;-58.492.623.905.977.900;-34.667.194.057.759.100
70;NUESTRA SEÑORA DEL CARMEN (ISLA MARTIN GARCIA);PARROQUIA;ISLA MARTIN GARCIA;0;;;U;;B1601XAA;BUENOS AIRES;;RAULUSUAIA@HOTMAIL.COM;;NTRA. SRA. DEL CARMEN;13.741.950.921.668.600;-89.998.200.482.011.700
71;NUESTRA SEÑORA DEL CONSUELO;PARROQUIA;AVDA. DONATO ALVAREZ;2050;;;M;;C1416BTW;BUENOS AIRES;4581-2117;PQDELCONSUELO@GMAIL.COMPQDELCONSUELO@GMAIL.COM / SECRETARIADELCONSUELO@GMAIL.COM;2050 ALVAREZ, DONATO, TTE. GRAL. AV.;NTRA. SRA. DEL CONSUELO;-58.464.693.763.836.200;-34.603.824.417.497.800
72;NUESTRA SEÑORA DEL PERPETUO SOCORRO;PARROQUIA;IRIGOYEN;1185;;;M;;C1407GJH;BUENOS AIRES;4567-2535;PQUIAPERPETUOSOCORRO@YAHOO.COM.AR;1185 IRIGOYEN;NTRA. SRA. DEL PERPETUO SOCORRO;-58.514.929.746.903.300;-34.629.325.555.470.600
74;NUESTRA SEÑORA DEL ROSARIO;PARROQUIA;BONPLAND;1987;;;M;;C1414CMY;BUENOS AIRES;4771-0861;PARROQUIADELROSARIO@FIBERTEL.COM.ARG;1987 BONPLAND;NTRA. SRA. DEL ROSARIO;-5.843.451.878.964.560;-3.458.114.770.799.600
76;NUESTRA SEÑORA DEL ROSARIO DEL MILAGRO;PARROQUIA;MONTIEL;0;;CRISOSTOMO ALVAREZ;M;;1439;BUENOS AIRES;4602-7144;-;MONTIEL Y CRISOSTOMO  ALVAREZ;NTRA. SRA. DEL ROSARIO DEL MILAGRO;-58.492.624.681.110.600;-34.677.297.843.736.500
78;NUESTRA SEÑORA DEL VALLE;PARROQUIA;AVDA. CORDOBA;3329;;;M;;C1187AAH;BUENOS AIRES;"4963-1454; 4963-8742";SECRETARIA@NSDELVALLE.ORG.AR;3329 CORDOBA AV.;NTRA. SRA. DEL VALLE;-58.413.653.441.899.600;-34.597.753.491.094.300
80;PATROCINIO DE LA VIRGEN;PARROQUIA;USPALLATA;3480;;;;;C1437JCR;BUENOS AIRES;4909-4158;-;3480 USPALLATA;PATROCINIO DE LA VIRGEN;-58.411.521.937.678.700;-34.639.821.523.328.800
81;PATROCINIO DE SAN JOSE;PARROQUIA;AYACUCHO;1072;;;M;;C1111AAF;BUENOS AIRES;"4823-4848; 4821-3856";-;1072 AYACUCHO;PATROCINIO DE SAN JOSE;-58.396.320.893.019.800;-34.596.202.332.791.400
82;PRESENTACION DEL SEÑOR;PARROQUIA;RUIZ HUIDOBRO;3521;3565;;M;;C1430CJC;BUENOS AIRES;4542-7029;ALBEMSF@YAHOO.COM.AR;3521 RUIZ HUIDOBRO;PRESENTACION DEL SEÑOR;-58.483.415.617.661.200;-34.549.072.113.098.700
83;PURISIMO CORAZON DE MARIA;PARROQUIA;CARLOS ANTONIO LOPEZ;2781;;;M;;C1419ETM;BUENOS AIRES;4571-6195;PURISIMO-CORAZON-DE-MARIA@LIVE.COM.AR;2781 LOPEZ, CARLOS ANTONIO;PURISIMO CORAZON DE MARIA;-58.501.755.042.685.000;-34.584.419.071.020.300
84;REINA DE LOS APOSTOLES;PARROQUIA;AVDA. AVELLANEDA;2679;;;M;;C1406FYL;BUENOS AIRES;4612-7164;-;2679 AVELLANEDA AV.;REINA DE LOS APOSTOLES;-58.468.647.240.467.700;-3.462.526.301.664.070
85;RESURRECCION DEL SEÑOR;PARROQUIA;DORREGO;892;;;M;;C1414CKQ;BUENOS AIRES;4854-7515;PARROQUIARESU@YAHOO.COM.AR;892 DORREGO AV.;RESURRECCION DEL SEÑOR;-58.447.048.925.902.800;-34.590.937.009.332.800
86;SACRATISIMO CORAZON DE JESUS;PARROQUIA;MOLIÅ RE;856;;;M;;C1407BTP;BUENOS AIRES;4568-1060;-;856 MOLIERE;SACRATISIMO CORAZON DE JESUS;-58.506.875.089.171.900;-34.631.167.241.538.000
87;SAGRADA EUCARISTIA;PARROQUIA;AVDA. SANTA FE;4310;;;M;;C1425BHS;BUENOS AIRES;4777-4047;PSEUCARISTIA@YAHOO.COM.AR;4310 SANTA FE AV.;SAGRADA EUCARISTIA;-58.422.850.021.358.300;-34.580.643.292.215.300
88;SAGRADA FAMILIA;PARROQUIA;AVDA. DR. RICARDO BALBIN;4127;;;M;;C1430AAM;BUENOS AIRES;4115-5390;PASAGRADAFAMILIA@GMAIL.COM;4127 BALBIN, RICARDO, DR. AV.;SAGRADA FAMILIA;-58.489.336.763.294.800;-34.554.816.362.181.000
19;JESUS MISERICORDIOSO;SANTUARIO;DR. PEDRO IGNACIO RIVERA;4591;;;M;;C1431BVA;BUENOS AIRES;4521-3153;JESUSMISERICORDIOSO@UOLSINECTIS.COM.AR;4591 RIVERA, PEDRO I., DR.;JESUS MISERICORDIOSO;-58.482.608.972.286.500;-34.569.036.407.736.300
33;NUESTRA SEÑORA DE CAACUPE;SANTUARIO;AVDA. RIVADAVIA;4879;;;M;;C1424CED;BUENOS AIRES;"4901-1811; 4904-0648";PARROQUIACAACUPE@FIBERTEL.COM.AR;4879 RIVADAVIA AV.;NTRA. SRA. DE CAACUPE;-58.434.094.984.220.200;-34.617.047.539.550.300
36;NUESTRA SEÑORA DE FATIMA (F);SANTUARIO;MARIANO ACOSTA;2979;;;M;;C1437CDE;BUENOS AIRES;4918-5168;PSANTUARIOFATIMA@GMAIL.COM/RPARDINA@MISACORES.ORG;2979 ACOSTA, MARIANO;NTRA. SRA. DE FATIMA;-58.448.636.102.033.200;-34.660.932.151.195.800
44;NUESTRA SEÑORA DE LA MEDALLA MILAGROSA;SANTUARIO;CURAPALIGA¼E;1185;;;M;;C1406DAL;BUENOS AIRES;4921-2165;SECRETARIA_MEDALLAMILAGROSA@YAHOO.COM.AR;1185 CURAPALIGUE AV.;NTRA. SRA. DE LA MEDALLA MILAGROSA;-58.446.215.738.703.800;-3.463.658.738.123.120
75;NUESTRA SEÑORA DEL ROSARIO DE POMPEYA;SANTUARIO;AVDA. SAENZ;0;;ESQUIU;M;;1437;BUENOS AIRES;4919-0772;POMPEYA@CAPUCHINOS.ORG.AR / FROSCARDARIO@HOTMAIL.COM;SAENZ AV. Y ESQUIU;NTRA. SRA. DEL ROSARIO DE POMPEYA;-58.416.685.000.737.400;-34.652.131.876.642.700
79;NUESTRA SEÑORA MADRE DE LOS EMIGRANTES;SANTUARIO;NECOCHEA;312;;;M;;C1158ACB;BUENOS AIRES;4361-5063;REVISTA_PARROQUIAL@YAHOO.COM.AR;312 NECOCHEA;NTRA. SRA. MADRE DE LOS EMIGRANTES;-58.364.435.595.900.900;-34.627.917.204.340.900
93;SAN ANTONIO DE PADUA (C);SANTUARIO;AVDA. CASEROS;2780;;;M;;C1264AAU;BUENOS AIRES;4911-1073;SANTUARIOSANANTONIO@FIBERTEL.COM.AR;2780 CASEROS AV.;SAN ANTONIO DE PADUA;-58.401.707.623.742.600;-34.636.610.174.861.500
101;SAN CAYETANO (D);SANTUARIO;CUZCO;150;;;M;;C1408BLD;BUENOS AIRES;4641-0583/1572;SANTUARIO@SANCAYETANO.ORG.AR;150 CUZCO;SAN CAYETANO;-58.528.114.121.764.700;-34.637.805.592.562.400
117;SAN JOSE DEL TALAR;SANTUARIO;NAVARRO;2452;;;M;;C1419HSH;BUENOS AIRES;4571-8808;SECRETARIA@DESATANUDOS.ORG.AR/VIRGENDESATANUDOS@ARNET.COM.AR;2452 NAVARRO;SAN JOSE DEL TALAR;-5.848.974.598.451.680;-34.591.260.173.514.400
133;SAN PANTALEON;SANTUARIO;MONTE;6865;;;M;;C1440BMG;BUENOS AIRES;4687-4178;SANPANTALEON@CIUDAD.COM.AR;6865 MONTE;SAN PANTALEON;-5.849.797.086.281.420;-34.669.216.573.122.200
140;SAN RAMON NONATO;SANTUARIO;CERVANTES;1150;;;M;;C1407BGT;BUENOS AIRES;"4567-8336; 4648-1160";SANRAMONNONATO@HOTMAIL.COM;1150 CERVANTES;SAN RAMON NONATO;-58.501.281.418.897.000;-34.628.146.588.841.100
159;SANTA LUCIA VIRGEN Y MARTIR;SANTUARIO;AVDA. MONTES DE OCA;550;;;M;;C1270AAS;BUENOS AIRES;4362-8580;PADRETITIN@GMAIL.COM;550 MONTES DE OCA, MANUEL;SANTA LUCIA VIRGEN Y MARTIR;-58.375.103.805.710.700;-34.634.756.343.658.200
167;SANTA RITA DE CASIA;SANTUARIO;CAMARONES;3443;;;M;;C1407FMC;BUENOS AIRES;4566-3466;SECRETARIA@SANTUARIOSANTARITA.ORG.AR;3443 CAMARONES;SANTA RITA DE CASIA;-58.487.358.638.131.300;-34.615.756.565.766.800
90;SAN AGUSTIN;PARROQUIA;AVDA. LAS HERAS;2560;;;M;;C1425ASP;BUENOS AIRES;"4802-5942; 4801-0729";PSABA@SANAGUSTIN.ORG;2560 LAS HERAS GENERAL AV.;SAN AGUSTIN;-58.399.753.596.672.100;-34.585.452.149.451.600
91;SAN ALFONSO MARIA DE LIGORIO;PARROQUIA;BARZANA;1515;;;M;;C1431EAC;BUENOS AIRES;4521-6123;PQUIASANALFONSO@YAHOO.COM.AR;1515 BARZANA;SAN ALFONSO MARIA DE LIGORIO;-58.482.692.256.461.700;-34.585.298.551.364.400
92;SAN AMBROSIO;PARROQUIA;AVDA. ELCANO;3253;;;M;;C1426EJD;BUENOS AIRES;4552-2043;CONTACTO@SANAMBROSIO.COM.AR;3253 ELCANO AV.;SAN AMBROSIO;-5.845.990.231.995.020;-34.573.724.327.674.900
95;SAN ANTONIO MARIA ZACCARIA;PARROQUIA;MONTES DE OCA;1810;1822;;M;;C1271ABS;BUENOS AIRES;4302-1822/0082;PARROQUIAZACCARIA@YAHOO.COM.AR;1810 MONTES DE OCA, MANUEL;SAN ANTONIO MARIA ZACCARIA;-5.837.259.375.133.040;-34.648.210.882.697.700
96;SAN BARTOLOME APOSTOL;PARROQUIA;AVDA. CHICLANA;3659;;;M;;C1262AAA;BUENOS AIRES;4921-4440;-;3659 CHICLANA AV.;SAN BARTOLOME APOSTOL;-58.415.495.424.572.300;-34.636.848.266.925.200
97;SAN BENITO ABAD;PARROQUIA;VILLANUEVA;905;;;M;;C1426BMA;BUENOS AIRES;"4773-4605; 4771-0579";INFO@PARROQUIASANBENITO.COM.AR;905 VILLANUEVA;SAN BENITO ABAD;-58.438.258.717.771.700;-34.568.758.537.868.700
98;SAN BERNARDO;PARROQUIA;GURRUCHAGA;167;171;;M;;C1414DHC;BUENOS AIRES;4854-0789;-;167 GURRUCHAGA;SAN BERNARDO;-58.444.933.463.299.100;-34.600.158.988.336.500
100;SAN CAYETANO (B);PARROQUIA;VIDAL;1745;;;M;;C1426AMG;BUENOS AIRES;"4781-5886; 4784-6309";SANCAYETANOB@HOTMAIL.COM;1745 VIDAL;SAN CAYETANO;-58.457.321.303.437.800;-3.456.739.943.204.570
102;SAN COSME Y SAN DAMIAN;PARROQUIA;ULRICO SCHMIDL;7432;;;M;;C1440CGU;BUENOS AIRES;4687-8368/7217;PARROQUIASANCOSME@CIUDAD.COM.AR;7432 SCHMIDL, ULRICO;SAN COSME Y SAN DAMIAN;-58.518.605.153.575.600;-34.657.372.840.601.300
103;SAN CRISTOBAL;PARROQUIA;AVDA. JUJUY;1251;;;M;;C1247ABA;BUENOS AIRES;4941-2760;PARROQUIA@PSANCRISTOBAL.COM.AR;1251 JUJUY AV.;SAN CRISTOBAL;-58.402.218.728.620.300;-34.624.537.857.379.800
104;SAN ENRIQUE;PARROQUIA;ESTERO BELLACO;6943;;;M;;C1408EKA;BUENOS AIRES;4644-0880;-;6943 ESTERO BELLACO;SAN ENRIQUE;-58.523.353.638.469.800;-34.648.443.387.458.800
105;SAN FELIPE NERI;PARROQUIA;ANDALGALA;2284;;;M;;C1440ENT;BUENOS AIRES;4687-9653;RJSIRERA@GMAIL.COM;2284 ANDALGALA;SAN FELIP E NERI;-58.506.374.567.708.500;-34.662.410.242.681.100
106;SAN FERMIN;PARROQUIA;ESTOMBA;466;;;M;;C1427COL;BUENOS AIRES;4552-8978;PSANFERMIN@YAHOO.COM.AR;466 ESTOMBA;SAN FERMIN;-58.466.846.884.972.800;-34.586.263.446.068.200
107;SAN FRANCISCO DE ASIS;PARROQUIA;MARIANO ACOSTA;3501;;;M;;C1437CED;BUENOS AIRES;4919-7533;PCINIERI@CIUDAD.COM.AR;3501 ACOSTA, MARIANO;SAN FRANCISCO DE ASIS;-58.443.252.369.524.600;-34.665.190.264.540.600
108;SAN FRANCISCO JAVIER;PARROQUIA;JORGE LUIS BORGES;1855;;;M;;C1414DGE;BUENOS AIRES;4831-6706/8457;-;1855 BORGES, JORGE LUIS;SAN FRANCISCO JAVIER;-58.427.430.369.027.100;-34.587.160.313.514.800
109;SAN FRANCISCO SOLANO;PARROQUIA;ZELADA;4771;;;M;;C1407GXG;BUENOS AIRES;4683-3102;PSOLANO@SPEEDY.COM.AR;4771 ZELADA;SAN FRANCISCO SOLANO;-58.493.721.736.862.600;-3.464.152.413.321.450
110;SAN GABRIEL ARCANGEL;PARROQUIA;AVDA. RIVADAVIA;9625;;;M;;C1407DZF;BUENOS AIRES;"4635-1888; 4683-1482";FDIAKONIA@INFOVIA.COM.AR;9625 RIVADAVIA AV.;SAN GABRIEL ARCANGEL;-58.499.876.249.684.300;-34.637.309.329.893.900
111;SAN IGNACIO DE LOYOLA;PARROQUIA;BOLIVAR;225;;;M;;C1066AAE;BUENOS AIRES;"4331-2458; 4331-7863";IGLESIASANIGNACIO@CIUDAD.COM.AR;225 BOLIVAR;SAN IGNACIO DE LOYOLA;-58.373.648.190.228.900;-34.610.552.311.142.700
112;SAN ILDEFONSO;PARROQUIA;GUISE;1939;;;M;;C1425DPG;BUENOS AIRES;4823-0826;MISAATC@ARNET.COM.AR;1939 GUISE;SAN ILDEFONSO;-58.412.548.494.755.400;-3.459.066.403.242.310
113;SAN ISIDRO LABRADOR;PARROQUIA;AVDA. SAN ISIDRO;4630;;;M;;C1429ADU;BUENOS AIRES;4702-6438;SANILABRADOR@CIUDAD.COM.AR;4630 SAN ISIDRO LABRADOR AV.;SAN ISIDRO LABRADOR;-58.474.543.218.752.000;-34.542.419.916.452.300
114;SAN JOSE BENITO COTTOLENGO;PARROQUIA;CTE. LUIS PIEDRABUENA;3848;;;M;;C1439GVU;BUENOS AIRES;"4601-2723; 4602-1819";MATEOSG@YAHOO.COM.AR;3848 PIEDRA BUENA AV.;SAN JOSE BENITO COTTOLENGO;-58.488.475.583.754.700;-3.467.701.951.338.380
115;SAN JOSE DE CALASANZ;PARROQUIA;AVDA. LA PLATA;955;;;M;;C1235ABG;BUENOS AIRES;4922-0579;PARROQUIA@COLEGIOCALASANZ.EDU.AR;955 LA PLATA AV.;SAN JOSE DE CALASANZ;-58.427.067.985.592.400;-34.626.601.853.265.900
118;SAN JUAN BAUTISTA;PARROQUIA;NUEVA YORK;4717;;;M;;C1419HEG;BUENOS AIRES;4501-8282;SECRETARIASJB2003@YAHOO.COM.AR;4717 NUEVA YORK;SAN JUAN BAUTISTA;-5.852.044.296.063.310;-34.605.319.652.431.200
119;SAN JUAN BAUTISTA EL PRECURSOR;PARROQUIA;ROGELIO YRURTIA;5800;;;M;;C1431BJF;BUENOS AIRES;4543-8131;DOMIBRESCI@YAHOO.COM.AR;5800 YRURTIA, ROGELIO;SAN JUAN BAUTISTA EL PRECURSOR;-58.502.193.352.103.300;-34.563.241.876.753.200
120;SAN JUAN BOSCO;PARROQUIA;AVDA. DORREGO;2106;;;M;;C1414CLQ;BUENOS AIRES;"4771-9873/74; 4772-4343";-;2106 DORREGO;SAN JUAN BOSCO;-58.440.025.400.866.500;-3.457.835.603.880.140
121;SAN JUAN DIEGO CUAUHTLATOATZIN;PARROQUIA;AVDA. ESCALADA;2858;;;M;;C1439FHN;BUENOS AIRES;3533-5553;CMSANJUANDIEGO@HOTMAIL.COM;2858 ESCALADA AV.;SAN JUAN DIEGO CUAUHTLATOATZIN;-584.703.720.566.106;-3.466.425.676.013.670
122;SAN JUAN EVANGELISTA;PARROQUIA;OLAVARRIA;486;;;M;;C1162ABJ;BUENOS AIRES;"4302-2194; 4301-1155";CBAREUTHER@DONBOSCO.ORG.AR;486 OLAVARRIA;SAN JUAN EVANGELISTA;-5.835.953.625.963.450;-34.636.797.565.662.300
123;SAN JUAN MARIA VIANNEY;PARROQUIA;AVDA. SAN MARTIN;4460;;;M;;C1417DSR;BUENOS AIRES;4502-5220;ARSVIANNEY@YAHOO.COM.AR;4460 SAN MARTIN AV.;SAN JUAN MARIA VIANNEY;-58.482.729.359.238.800;-34.598.195.670.740.500
124;SAN LORENZO MARTIR;PARROQUIA;AVELINO DIAZ;576;;;M;;C1424CUF;BUENOS AIRES;4921-3625;JBR@SINECTIS.COM.AR;576 DIAZ, AVELINO;SAN LORENZO MARTIR;-58.428.414.068.441.400;-34.635.647.692.749.700
125;SAN LUCAS;PARROQUIA;PARAGUAY;2150;;;M;PLAZA DR. BERNARDO HOUSSAY;1121ABH;BUENOS AIRES;4963-8558;INFO@SPU.COM.AR;2150 PARAGUAY;SAN LUCAS;-58.398.207.398.989.100;-34.598.611.492.414.100
126;SAN LUIS GONZAGA;PARROQUIA;BAIGORRIA;4260;;;M;;C1417FSH;BUENOS AIRES;4567-6861;PARROQUIA_SANLUISGONZAGA@YAHOO.COM.AR;4260 BAIGORRIA;SAN LUIS GONZAGA;-5.850.385.944.993.080;-34.611.528.421.055.300
127;SAN MARTIN DE PORRES;PARROQUIA;VIRREY LORETO;2161;;;M;;C1426DXM;BUENOS AIRES;4784-9207;SAN_MARTIN@FIBERTEL.COM.AR;2161 LORETO, VIRREY;SAN MARTIN DE PORRES;-58.448.749.809.011.100;-34.565.619.879.272.900
128;SAN MARTIN DE TOURS;PARROQUIA;SAN MARTIN DE TOURS;2949;;;M;;C1425DNC;BUENOS AIRES;4802-9192/0162/4985;ANTIMOHERNANDO@HOTMAIL.COM;2949 SAN MARTIN DE TOURS;SAN MARTIN DE TOURS;-58.403.912.508.079.200;-34.578.260.678.178.000
129;SAN MIGUEL;PARROQUIA;24 DE NOVIEMBRE;1651;;;M;;C1241AAI;BUENOS AIRES;4911-4006;PQUIASANMIGUEL@FIBERTEL.COM.AR;1651 24 DE NOVIEMBRE;SAN MIGUEL;-58.410.030.727.947.200;-34.630.510.734.390.400
130;SAN MIGUEL ARCANGEL;PARROQUIA;BARTOLOME MITRE;896;;;M;;C1036AAP;BUENOS AIRES;4345-4907;-;896 MITRE, BARTOLOME;SAN MIGUEL ARCANGEL;-58.379.160.722.111.800;-34.607.329.503.338.500
132;SAN PABLO APOSTOL;PARROQUIA;ALVAREZ THOMAS;799;;;M;;C1427CCH;BUENOS AIRES;4553-9567;-;799 ALVAREZ THOMAS AV.;SAN PABLO APOSTOL;-58.453.439.285.632.600;-34.579.505.738.571.200
138;SAN PIO X;PARROQUIA;BASUALDO;750;;;M;;C1440DNH;BUENOS AIRES;4683-0702/3023;PARROQUIASANPIOX@SPEEDY.ORG.AR;750 BASUALDO;SAN PIO X;-58.498.414.144.887.200;-34.644.784.184.777.200
134;SAN PATRICIO;PARROQUIA;ESTOMBA;1942;;ECHEVERRIA;M;;1430;BUENOS AIRES;"4552-6780; 4551-2513";CONSULTAS@SANPATRICIO.ORG.AR;1942 ESTOMBA;SAN PATRICIO;-58.470.575.990.909.500;-34.571.822.929.688.100
136;SAN PEDRO (C);PARROQUIA;BENITO QUINQUELA MARTIN;1151;;;M;;C1167AFE;BUENOS AIRES;"4303-1839/5858; 4301-3261";SANPEDROLABOCA@YAHOO.COM.AR;1151 QUINQUELA MARTIN, BENITO;SAN PEDRO;-58.366.534.082.658.500;-3.464.244.516.250.430
135;SAN PEDRO APOSTOL;PARROQUIA;BERMUDEZ;2025;;ARREGUI;M;;C1417BWC;BUENOS AIRES;4567-4596;-;2025 BERMUDEZ;SAN PEDRO APOSTOL;-5.850.922.662.716.120;-34.619.527.043.819.700
137;SAN PEDRO GONZALEZ TELMO;PARROQUIA;HUMBERTO 1Âº;340;;;M;;C1103ACH;BUENOS AIRES;4361-1168;-;340 HUMBERTO 1°;SAN PEDRO GONZALEZ TELMO;-58.370.544.360.580.600;-34.620.852.056.841.300
139;SAN RAFAEL ARCANGEL;PARROQUIA;JOSE P. VARELA;5272;;;M;;C1417EZH;BUENOS AIRES;4568-4597;SECRETARIA_PARROQUIAL@CASADESANRAFAEL.COM.AR;5272 VARELA, JOSE PEDRO;SAN RAFAEL ARCANGEL;-58.522.496.464.084.000;-34.615.220.316.804.700
141;SAN ROQUE;PARROQUIA;PLAZA;1160;;;M;;C1427CVI;BUENOS AIRES;4552-4468/1626;SECRETARIA@SANROQUERCC.COM.AR;1160 PLAZA;SAN ROQUE;-58.467.500.611.582.900;-34.581.008.708.783.600
142;SAN SATURNINO Y SAN JUDAS;PARROQUIA;MIRAFLORES;2080;;;M;;C1406COB;BUENOS AIRES;4921-9483;SJUDASTADEO@GMAIL.COM;2080 MIRAFLORES;SAN SATURNINO Y SAN JUDAS;-58.438.634.859.041.800;-34.644.109.784.383.200
143;SAN TARSICIO;PARROQUIA;DEMARIA;4430;;;M;;C1425AEB;BUENOS AIRES;4773-4763;-;4430 DEMARIA;SAN TARSICIO;-58.419.875.278.110.200;-34.575.507.773.195.900
144;SAN VICENTE DE PAUL;PARROQUIA;MANUEL ARTIGAS;6150;;;M;;C1440BRV;BUENOS AIRES;4635-5178;-;6150 ARTIGAS MANUEL DE;SAN VICENTE DE PAUL;-58.504.578.019.048.400;-34.651.777.354.689.800
145;SANTA ADELA;PARROQUIA;AVDA. LUIS MARIA CAMPOS;195;;;M;;C1425GEB;BUENOS AIRES;4772-4833;PARROQUIASANTADELA@YAHOO.COM.AR;195 CAMPOS, LUIS M. AV.;SANTA ADELA;-58.431.038.658.988.100;-34.574.731.787.530.200
146;SANTA AMELIA;PARROQUIA;VIRREY LINIERS;428;;;M;;C1174ACJ;BUENOS AIRES;4864-1522;-;428 LINIERS VIRREY;SANTA AMELIA;-58.414.118.377.709.800;-34.615.827.706.048.000
147;SANTA ANA;PARROQUIA;PEDRO LOZANO;3167;;;M;;C1417EDK;BUENOS AIRES;4501-0723;PSANTAANA.VILLADELPARQUE@GMAIL.COM;3167 LOZANO, PEDRO;SANTA ANA;-58.494.806.018.075.100;-34.600.862.544.644.000
148;SANTA CATALINA DE ALEJANDRIA;PARROQUIA;BRASIL;850;;;M;;C1154AAN;BUENOS AIRES;"4300-2194/1731; 4307-8211/9843";CASASANTACATALINA@GMAIL.COM/PARROQUIASANTACATALINA@GMAIL.COM;850 BRASIL;SANTA CATALINA DE ALEJANDRIA;-58.376.614.578.714.400;-34.626.694.275.593.300
149;SANTA CLARA;PARROQUIA;ZUVIRIA;2631;;;M;;C1406HSS;BUENOS AIRES;4632-1461;PARROQUIASANTACLARA@YAHOO.COM.AR;2631 ZUVIRIA;SANTA CLARA;-58.455.805.496.308.700;-3.464.257.012.421.250
150;SANTA CLARA DE ASIS;PARROQUIA;GURRUCHAGA;1012;;;M;;C1414DHV;BUENOS AIRES;4773-0659;PSTACLARADEASIS@HOTMAIL.COM;1012 GURRUCHAGA;SANTA CLARA DE ASIS;-58.435.956.011.254.500;-34.593.419.412.150.000
151;SANTA CRUZ;PARROQUIA;ESTADOS UNIDOS;3119;;GRAL. URQUIZA;M;;1228;BUENOS AIRES;"4931-1317; 4957-2966";CASANAZARET@SPEEDY.COM.AR / IGLESIASANTACRUZ@GMAIL.COM;3119 ESTADOS UNIDOS;SANTA CRUZ;-58.409.313.552.276.400;-34.621.428.946.214.000
152;SANTA ELENA;PARROQUIA;JUAN FRANCISCO SEGUI;3815;;;M;;C1425ACG;BUENOS AIRES;"4802-0638; 4807-1044";PSANTAELENA@GMAIL.COM;3815 SEGUI, JUAN FRANCISCO;SANTA ELENA;-58.411.745.779.907.200;-34.577.735.917.075.700
153;SANTA ELISA;PARROQUIA;SALTA;2290;;;M;;C1137ACV;BUENOS AIRES;4305-3613;PARROQUIASANTAELISA@FIBERTEL.COM;2290 SALTA;SANTA ELISA;-58.382.291.724.427.800;-34.633.981.624.910.000
154;SANTA FRANCISCA JAVIER CABRINI;PARROQUIA;FRANCISCO BILBAO;2241;;;M;;C1406FFS;BUENOS AIRES;4632-2387;-;2241 BILBAO, FRANCISCO;SANTA FRANCISCA JAVIER CABRINI;-5.845.785.219.328.380;-34.633.595.515.950.800
155;SANTA INES VIRGEN Y MARTIR;PARROQUIA;AVALOS;250;;;M;;C1427AWD;BUENOS AIRES;4553-1456;PBRO.GABRIELBAUTISTA@GMAIL.COM;250 AVALOS;SANTA INES VIRGEN Y MARTIR;-58.466.762.061.266.000;-34.593.905.806.257.000
156;SANTA ISABEL DE HUNGRIA;PARROQUIA;ESTRADA;823;;;M;;C1424CMQ;BUENOS AIRES;4923-3101;-;823 ESTRADA;SANTA ISABEL DE HUNGRIA;-58.436.688.758.323.100;-34.631.832.287.645.200
157;SANTA JULIA;PARROQUIA;JUAN B. ALBERDI;1195;;VICTOR MARTINEZ;M;;1406;BUENOS AIRES;4431-0052/3124;PSANTAJULIA@HOTMAIL.COM;1195 JUAN BAUTISTA ALBERDI;SANTA JULIA;-58.444.999.335.559.700;-3.462.401.855.405.520
158;SANTA LUCIA (B);PARROQUIA;GASCON;1372;;;M;;C1181ACZ;BUENOS AIRES;4862-7778;SANTALUCIA11@GMAIL.COM;1372 GASCON;SANTA LUCIA;-58.423.127.333.117.600;-34.594.505.573.912.900
160;SANTA MAGDALENA SOFIA BARAT;PARROQUIA;AVDA. SALVADOR MARIA DEL CARRIL;2458;;;M;;C1419GZQ;BUENOS AIRES;4571-3829;PQUIASMSB@ARNET.COM.AR;2458 CARRIL, SALVADOR MARIA DEL AV.;SANTA MAGDALENA SOFIA BARAT;-58.493.045.063.199.000;-34.587.727.028.705.100
162;SANTA MARIA;PARROQUIA;AVDA. LA PLATA;286;;;M;;C1184AAP;BUENOS AIRES;4983-7944;COMUNICACIONSANTAMARIA@GMAIL.COM;286 LA PLATA AV.;SANTA MARIA;-58.428.374.100.729.900;-34.618.080.147.132.700
163;SANTA MARIA DE BETANIA;PARROQUIA;MEDRANO;752;;;M;;C1179AAN;BUENOS AIRES;4862-0825;-;752 MEDRANO AV.;SANTA MARIA DE BETANIA;-58.420.911.477.376.300;-34.601.270.632.261.700
164;SANTA MARIA DE LOS ANGELES;PARROQUIA;ROMULO S. NAON;3250;;;M;;C1430EQL;BUENOS AIRES;4541-9300;LUISCOSCIA09@SPEEDY.COM.AR;3250 NAON, ROMULO;SANTA MARIA DE LOS ANGELES;-58.479.376.698.333.000;-34.559.495.478.959.700
165;SANTA MARIA MADRE DEL PUEBLO;PARROQUIA;AVDA. PERITO MORENO;0;;AVDA. CRUZ;M;;C1406IVA;BUENOS AIRES;;MADREDELPUEBLO@HOTMAIL.COM;MORENO, PERITO AV. Y FERNANDEZ DE LA CRUZ, F., GRAL. AV.;SANTA MARIA MADRE DEL PUEBLO;-58.431.431.870.173.000;-34.650.191.966.081.800
166;SANTA MARIA TERESA GORETTI;PARROQUIA;AVDA. ESCALADA;1150;;;M;;C1407LDX;BUENOS AIRES;"4635-4012; 3969-6943";PARROQUIASANTAMARIAGORETTI@YAHOO.COM;1150 ESCALADA AV.;SANTA MARIA TERESA GORETTI;-58.490.736.346.309.700;-34.648.195.993.431.800
161;SANTA MARGARITA MARIA ALACOQUE;PARROQUIA;PICO;4950;;;M;;C1430CYP;BUENOS AIRES;4541-5138;SANTAMARGARITA16@GMAIL.COM;4950 PICO;SANTA MARGARITA MARIA ALACOQUE;-58.498.005.140.738.100;-34.551.772.999.695.600
169;SANTA TERESA DEL NIÑO JESUS;PARROQUIA;QUIROS;2941;;;M;;C1427DAG;BUENOS AIRES;4521-0422;PARROQUIASANTATERESITA@YAHOO.COM.AR;2941 QUIROS;SANTA TERESA DEL NIÑO JESUS;-58.476.438.738.139.500;-34.589.859.357.527.700
171;SANTISIMA CRUZ;PARROQUIA;GRAL. JOSE G. ARTIGAS;2064;;;M;;C1416AKX;BUENOS AIRES;4581-3281;PARROQUIASANTISIMACRUZ@CIUDAD.COM.AR;2064 ARTIGAS, JOSE GERVASIO, GRAL.;SANTISIMA CRUZ;-58.477.008.157.468.000;-34.608.194.219.468.600
172;SANTISIMA TRINIDAD;PARROQUIA;AVDA. CABILDO;3680;;;M;;C1429AAU;BUENOS AIRES;4702-1030;CENTROTRINITARIO@HOTMAIL.COM / GUIMELGIL@GMAIL.COM;3680 CABILDO AV.;SANTISIMA TRINIDAD;-58.468.196.319.914.900;-34.549.257.739.529.300
173;SANTISIMO REDENTOR;PARROQUIA;LARREA;1252;;;M;;C1117ABJ;BUENOS AIRES;4824-0895;PQUIASANTISIMOREDENTOR@FIBERTEL.COM.AR;1252 LARREA;SANTISIMO REDENTOR;-58.400.551.628.698.900;-34.592.845.683.585.900
170;SANTIAGO APOSTOL;PARROQUIA;TTE. GRAL. PABLO RICCHERI;3189;;;M;;C1428CEI;BUENOS AIRES;4782-8204;PARROQUIASANTIAGOAPOSTOL@FIBERTEL.COM.AR;3189 RICCHIERI, PABLO, TTE. GRAL.;SANTIAGO APOSTOL;-58.453.532.093.976.700;-34.548.150.049.695.300
175;SANTO CRISTO;PARROQUIA;AVDA. F. FERNANDEZ DE LA CRUZ;6820;;;M;;C1439CPU;BUENOS AIRES;4601-0137;PARROQUIASANTOCRISTO@GMAIL.COM;6820 FERNANDEZ DE LA CRUZ, F., GRAL. AV.;SANTO CRISTO;-58.477.616.535.376.900;-34.689.894.478.277.800
176;SANTOS SABINO Y BONIFACIO;PARROQUIA;PRIMERA JUNTA;4095;;;M;;C1407HTI;BUENOS AIRES;4671-7407;PQUIASABINOYBONIFACIO@GMAIL.COM;4095 PRIMERA JUNTA;SANTOS SABINO Y BONIFACIO;-58.472.306.686.868.500;-34.648.832.818.318.900
177;SEÑOR DEL MILAGRO;PARROQUIA;MOLDES;1157;;;M;;C1426ALK;BUENOS AIRES;4784-1140;-;1157 MOLDES;SEÑOR DEL MILAGRO;-58.451.537.377.218.200;-34.570.226.191.524.600
178;SOLEDAD DE MARIA SANTISIMA;PARROQUIA;AVDA. GRAL. MOSCONI;4119;;;M;;C1419ERH;BUENOS AIRES;4501-3348;PARROQUIASOLEDADDEMARIA@GMAIL.COM.AR;4119 MOSCONI GENERAL AV.;SOLEDAD DE MARIA SANTISIMA;-58.517.519.727.384.800;-34.595.478.954.284.700
179;TODOS LOS SANTOS Y ANIMAS;PARROQUIA;OTERO;145;;;M;;C1427BMC;BUENOS AIRES;4854-4658;-;145 OTERO;TODOS LOS SANTOS Y ANIMAS;-5.845.173.812.277.290;-34.593.295.107.630.700
180;TRANSITO DE LA SANTISIMA VIRGEN;PARROQUIA;TTE. GRAL. JUAN DOMINGO PERON;3333;;;M;;C1198AAK;BUENOS AIRES;4861-0573;TRANSITODELAVIRGEN@YAHOO.COM.AR;3333 PERON, JUAN DOMINGO, TTE. GENERAL;TRANSITO DE LA SMA. VIRGEN;-5.841.334.465.080.250;-34.607.304.077.807.000
181;TRANSITO DE SAN JOSE;PARROQUIA;AVDA. EMILIO CASTRO;6391;;;M;;C1408IGA;BUENOS AIRES;4642-4731;TRANSITODESANJOSE@GMAIL.COM;6391 CASTRO, EMILIO AV.;TRANSITO DE SAN JOSE;-58.511.665.532.536.900;-34.650.011.332.322.800
182;VIRGEN DE LOS DESAMPARADOS;PARROQUIA;JOSE E. RODO;4203;;;M;;C1407HDK;BUENOS AIRES;4671-1255;PVDESAMPARADOS@HOTMAIL.COM;4203 RODO, JOSE E.;VIRGEN DE LOS DESAMPARADOS;-58.483.383.675.693.900;-34.642.112.257.876.100
183;VIRGEN DE LOS MILAGROS DE CAACUPE;PARROQUIA;OSVALDO CRUZ;3470;;;M;;C1437IFN;BUENOS AIRES;4302-3643;-;3470 CRUZ, OSVALDO;VIRGEN DE LOS MILAGROS DE CAACUPE;-58.396.914.191.934.600;-34.656.258.898.720.700
184;VIRGEN DE LUJAN;PARROQUIA;HERMINIO MASANTONIO;2990;;;M;;C1437HVB;BUENOS AIRES;4911-9090;-;2990 MASANTONIO, HERMINIO;VIRGEN DE LUJAN;-58.403.438.168.517.600;-34.646.475.919.441.100
185;VIRGEN INMACULADA;PARROQUIA;"PASAJE ""C""";0;;MARTINEZ CASTRO S/N;;"""BARRIO DR. RAMON CARRILLO""";1437;BUENOS AIRES;5648-8709/8710;PEDROBAYA@YAHOO.COM;;VIRGEN INMACULADA;-58.457.227.887.646.900;-34.655.574.429.064.100
186;VIRGEN INMACULADA DE LOURDES;PARROQUIA;AVDA. RIVADAVIA;6280;;;M;;C1406GLS;BUENOS AIRES;"4631-9920; 633-5779";-;6280 RIVADAVIA AV.;VIRGEN INMACULADA DE LOURDES;-5.845.498.544.338.550;-346.262.019.747.235
