LNG;LAT;ID;NOMBRE;TIPO;ETAPA;ETAPA_OBSE;ESTADO;SUBCATEGOR;CALLE;ALTURA;CALLE2;DIRECCION_;BARRIO;COMUNA
-58.4369869519461;-34.5524653783904;913;PLAZA PARQUES NACIONALES ARGENTINOS;PARQUES Y PLAZAS;SEGUNDA ETAPA HRL;ABR-17;DISPONIBLE;PARQUES Y PLAZAS;SUCRE;647;;SUCRE, ANTONIO JOSE DE, MCAL. 647;BELGRANO;COMUNA 13
-58.4703005092401;-34.5413943757857;912;PLAZA FELIX LIMA;PARQUES Y PLAZAS;SEGUNDA ETAPA HRL;ABR-17;DISPONIBLE;PARQUES Y PLAZAS;RAMALLO;2159;;RAMALLO 2159;NUÑEZ;COMUNA 13
-58.3781097766979;-34.6018656001877;911;ESMERALDA 549;ESPACIO PUBLICO;SEGUNDA ETAPA HRL;ABR-17;DISPONIBLE;ESPACIO PUBLICO;ESMERALDA;549;;ESMERALDA 549;SAN NICOLAS;COMUNA 1
-58.3774361747035;-34.6012057263546;910;TUCUMAN 744;ESPACIO PUBLICO;SEGUNDA ETAPA HRL;ABR-17;DISPONIBLE;ESPACIO PUBLICO;TUCUMAN;744;;TUCUMAN 744;SAN NICOLAS;COMUNA 1
-58.372345947187;-34.6045219952732;909;RECONQUISTA 281;ESPACIO PUBLICO;SEGUNDA ETAPA HRL;ABR-17;DISPONIBLE;ESPACIO PUBLICO;RECONQUISTA;281;;RECONQUISTA 281;SAN NICOLAS;COMUNA 1
-58.3760231693405;-34.6022182134172;908;LAVALLE 653;ESPACIO PUBLICO;SEGUNDA ETAPA HRL;ABR-17;DISPONIBLE;ESPACIO PUBLICO;LAVALLE;653;;LAVALLE 653;SAN NICOLAS;COMUNA 1
-58.3754167577824;-34.5993776284311;907;FLORIDA 746;ESPACIO PUBLICO;SEGUNDA ETAPA HRL;ABR-17;DISPONIBLE;ESPACIO PUBLICO;FLORIDA;746;;FLORIDA 746;SAN NICOLAS;COMUNA 1
-58.3752536721808;-34.6038317337257;906;FLORIDA 364;ESPACIO PUBLICO;SEGUNDA ETAPA HRL;ABR-17;DISPONIBLE;ESPACIO PUBLICO;FLORIDA;364;;FLORIDA 364;SAN NICOLAS;COMUNA 1
-58.3751471636619;-34.6060150538409;905;FLORIDA 180;ESPACIO PUBLICO;SEGUNDA ETAPA HRL;ABR-17;DISPONIBLE;ESPACIO PUBLICO;FLORIDA;180;;FLORIDA 180;SAN NICOLAS;COMUNA 1
-58.4565667863053;-34.6220675517823;904;PLAZA DEL ANGEL GRIS;PARQUES Y PLAZAS;SEGUNDA ETAPA HRL;ABR-17;DISPONIBLE;PARQUES Y PLAZAS;DONATO ALVAREZ;312;;ALVAREZ, DONATO, TTE. GRAL. 312;FLORES;COMUNA 7
-58.4951484805537;-34.6706681699885;903;PORTAL INCLUSIVO VILLA15;ESPACIO PUBLICO;SEGUNDA ETAPA HRL;ABR-17;DISPONIBLE;ESPACIO PUBLICO;PIEDRA BUENA AV.;3150;;PIEDRA BUENA AV. 3150;VILLA LUGANO;COMUNA 8
-58.4909398835094;-34.6748738793432;902;CAPILLA SAN FRANCISCO;ESPACIO PUBLICO;SEGUNDA ETAPA HRL;ABR-17;DISPONIBLE;ESPACIO PUBLICO;PIEDRA BUENA AV.;3400;;PIEDRA BUENA AV. 3400;VILLA LUGANO;COMUNA 8
-58.4935939849703;-34.6679461954721;901;CANCHA DEL FONDO;ESPACIO PUBLICO;SEGUNDA ETAPA HRL;ABR-17;DISPONIBLE;ESPACIO PUBLICO;PERON, EVA AV.;6500;;PERON, EVA AV. 6500;MATADEROS;COMUNA 9
-58.4005418645201;-34.65528767685;900;PORTAL INCLUSIVO BARRIO 2124;ESPACIO PUBLICO;SEGUNDA ETAPA HRL;ABR-17;DISPONIBLE;ESPACIO PUBLICO;ZAVALETA;0;CRUZ, OSVALDO;ZAVALETA Y CRUZ, OSVALDO;BARRACAS;COMUNA 4
-58.4018619637365;-34.6550990413703;899;PLAZA COPACABANA;PARQUES Y PLAZAS;SEGUNDA ETAPA HRL;ABR-17;DISPONIBLE;PARQUES Y PLAZAS;IGUAZU;0;SANTO DOMINGO;IGUAZU Y SANTO DOMINGO;NUEVA POMPEYA;COMUNA 4
-58.4016229487445;-34.6567695273052;898;CANCHA M52;ESPACIO PUBLICO;SEGUNDA ETAPA HRL;ABR-17;DISPONIBLE;ESPACIO PUBLICO;CRUZ, OSVALDO;3751;;CRUZ, OSVALDO 3751;BARRACAS;COMUNA 4
-58.3959540314479;-34.6573783182942;897;CANCHA CHANGUITOS;ESPACIO PUBLICO;SEGUNDA ETAPA HRL;ABR-17;DISPONIBLE;ESPACIO PUBLICO;LUJAN;3701;;LUJAN 3701;BARRACAS;COMUNA 4
-58.4457558122262;-34.6443969386105;896;PLAZA DE LA PAZ;PARQUES Y PLAZAS;SEGUNDA ETAPA HRL;ABR-17;DISPONIBLE;PARQUES Y PLAZAS;CASTAÑARES AV. Y BONORINO, ESTEBAN, CNEL. AV.;0;;CASTAÑARES AV. Y BONORINO, ESTEBAN, CNEL. AV.;FLORES;COMUNA 7
-58.439553939741;-34.6483016854491;895;POLIDEPORTIVO RIVADAVIA;ESPACIO PUBLICO;SEGUNDA ETAPA HRL;ABR-17;DISPONIBLE;ESPACIO PUBLICO;RIESTRA AV. Y CHARRUA;0;;RIESTRA AV. Y CHARRUA;FLORES;COMUNA 7
-58.5080672628557;-34.6186110557655;894;PLAZA MONSEÑOR FERMIN LAFITTE;PARQUES Y PLAZAS;SEGUNDA ETAPA HRL;ABR-17;DISPONIBLE;PARQUES Y PLAZAS;ARREGUI;4813;;ARREGUI 4813;MONTE CASTRO;COMUNA 10
-58.4168064097032;-34.5838660038794;893;JARDIN BOTANICO CARLOS THAYS;PARQUES Y PLAZAS;SEGUNDA ETAPA HRL;ABR-17;DISPONIBLE;PARQUES Y PLAZAS;AV. SANTA FE;3799;;SANTA FE AV. 3799;PALERMO;COMUNA 14
-58.3695099295079;-34.6266597826788;892;PARQUE LEZAMA;PARQUES Y PLAZAS;SEGUNDA ETAPA HRL;ABR-17;DISPONIBLE;PARQUES Y PLAZAS;MARTIN GARCIA;300;;GARCIA, MARTIN AV. 300;BOCA;COMUNA 4
-58.4556639947248;-34.5614729376062;891;PLAZA GRAL. MANUEL BELGRANO;PARQUES Y PLAZAS;SEGUNDA ETAPA HRL;ABR-17;DISPONIBLE;PARQUES Y PLAZAS;VUELTA DE OBLIGADO;0;JURAMENTO AV.;VUELTA DE OBLIGADO Y JURAMENTO AV.;BELGRANO;COMUNA 13
-58.3721798970362;-34.6084436906846;890;PLAZA DE MAYO;PARQUES Y PLAZAS;SEGUNDA ETAPA HRL;ABR-17;DISPONIBLE;PARQUES Y PLAZAS;YRIGOYEN, HIPOLITO AV. Y DEFENSA;0;;YRIGOYEN, HIPOLITO AV. Y DEFENSA;MONSERRAT;COMUNA 1
-58.465004731851;-34.6786416460807;889;ESTACION POLA;METROBUS;SEGUNDA ETAPA HRL;ABR-17;DISPONIBLE;SUR;AVENIDA GENERAL FERNANDEZ DE LA CRUZ;5302;;FERNANDEZ DE LA CRUZ, F., GRAL. AV. 5302;VILLA LUGANO;COMUNA 8
-58.4727025763016;-34.6550181556125;888;PORTAL INCLUSIVO BOULEVARD;ESPACIO PUBLICO;SEGUNDA ETAPA HRL;ABR-17;DISPONIBLE;ESPACIO PUBLICO;SAN JUAN BAUTISTA DE LA SALLE;2300;;SAN JUAN BAUTISTA DE LA SALLE AV. 2300;PARQUE AVELLANEDA;COMUNA 9
-58.4475500351133;-34.6487330761571;887;PORTAL INCLUSIVO VARELA;ESPACIO PUBLICO;SEGUNDA ETAPA HRL;ABR-17;DISPONIBLE;ESPACIO PUBLICO;AVENIDA VARELA;1881;;VARELA AV. 1881;FLORES;COMUNA 7
-58.4524791418265;-34.664187444596;886;PILETONES;ESPACIO PUBLICO;SEGUNDA ETAPA HRL;ABR-17;DISPONIBLE;ESPACIO PUBLICO;JOSE BARROS PAZOS;3711;;BARROS PAZOS, JOSE 3711;VILLA SOLDATI;COMUNA 8
-58.4516048096453;-34.6610390781556;885;POLIDEPORTIVO PILETONES;ESPACIO PUBLICO;SEGUNDA ETAPA HRL;ABR-17;DISPONIBLE;ESPACIO PUBLICO;ANA MARIA JANER;3551;;JANER, ANA MARIA 3551;VILLA SOLDATI;COMUNA 8
-58.4419567892874;-34.6447398189336;884;PLAZA DE LOS NIÑOS;PARQUES Y PLAZAS;SEGUNDA ETAPA HRL;ABR-17;DISPONIBLE;PARQUES Y PLAZAS;AV. PERITO MORENO;2284;;MORENO, PERITO AV. 2284;FLORES;COMUNA 7
-58.4330810725935;-34.6505134617905;883;PORTAL INCLUSIVO PERITO MORENO;ESPACIO PUBLICO;SEGUNDA ETAPA HRL;ABR-17;DISPONIBLE;ESPACIO PUBLICO;AV PERITO MORENO Y EREZCANO;0;;MORENO, PERITO AV. Y EREZCANO;FLORES;COMUNA 7
-58.3857580823157;-34.5810817147309;881;PLAZA DE LOS GORDOS;PARQUES Y PLAZAS;SEGUNDA ETAPA HRL;ABR-17;DISPONIBLE;PARQUES Y PLAZAS;GENDARMERIA NACIONAL AV.;0;WALSH, RODOLFO;GENDARMERIA NACIONAL AV. Y WALSH, RODOLFO;RETIRO;COMUNA 1
-58.3785297287608;-34.5854985323429;880;CANCHA DE LOS LAPICES;ESPACIO PUBLICO;SEGUNDA ETAPA HRL;ABR-17;DISPONIBLE;ESPACIO PUBLICO;GENDARMERIA NACIONAL AV.;0;WALSH, RODOLFO;GENDARMERIA NACIONAL AV. Y WALSH, RODOLFO;RETIRO;COMUNA 1
-58.4737192592761;-34.6549315302244;879;CANCHA SAN JUAN BAUTISTA;ESPACIO PUBLICO;SEGUNDA ETAPA HRL;ABR-17;DISPONIBLE;ESPACIO PUBLICO;AV. SAN JUAN BAUTISTA DE LA SALLE;2300;;SAN JUAN BAUTISTA DE LA SALLE AV. 2300;PARQUE AVELLANEDA;COMUNA 9
-58.4681853160553;-34.6736087863691;878;CANCHA LOS HUERFANOS;ESPACIO PUBLICO;SEGUNDA ETAPA HRL;ABR-17;DISPONIBLE;ESPACIO PUBLICO;MIRALLA;3901;;MIRALLA 3901;VILLA LUGANO;COMUNA 8
-58.4604470897898;-34.6720558570794;877;PORTAL INCLUSIVO MANZANA 30;PARQUES Y PLAZAS;SEGUNDA ETAPA HRL;ABR-17;DISPONIBLE;ESPACIO PUBLICO;AV ESCALADA;3800;;ESCALADA AV. 3800;VILLA SOLDATI;COMUNA 8
-58.4566955503056;-34.6595317332222;876;PLAZA LACARRA Y SOMELLERA;PARQUES Y PLAZAS;SEGUNDA ETAPA HRL;ABR-17;DISPONIBLE;PARQUES Y PLAZAS;LACARRA Y SOMELLERA;0;;LACARRA AV. Y SOMELLERA;VILLA SOLDATI;COMUNA 8
-58.4546894652423;-34.6559475402155;875;PORTAL INCLUSIVO CARRILLO;ESPACIO PUBLICO;SEGUNDA ETAPA HRL;ABR-17;DISPONIBLE;ESPACIO PUBLICO;MARIANO ACOSTA Y PASAJE I;0;;ACOSTA, MARIANO Y PASAJE I;VILLA SOLDATI;COMUNA 8
-58.446622447917;-34.6609044549365;874;PLAZA FATIMA;PARQUES Y PLAZAS;SEGUNDA ETAPA HRL;ABR-17;DISPONIBLE;PARQUES Y PLAZAS;PERGAMINO Y CHILAVERT;0;;PERGAMINO Y CHILAVERT, MARTINIANO, CORONEL;VILLA SOLDATI;COMUNA 8
-58.4431309772502;-34.6650352162099;873;PLAZA NIDO SOLDATI;PARQUES Y PLAZAS;SEGUNDA ETAPA HRL;ABR-17;DISPONIBLE;PARQUES Y PLAZAS;CORRALES Y MARIANO ACOSTA;0;;CORRALES Y ACOSTA, MARIANO;VILLA SOLDATI;COMUNA 8
-58.4700459946769;-34.6559753798094;872;PLAZA LA SALLE;PARQUES Y PLAZAS;SEGUNDA ETAPA HRL;ABR-17;DISPONIBLE;PARQUES Y PLAZAS;AV DE LA SALLE Y DELLEPIANE;0;;SAN JUAN BAUTISTA DE LA SALLE AV. Y DELLEPIANE, LUIS, TTE. GRAL.;PARQUE AVELLANEDA;COMUNA 9
-58.5079225060594;-34.634223707993;870;PARQUE DERECHOS DEL HOMBRE;PARQUES Y PLAZAS;SEGUNDA ETAPA HRL;ENE-01;DISPONIBLE;PARQUES Y PLAZAS;MARGARIÑOS CERVANTES;5500;;MAGARIÑOS CERVANTES, A. 5500;VILLA LURO;COMUNA 10
-58.4675159067106;-34.6105107208822;866;PLAZA DR. ROQUE SAENZ PEÑA;PARQUES Y PLAZAS;SEGUNDA ETAPA HRL;DIC-01;DISPONIBLE;PARQUES Y PLAZAS;ANDRES LAMAS;1641;;LAMAS, ANDRES 1641;VILLA GRAL. MITRE;COMUNA 11
-58.449048797335;-34.6643332857;865;ESTACION LAGUNA;METROBUS;SEGUNDA ETAPA HRL;OCT-31;DISPONIBLE;SUR;FERNANDEZ DE LA CRUZ;3550;;FERNANDEZ DE LA CRUZ, F., GRAL. AV. 3550;VILLA SOLDATI;COMUNA 8
-58.4663787299824;-34.6946192068142;863;ESTACION PIEDRA BUENA;METROBUS;SEGUNDA ETAPA HRL;DIC-01;DISPONIBLE;SUR;AV. CNEL ROCA;6537;;ROCA, CNEL. AV. 6537;VILLA RIACHUELO;COMUNA 8
-58.4161079790344;-34.5725761921847;862;ROSEDAL;PARQUES Y PLAZAS;SEGUNDA ETAPA HRL;DIC-01;DISPONIBLE;PARQUES Y PLAZAS;LIBERTADOR;3752;;DEL LIBERTADOR AV. 3752;PALERMO;COMUNA 14
-58.4127293678925;-34.6222987072532;861;PLAZA MARIANO BOEDO;PARQUES Y PLAZAS;SEGUNDA ETAPA HRL;DIC-01;DISPONIBLE;PARQUES Y PLAZAS;CARLOS CALVO;3347;;CALVO, CARLOS 3347;BOEDO;COMUNA 5
-58.4545834987727;-34.6235801520302;856;PATIO DE LOS LECHEROS;ESPACIO PUBLICO;SEGUNDA ETAPA HRL;DIC-01;DISPONIBLE;ESPACIO PUBLICO;AV. DONATO ALVAREZ Y BACACAY;0;;ALVAREZ, DONATO, TTE. GRAL. Y BACACAY;FLORES;COMUNA 7
-58.4329227958166;-34.6176728727052;855;PARQUE RIVADAVIA;PARQUES Y PLAZAS;SEGUNDA ETAPA HRL;DIC-01;DISPONIBLE;PARQUES Y PLAZAS;RIVADAVIA;4800;;RIVADAVIA AV. 4800;CABALLITO;COMUNA 6
-58.4771047729227;-34.5696510692025;854;PLAZA PASEO DE LA PAZ;PARQUES Y PLAZAS;SEGUNDA ETAPA HRL;DIC-01;DISPONIBLE;PARQUES Y PLAZAS;MONROE;4200;;MONROE 4200;VILLA URQUIZA;COMUNA 12
-58.5222113648065;-34.6124967953478;853;PLAZA EL MAESTRO;PARQUES Y PLAZAS;SEGUNDA ETAPA HRL;DIC-01;DISPONIBLE;PARQUES Y PLAZAS;AV. FRANCISCO BEIRO;5100;;BEIRO, FRANCISCO AV. 5100;VILLA DEVOTO;COMUNA 11
-58.4821591491689;-34.6357213586516;852;PLAZA CNEL. RAMON L. FALCON;PARQUES Y PLAZAS;SEGUNDA ETAPA HRL;DIC-01;DISPONIBLE;PARQUES Y PLAZAS;FALCON, RAMON L.;3900;;FALCON, RAMON L.,CNEL. 3900;FLORESTA;COMUNA 10
-58.4894086324604;-34.5719170340178;851;PLAZA ECHEVERRIA;PARQUES Y PLAZAS;SEGUNDA ETAPA HRL;DIC-01;DISPONIBLE;PARQUES Y PLAZAS;CULLEN;5000;;CULLEN 5000;VILLA URQUIZA;COMUNA 12
-58.5278667116366;-34.6202032098856;850;PLAZA VILLA REAL;PARQUES Y PLAZAS;SEGUNDA ETAPA HRL;DIC-01;DISPONIBLE;PARQUES Y PLAZAS;IRIGOYEN;2300;;IRIGOYEN 2300;VILLA REAL;COMUNA 10
-58.5180714512038;-34.6108340378158;849;PLAZA TTE. GRAL. PABLO RICCHIERI;PARQUES Y PLAZAS;SEGUNDA ETAPA HRL;DIC-01;DISPONIBLE;PARQUES Y PLAZAS;QUEVEDO;3400;;QUEVEDO 3400;VILLA DEVOTO;COMUNA 11
-58.5093298300042;-34.639245132272;848;PLAZA EJERCITO DE LOS ANDES;PARQUES Y PLAZAS;SEGUNDA ETAPA HRL;DIC-01;DISPONIBLE;PARQUES Y PLAZAS;RIVADAVIA;10300;;RIVADAVIA AV. 10300;VILLA LURO;COMUNA 10
-58.4931035247884;-34.6053299736333;847;PLAZA ARISTOBULO DEL VALLE;PARQUES Y PLAZAS;SEGUNDA ETAPA HRL;DIC-01;DISPONIBLE;PARQUES Y PLAZAS;BAIGORRIA;3200;;BAIGORRIA 3200;VILLA DEL PARQUE;COMUNA 11
-58.4750490254175;-34.5737506020877;846;PLAZA GRAL. J. M. ZAPIOLA;PARQUES Y PLAZAS;SEGUNDA ETAPA HRL;DIC-01;DISPONIBLE;PARQUES Y PLAZAS;ECHEVERRIA;4300;;ECHEVERRIA 4300;VILLA URQUIZA;COMUNA 12
-58.4612445434234;-34.689968219805;845;ESTACION SOLDADO DE LA FRONTERA;METROBUS;SEGUNDA ETAPA HRL;DIC-01;DISPONIBLE;SUR;AV. CORONEL ROCA;5762;;ROCA, CNEL. AV. 5762;VILLA RIACHUELO;COMUNA 8
-58.423172983957;-34.6431127883232;844;ESTACION AV. LA PLATA;METROBUS;SEGUNDA ETAPA HRL;DIC-01;DISPONIBLE;SUR;AV. CRUZ;950;;FERNANDEZ DE LA CRUZ, F., GRAL. AV. 950;NUEVA POMPEYA;COMUNA 4
-58.4152857507823;-34.6369464882832;843;ESTACION BOEDO;METROBUS;SEGUNDA ETAPA HRL;DIC-01;DISPONIBLE;SUR;CHICLANA;3615;;CHICLANA AV. 3615;BOEDO;COMUNA 5
-58.4533397490419;-34.569737005645;841;PLAZA JUAN JOSE PASO;PARQUES Y PLAZAS;SEGUNDA ETAPA HRL;DIC-01;DISPONIBLE;PARQUES Y PLAZAS;MOLDES;1400;;MOLDES 1400;COLEGIALES;COMUNA 13
-58.4773533442964;-34.5440965802487;840;PLAZA BENJAMIN VICUÑA MACKENNA;PARQUES Y PLAZAS;SEGUNDA ETAPA HRL;DIC-01;DISPONIBLE;PARQUES Y PLAZAS;CRAMER;4449;;CRAMER 4449;SAAVEDRA;COMUNA 12
-58.4472283795706;-34.5688613693903;839;ESTACION AGUILAR;METROBUS;SEGUNDA ETAPA HRL;DIC-01;DISPONIBLE;NORTE;AV. CABILDO;1100;;CABILDO AV. 1100;COLEGIALES;COMUNA 13
-58.440256735853;-34.5723436926908;838;ESTACION MATIENZO;METROBUS;SEGUNDA ETAPA HRL;DIC-01;DISPONIBLE;NORTE;AV. CABILDO;300;;CABILDO AV. 300;PALERMO;COMUNA 14
-58.4412022798191;-34.5718130772258;837;ESTACION JORGE NEWBERY;METROBUS;SEGUNDA ETAPA HRL;DIC-01;DISPONIBLE;NORTE;AV. CABILDO;390;;CABILDO AV. 390;PALERMO;COMUNA 14
-58.5261138791991;-34.638268043453;836;ESTACION LINIERS;METROBUS;SEGUNDA ETAPA HRL;2015;DISPONIBLE;JUAN B. JUSTO;FRANCISCO DE VIEDMA;6850;;VIEDMA, FRANCISCO DE 6850;LINIERS;COMUNA 9
-58.442239728487;-34.5713263210616;835;ESTACION MAURE;METROBUS;SEGUNDA ETAPA HRL;DIC-01;DISPONIBLE;NORTE;AV. CABILDO;450;;CABILDO AV. 450;COLEGIALES;COMUNA 13
-58.5139111082032;-34.6334569239729;834;ESTACION POLIDEPORTIVO VELEZ SARSFIELD;METROBUS;SEGUNDA ETAPA HRL;2015;DISPONIBLE;JUAN B. JUSTO;AV. JUAN B. JUSTO;0;JUAN AGUSTIN GARCIA;JUSTO, JUAN B. AV. Y GARCIA, JUAN AGUSTIN;VERSALLES;COMUNA 10
-58.4430431552329;-34.5709278181187;833;ESTACION GOROSTIAGA;METROBUS;SEGUNDA ETAPA HRL;DIC-01;DISPONIBLE;NORTE;AV. CABILDO;550;;CABILDO AV. 550;COLEGIALES;COMUNA 13
-58.4445024574361;-34.5701082825906;832;ESTACION OLLEROS;METROBUS;SEGUNDA ETAPA HRL;DIC-01;DISPONIBLE;NORTE;AV. CABILDO;800;;CABILDO AV. 800;COLEGIALES;COMUNA 13
-58.4463783115367;-34.5691810136158;831;ESTACION TEODORO GARCIA;METROBUS;SEGUNDA ETAPA HRL;DIC-01;DISPONIBLE;NORTE;AV. CABILDO;0;PALPA;CABILDO AV. Y PALPA;COLEGIALES;COMUNA 13
-58.5067279413042;-34.6343401243604;830;ESTACION CORTINA;METROBUS;SEGUNDA ETAPA HRL;2015;DISPONIBLE;JUAN B. JUSTO;AV. JUAN B. JUSTO;0;CORTINA;JUSTO, JUAN B. AV. Y CORTINA;VILLA LURO;COMUNA 10
-58.5010440879522;-34.632208354416;829;ESTACION AV. LOPE DE VEGA;METROBUS;SEGUNDA ETAPA HRL;2015;DISPONIBLE;JUAN B. JUSTO;AV. JUAN B. JUSTO;0;AV. LOPE DE VEGA;JUSTO, JUAN B. AV. Y LOPE DE VEGA AV.;VILLA LURO;COMUNA 10
-58.4948524225799;-34.6295344574075;828;ESTACION AV. CARRASCO;METROBUS;SEGUNDA ETAPA HRL;2015;DISPONIBLE;JUAN B. JUSTO;AV. JUAN B. JUSTO;0;AV. CARRASCO;JUSTO, JUAN B. AV. Y CARRASCO AV.;VELEZ SARSFIELD;COMUNA 10
-58.4910946618592;-34.6270101756477;827;ESTACION AV. SEGUROLA;METROBUS;SEGUNDA ETAPA HRL;2015;DISPONIBLE;JUAN B. JUSTO;AV. JUAN B. JUSTO;0;AV. SEGUROLA;JUSTO, JUAN B. AV. Y SEGUROLA AV.;VELEZ SARSFIELD;COMUNA 10
-58.4859233245498;-34.6251429839953;826;ESTACION CHIVILCOY;METROBUS;SEGUNDA ETAPA HRL;2015;DISPONIBLE;JUAN B. JUSTO;AV. JUAN B. JUSTO;0;CHIVILCOY;JUSTO, JUAN B. AV. Y CHIVILCOY;FLORESTA;COMUNA 10
-58.4808171285285;-34.6220407598444;825;ESTACION CONCORDIA;METROBUS;SEGUNDA ETAPA HRL;2015;DISPONIBLE;JUAN B. JUSTO;AV. JUAN B. JUSTO;0;CONCORDIA;JUSTO, JUAN B. AV. Y CONCORDIA;VILLA SANTA RITA;COMUNA 11
-58.4467701597751;-34.5689875341135;824;ESTACION PALPA;METROBUS;SEGUNDA ETAPA HRL;DIC-01;DISPONIBLE;NORTE;AV. CABILDO;1050;;CABILDO AV. 1050;COLEGIALES;COMUNA 13
-58.4760960455675;-34.618101861621;823;ESTACION AV. NAZCA;METROBUS;SEGUNDA ETAPA HRL;2015;DISPONIBLE;JUAN B. JUSTO;AV. JUAN B. JUSTO;0;AV. NAZCA;JUSTO, JUAN B. AV. Y NAZCA AV.;VILLA SANTA RITA;COMUNA 11
-58.44864520973;-34.5681157528464;822;ESTACION CESPEDES;METROBUS;SEGUNDA ETAPA HRL;DIC-01;DISPONIBLE;NORTE;AV. CABILDO;1250;;CABILDO AV. 1250;COLEGIALES;COMUNA 13
-58.4722527834405;-34.6138238785238;821;ESTACION ARTIGAS;METROBUS;SEGUNDA ETAPA HRL;2015;DISPONIBLE;JUAN B. JUSTO;AV. JUAN B. JUSTO;0;ARTIGAS;JUSTO, JUAN B. AV. Y ARTIGAS, JOSE GERVASIO, GRAL.;VILLA GRAL. MITRE;COMUNA 11
-58.467848324634;-34.6113032037563;820;ESTACION BOYACA;METROBUS;SEGUNDA ETAPA HRL;2015;DISPONIBLE;JUAN B. JUSTO;AV. JUAN B. JUSTO;0;BOYACA;JUSTO, JUAN B. AV. Y BOYACA;VILLA GRAL. MITRE;COMUNA 11
-58.4627049858066;-34.6073724573593;819;ESTACION AV. DONATO ALVAREZ;METROBUS;SEGUNDA ETAPA HRL;2015;DISPONIBLE;JUAN B. JUSTO;AV. JUAN B. JUSTO;0;AV. DONATO ALVAREZ;JUSTO, JUAN B. AV. Y ALVAREZ, DONATO, TTE. GRAL.;VILLA GRAL. MITRE;COMUNA 11
-58.4490281715771;-34.5677946028092;818;ESTACION ZABALA;METROBUS;SEGUNDA ETAPA HRL;DIC-01;DISPONIBLE;NORTE;AV. CABILDO;0;ZABALA;CABILDO AV. Y ZABALA;COLEGIALES;COMUNA 13
-58.4584744779847;-34.6044913354846;817;ESTACION AV. SAN MARTIN;METROBUS;SEGUNDA ETAPA HRL;2015;DISPONIBLE;JUAN B. JUSTO;AV. JUAN B. JUSTO;0;AV. SAN MARTIN;JUSTO, JUAN B. AV. Y SAN MARTIN AV.;VILLA CRESPO;COMUNA 15
-58.4520531334193;-34.6001200012005;816;ESTACION AV. HONORIO PUEYRREDON;METROBUS;SEGUNDA ETAPA HRL;2015;DISPONIBLE;JUAN B. JUSTO;AV. JUAN B. JUSTO;0;AV. HONORIO PUEYRREDON;JUSTO, JUAN B. AV. Y PUEYRREDON, HONORIO, DR. AV.;VILLA CRESPO;COMUNA 15
-58.4497638164836;-34.5673874954201;815;ESTACION VIRREY LORETO;METROBUS;SEGUNDA ETAPA HRL;DIC-01;DISPONIBLE;NORTE;CABILDO;1300;;CABILDO AV. 1300;COLEGIALES;COMUNA 13
-58.4517034037476;-34.5664708446846;814;ESTACION VIRREY ARREDONDO;METROBUS;SEGUNDA ETAPA HRL;DIC-01;DISPONIBLE;NORTE;CABILDO;1500;;CABILDO AV. 1500;COLEGIALES;COMUNA 13
-58.4476909156459;-34.5970912407718;813;ESTACION MURILLO;METROBUS;SEGUNDA ETAPA HRL;2015;DISPONIBLE;JUAN B. JUSTO;AV. JUAN B. JUSTO;0;MURILLO;JUSTO, JUAN B. AV. Y MURILLO;VILLA CRESPO;COMUNA 15
-58.4528479723494;-34.5658788154397;812;ESTACION VIRREY DEL PINO;METROBUS;SEGUNDA ETAPA HRL;DIC-01;DISPONIBLE;NORTE;CABILDO;1600;;CABILDO AV. 1600;COLEGIALES;COMUNA 13
-58.4547024389101;-34.5644376778444;811;ESTACION LA PAMPA;METROBUS;SEGUNDA ETAPA HRL;DIC-01;DISPONIBLE;NORTE;CABILDO;1800;;CABILDO AV. 1800;BELGRANO;COMUNA 13
-58.4407040171449;-34.5922664115843;810;ESTACION AGUIRRE;METROBUS;SEGUNDA ETAPA HRL;2015;DISPONIBLE;JUAN B. JUSTO;AV. JUAN B. JUSTO;2201;;JUSTO, JUAN B. AV. 2201;VILLA CRESPO;COMUNA 15
-58.4553926877815;-34.5634328923239;809;ESTACION SUCRE;METROBUS;SEGUNDA ETAPA HRL;DIC-01;DISPONIBLE;NORTE;CABILDO;1900;;CABILDO AV. 1900;BELGRANO;COMUNA 13
-58.4347519703331;-34.585371950978;808;ESTACION HONDURAS;METROBUS;SEGUNDA ETAPA HRL;2015;DISPONIBLE;JUAN B. JUSTO;AV. JUAN B. JUSTO;1501;;JUSTO, JUAN B. AV. 1501;PALERMO;COMUNA 14
-58.4570019754503;-34.5615801749636;807;ESTACION JURAMENTO;METROBUS;SEGUNDA ETAPA HRL;DIC-01;DISPONIBLE;NORTE;CABILDO;2100;;CABILDO AV. 2100;BELGRANO;COMUNA 13
-58.4579413085158;-34.5606562302065;806;ESTACION MENDOZA;METROBUS;SEGUNDA ETAPA HRL;DIC-01;DISPONIBLE;NORTE;CABILDO;2100;;CABILDO AV. 2100;BELGRANO;COMUNA 13
-58.4300283642842;-34.5818663181463;805;ESTACION GUATEMALA;METROBUS;SEGUNDA ETAPA HRL;2015;DISPONIBLE;JUAN B. JUSTO;AV. JUAN B. JUSTO;1000;;JUSTO, JUAN B. AV. 1000;PALERMO;COMUNA 14
-58.4586264520722;-34.5596770916589;804;ESTACION OLAZABAL;METROBUS;SEGUNDA ETAPA HRL;DIC-01;DISPONIBLE;NORTE;CABILDO;2200;;CABILDO AV. 2200;BELGRANO;COMUNA 13
-58.4265278412909;-34.5775886031066;803;ESTACION PACIFICO;METROBUS;SEGUNDA ETAPA HRL;2015;DISPONIBLE;JUAN B. JUSTO;BULLRICH, INT. AV.;600;;BULLRICH, INT. AV. 600;PALERMO;COMUNA 14
-58.4597790628436;-34.5585422586109;802;ESTACION BLANCO ENCALADA;METROBUS;SEGUNDA ETAPA HRL;DIC-01;DISPONIBLE;NORTE;CABILDO;2400;;CABILDO AV. 2400;BELGRANO;COMUNA 13
-58.4602896095604;-34.5579693044523;801;ESTACION MONROE;METROBUS;SEGUNDA ETAPA HRL;DIC-01;DISPONIBLE;NORTE;CABILDO;2500;;CABILDO AV. 2500;BELGRANO;COMUNA 13
-58.4295512754752;-34.6599169549597;800;ESTACION BERG;METROBUS;SEGUNDA ETAPA HRL;OCT-31;DISPONIBLE;SUR;FRANCISCO RABANAL;2331;;RABANAL, FRANCISCO, INTENDENTE AV. 2331;VILLA SOLDATI;COMUNA 8
-58.4330133873029;-34.6615026169915;799;ESTACION VARELA;METROBUS;SEGUNDA ETAPA HRL;OCT-31;DISPONIBLE;SUR;FRANCISCO RABANAL;2657;;RABANAL, FRANCISCO, INTENDENTE AV. 2657;VILLA SOLDATI;COMUNA 8
-58.4424395361609;-34.6593116247047;798;ESTACION LA FUENTE;METROBUS;SEGUNDA ETAPA HRL;OCT-31;DISPONIBLE;;FERNANDEZ DE LA CRUZ;2974;;FERNANDEZ DE LA CRUZ, F., GRAL. AV. 2974;VILLA SOLDATI;COMUNA 8
-58.3960629914119;-34.6279558325374;797;ESTACION PICHINCHA;METROBUS;SEGUNDA ETAPA HRL;OCT-31;DISPONIBLE;SUR;AV. JUAN DE GARAY;2275;;GARAY, JUAN DE AV. 2275;SAN CRISTOBAL;COMUNA 3
-58.4193260932927;-34.6400500504431;796;ESTACION CASEROS;METROBUS;SEGUNDA ETAPA HRL;OCT-31;DISPONIBLE;SUR;AV.CHICLANA;3929;;CHICLANA AV. 3929;NUEVA POMPEYA;COMUNA 4
-58.4279327433962;-34.6475291545269;795;ESTACION DEL BARCO CENTENERA;METROBUS;SEGUNDA ETAPA HRL;OCT-31;DISPONIBLE;SUR;FERNANDEZ DE LA CRUZ;1469;;FERNANDEZ DE LA CRUZ, F., GRAL. AV. 1469;NUEVA POMPEYA;COMUNA 4
-58.4377996811463;-34.6556557629657;794;ESTACION VARELA;METROBUS;SEGUNDA ETAPA HRL;OCT-31;DISPONIBLE;SUR;FERNANDEZ DE LA CRUZ;2502;;FERNANDEZ DE LA CRUZ, F., GRAL. AV. 2502;VILLA SOLDATI;COMUNA 8
-58.4066118718233;-34.6338774093126;793;ESTACION LA RIOJA;METROBUS;SEGUNDA ETAPA HRL;OCT-31;DISPONIBLE;SUR;BRASIL;3019;;BRASIL 3019;PARQUE PATRICIOS;COMUNA 4
-58.3954031198439;-34.6302025072799;789;ESTACION GARRAHAN;METROBUS;SEGUNDA ETAPA HRL;OCT-16;DISPONIBLE;SUR;BRASIL;0;PICHINCHA;BRASIL Y PICHINCHA AV.;PARQUE PATRICIOS;COMUNA 4
-58.4072377870742;-34.6311787402839;787;ESTACION LA RIOJA;METROBUS;SEGUNDA ETAPA HRL;OCT-16;DISPONIBLE;SUR;CHICLANA;3032;LA RIOJA;CHICLANA AV. 3032;PARQUE PATRICIOS;COMUNA 4
-58.4101251797948;-34.6080500788813;780;PASEO COMERCIAL ONCE;ESPACIO PUBLICO;SEGUNDA ETAPA HRL;SEP-16;DISPONIBLE;INCLUSION;PERON, JUAN DOMINGO, TTE. GENERAL;3002;;PERON, JUAN DOMINGO, TTE. GENERAL 3002;BALVANERA;COMUNA 3
-58.471552863463;-34.5490006329618;779;PLAZA ILDEFONSO F. CAVAGNA MARTINEZ;PARQUES Y PLAZAS;SEGUNDA ETAPA HRL;SEP-16;DISPONIBLE;PARQUES Y PLAZAS;GARCIA DEL RIO, AV;0;AMENABAR;GARCIA DEL RIO AV. Y AMENABAR;SAAVEDRA;COMUNA 12
-58.4756270415858;-34.5387596003058;778;ESTACION GRAL PAZ;METROBUS;SEGUNDA ETAPA HRL;SEP-16;DISPONIBLE;NORTE;CABILDO;0;GRAL PAZ;CABILDO AV. Y PAZ, GRAL. AV.;SAAVEDRA;COMUNA 12
-58.4693288167508;-34.5475997991353;777;ESTACION MANZANARES;METROBUS;SEGUNDA ETAPA HRL;SEP-16;DISPONIBLE;NORTE;CABILDO;0;MANZANARES;CABILDO AV. Y MANZANARES;SAAVEDRA;COMUNA 12
-58.4741272894864;-34.5411475184171;776;ESTACION PICO;METROBUS;SEGUNDA ETAPA HRL;SEP-16;DISPONIBLE;NORTE;CABILDO;0;PICO;CABILDO AV. Y PICO;NUÑEZ;COMUNA 13
-58.4728656590481;-34.5426700972018;775;ESTACION ARIAS;METROBUS;SEGUNDA ETAPA HRL;OCT-16;DISPONIBLE;NORTE;CABILDO;0;ARIAS;CABILDO AV. Y ARIAS;NUÑEZ;COMUNA 13
-58.4723041219133;-34.543416135974;774;ESTACION RAMALLO;METROBUS;SEGUNDA ETAPA HRL;SEP-16;DISPONIBLE;NORTE;CABILDO;0;RAMALLO;CABILDO AV. Y RAMALLO;NUÑEZ;COMUNA 13
-58.4718760845726;-34.5441998258754;773;ESTACION CORREA;METROBUS;SEGUNDA ETAPA HRL;OCT-16;DISPONIBLE;NORTE;CABILDO;0;CORREA;CABILDO AV. Y CORREA;SAAVEDRA;COMUNA 12
-58.4713366225486;-34.544937111459;772;ESTACION RUIZ HUIDOBRO;METROBUS;SEGUNDA ETAPA HRL;SEP-16;DISPONIBLE;NORTE;CABILDO;0;RUIZ HUIDOBRO;CABILDO AV. Y RUIZ HUIDOBRO;SAAVEDRA;COMUNA 12
-58.4706988395169;-34.5456107079002;771;ESTACION BESARES;METROBUS;SEGUNDA ETAPA HRL;SEP-16;DISPONIBLE;NORTE;CABILDO;0;BESARES;CABILDO AV. Y BESARES;SAAVEDRA;COMUNA 12
-58.4701574678602;-34.5463409597302;770;ESTACION VILELA;METROBUS;SEGUNDA ETAPA HRL;OCT-16;DISPONIBLE;NORTE;CABILDO;0;VILELA;CABILDO AV. Y VILELA;SAAVEDRA;COMUNA 12
-58.4697347166123;-34.5470417642929;769;ESTACION PAROISSIEN;METROBUS;SEGUNDA ETAPA HRL;SEP-16;DISPONIBLE;NORTE;CABILDO;0;PAROISSIEN;CABILDO AV. Y PAROISSIEN;SAAVEDRA;COMUNA 12
-58.4683330780308;-34.548655123925;768;ESTACION CRISOLOGO LARRALDE;METROBUS;SEGUNDA ETAPA HRL;SEP-16;DISPONIBLE;NORTE;CABILDO;0;LARRALDE;CABILDO AV. Y LARRALDE, CRISOLOGO AV.;NUÑEZ;COMUNA 13
-58.4678167027947;-34.5493114026622;767;ESTACION NUÑEZ;METROBUS;SEGUNDA ETAPA HRL;SEP-16;DISPONIBLE;NORTE;CABILDO;0;LARRALDE;CABILDO AV. Y LARRALDE, CRISOLOGO AV.;NUÑEZ;COMUNA 13
-58.4670162945276;-34.5505184193538;766;ESTACION JUANA AZURDUY;METROBUS;SEGUNDA ETAPA HRL;OCT-16;DISPONIBLE;NORTE;CABILDO;0;AZURDUY JUANA;CABILDO AV. Y AZURDUY JUANA;NUÑEZ;COMUNA 13
-58.4664176019391;-34.5512938726482;765;ESTACION MANUELA PEDRAZA;METROBUS;SEGUNDA ETAPA HRL;SEP-16;DISPONIBLE;NORTE;CABILDO;3400;;CABILDO AV. 3400;NUÑEZ;COMUNA 13
-58.4659565730017;-34.5516181217735;764;ESTACION CAMPOS SALLES;METROBUS;SEGUNDA ETAPA HRL;SEP-16;DISPONIBLE;NORTE;CABILDO;3300;;CABILDO AV. 3300;NUÑEZ;COMUNA 13
-58.4647658256463;-34.5530940057382;763;ESTACION IBERA;METROBUS;SEGUNDA ETAPA HRL;SEP-16;DISPONIBLE;NORTE;CABILDO;0;IBERA;CABILDO AV. Y IBERA;NUÑEZ;COMUNA 13
-58.4640892864815;-34.554011184228;762;ESTACION QUESADA;METROBUS;SEGUNDA ETAPA HRL;SEP-16;DISPONIBLE;NORTE;CABILDO;0;QUESADA;CABILDO AV. Y QUESADA;NUÑEZ;COMUNA 13
-58.463088723247;-34.5550133219248;761;ESTACION CONGRESO;METROBUS;SEGUNDA ETAPA HRL;SEP-16;DISPONIBLE;NORTE;CABILDO;0;CONGRESO;CABILDO AV. Y CONGRESO;BELGRANO;COMUNA 13
-58.4620814462484;-34.5558893609705;760;ESTACION UGARTE;METROBUS;SEGUNDA ETAPA HRL;SEP-16;DISPONIBLE;NORTE;CABILDO;0;UGARTE;CABILDO AV. Y UGARTE, MANUEL;BELGRANO;COMUNA 13
-58.4611585387294;-34.55684835419;759;ESTACION ROOSEVELT;METROBUS;SEGUNDA ETAPA HRL;SEP-16;DISPONIBLE;NORTE;CABILDO;0;ROOSEVELT;CABILDO AV. Y ROOSEVELT FRANKLIN D.;BELGRANO;COMUNA 13
-58.4735911015055;-34.5418875747147;758;ESTACION DEHEZA;METROBUS;SEGUNDA ETAPA HRL;SEP-16;DISPONIBLE;NORTE;CABILDO;0;ARIAS;CABILDO AV. Y ARIAS;NUÑEZ;COMUNA 13
-58.4651092906593;-34.6028088180228;752;ESTACION DONATO ALVAREZ;METROBUS;PRIMERA ETAPA HRL;AGO-16;DISPONIBLE;SAN MARTIN;SAN MARTIN AV.;0;ALVAREZ DONATO;SAN MARTIN AV. Y ALVAREZ, DONATO, TTE. GRAL. AV.;PATERNAL;COMUNA 15
-58.4951273177937;-34.5969100989045;751;ESTACION ROFFO;METROBUS;PRIMERA ETAPA HRL;SEP-16;DISPONIBLE;SAN MARTIN;SAN MARTIN AV.;5400;;SAN MARTIN AV. 5400;VILLA DEL PARQUE;COMUNA 11
-58.3794688862688;-34.5846232300563;750;BARRIO 31-GALPON;ESPACIO PUBLICO;PRIMERA ETAPA HRL;JUL-16;DISPONIBLE;INCLUSION;WALSH;0;PERETTE;WALSH, RODOLFO Y PERETTE, CARLOS H.;RETIRO;COMUNA 1
-58.4162346420822;-34.5894166206452;749;PLAZA GÜEMES;PARQUES Y PLAZAS;PRIMERA ETAPA HRL;SEP-16;DISPONIBLE;PARQUES Y PLAZAS;MEDRANO;1901;;MEDRANO 1901;PALERMO;COMUNA 14
-58.4592985709344;-34.6042711375395;748;ESTACION PAPPO NAPOLITANO;METROBUS;PRIMERA ETAPA HRL;AGO-16;DISPONIBLE;SAN MARTIN;SAN MARTIN AV.;2250;;SAN MARTIN AV. 2250;VILLA GRAL. MITRE;COMUNA 11
-58.4870182772787;-34.597468679394;747;ESTACION 2 DE ABRIL;METROBUS;PRIMERA ETAPA HRL;AGO-16;DISPONIBLE;SAN MARTIN;SAN MARTIN AV.;4850;;SAN MARTIN AV. 4850;VILLA DEL PARQUE;COMUNA 11
-58.4827716967653;-34.6298778880502;742;PLAZA VELEZ SARSFIELD;PARQUES Y PLAZAS;PRIMERA ETAPA HRL;AGO-16;DISPONIBLE;PARQUES Y PLAZAS;CHIVILCOY;395;;CHIVILCOY 395;FLORESTA;COMUNA 10
-58.3800480780464;-34.583091167051;741;BARRIO 31-CANCHA GÜEMES;ESPACIO PUBLICO;PRIMERA ETAPA HRL;JUL-16;DISPONIBLE;INCLUSION;WALSH;0;PERETTE;WALSH, RODOLFO Y PERETTE, CARLOS H.;RETIRO;COMUNA 1
-58.3789692804144;-34.5828560559698;740;BARRIO 31-PLAZA DE MARIA;PARQUES Y PLAZAS;PRIMERA ETAPA HRL;JUL-16;DISPONIBLE;INCLUSION;WALSH;0;PERETTE;WALSH, RODOLFO Y PERETTE, CARLOS H.;RETIRO;COMUNA 1
-58.3768086800292;-34.5853245139111;739;BARRIO 31-FERIA;ESPACIO PUBLICO;PRIMERA ETAPA HRL;JUL-16;DISPONIBLE;INCLUSION;WALSH;0;PERETTE;WALSH, RODOLFO Y PERETTE, CARLOS H.;RETIRO;COMUNA 1
-58.5112021395219;-34.5916252574472;738;ESTACION MOSCONI;METROBUS;PRIMERA ETAPA HRL;AGO-16;DISPONIBLE;SAN MARTIN;SAN MARTIN AV.;6901;;SAN MARTIN AV. 6901;VILLA DEVOTO;COMUNA 11
-58.4935197583721;-34.6288920257169;737;PLAZA DE LA BANDERA;PARQUES Y PLAZAS;PRIMERA ETAPA HRL;AGO-16;DISPONIBLE;PARQUES Y PLAZAS;JUSTO,JUAN B. AV;7318;;JUSTO, JUAN B. AV. 7318;VELEZ SARSFIELD;COMUNA 10
-58.4060232550507;-34.6402752087943;736;MANZANA CIVICA;PARQUES Y PLAZAS;PRIMERA ETAPA HRL;AGO-16;DISPONIBLE;PARQUES Y PLAZAS;USPALLATA;3069;;USPALLATA 3069;PARQUE PATRICIOS;COMUNA 4
-58.5151941830855;-34.5904194950036;735;ESTACION LADINES;METROBUS;PRIMERA ETAPA HRL;AGO-16;DISPONIBLE;SAN MARTIN;SAN MARTIN AV.;7150;;SAN MARTIN AV. 7150;VILLA DEVOTO;COMUNA 11
-58.5075942417535;-34.5929460676286;734;ESTACION CUBAS;METROBUS;PRIMERA ETAPA HRL;AGO-16;DISPONIBLE;SAN MARTIN;SAN MARTIN AV.;6500;;SAN MARTIN AV. 6500;VILLA DEVOTO;COMUNA 11
-58.499404116066;-34.5959870963169;733;ESTACION SOLANO LOPEZ;METROBUS;PRIMERA ETAPA HRL;AGO-16;DISPONIBLE;SAN MARTIN;SAN MARTIN AV.;5800;;SAN MARTIN AV. 5800;VILLA DEVOTO;COMUNA 11
-58.4916851582509;-34.5971403818529;732;ESTACION COMUNICACIONES;METROBUS;PRIMERA ETAPA HRL;AGO-16;DISPONIBLE;SAN MARTIN;SAN MARTIN AV.;5100;;SAN MARTIN AV. 5100;VILLA DEL PARQUE;COMUNA 11
-58.483611345177;-34.5977308550165;731;ESTACION AGRONOMIA;METROBUS;PRIMERA ETAPA HRL;AGO-16;DISPONIBLE;SAN MARTIN;SAN MARTIN AV.;4500;;SAN MARTIN AV. 4500;VILLA DEL PARQUE;COMUNA 11
-58.4810042743324;-34.5987465091667;730;ESTACION EMPEDRADO;METROBUS;PRIMERA ETAPA HRL;AGO-16;DISPONIBLE;SAN MARTIN;SAN MARTIN AV.;4150;;SAN MARTIN AV. 4150;VILLA DEL PARQUE;COMUNA 11
-58.4701064124591;-34.6015692461088;729;ESTACION ALVAREZ JONTE;METROBUS;PRIMERA ETAPA HRL;SEP-16;DISPONIBLE;SAN MARTIN;SAN MARTIN AV.;3297;;SAN MARTIN AV. 3297;PATERNAL;COMUNA 15
-58.4455214836623;-34.5807630536297;728;PLAZA MAFALDA;PARQUES Y PLAZAS;PRIMERA ETAPA HRL;AGO-16;DISPONIBLE;PARQUES Y PLAZAS;CONDE;0;SANTOS DUMONT;CONDE Y DUMONT, SANTOS;COLEGIALES;COMUNA 13
-58.4187012958104;-34.5825078593767;718;JARDIN BOTANICO (CASONA);PARQUES Y PLAZAS;GESTION PREVIA HRL;;DISPONIBLE;PARQUES Y PLAZAS;SANTA FE AV.;3917;;SANTA FE AV. 3917;PALERMO;COMUNA 14
-58.4171168389254;-34.5827785805383;717;JARDIN BOTANICO CARLOS THAYS;PARQUES Y PLAZAS;GESTION PREVIA HRL;3RA. ETAPA / AGOSTO 2012;DISPONIBLE;PARQUES Y PLAZAS;SANTA FE AV.;3951;;SANTA FE AV. 3951;PALERMO;COMUNA 14
-58.511058988209;-34.5999725509561;716;HTAL. ZUBIZARRETA;HOSPITALES Y CENTROS DE SALUD;GESTION PREVIA HRL;;DISPONIBLE;HOSPITAL;NUEVA YORK;3952;;NUEVA YORK 3952;VILLA DEVOTO;COMUNA 11
-58.507613939586;-34.6253368904816;715;HTAL. VELEZ SARFIELD;HOSPITALES Y CENTROS DE SALUD;GESTION PREVIA HRL;;DISPONIBLE;HOSPITAL;CALDERON DE LA BARCA, PEDRO;1550;;CALDERON DE LA BARCA, PEDRO 1550;MONTE CASTRO;COMUNA 10
-58.4483015756095;-34.6150402789385;714;MUSEO DE ESCULTURAS LUIS PERLOTTI;MUSEOS;GESTION PREVIA HRL;MAY-16;DISPONIBLE;MUSEOS;PUJOL;642;;PUJOL 642;CABALLITO;COMUNA 6
-58.3714309532972;-34.6280790547908;713;EDIFICIO FINOCHIETTO;ESPACIO PUBLICO;GESTION PREVIA HRL;MAY-16;DISPONIBLE;EDIFICIOS DEL GCABA;FINOCHIETTO;435;;FINOCHIETTO ENRIQUE DR. 435;BARRACAS;COMUNA 4
-58.3858303606371;-34.6122194775092;711;AGENCIA DE PROTECCION AMBIENTAL;ESPACIO PUBLICO;GESTION PREVIA HRL;42461;DISPONIBLE;EDIFICIOS DEL GCABA;MORENO;1379;;MORENO 1379;MONSERRAT;COMUNA 1
-58.4330297198065;-34.6042796422951;710;SEÑALAMIENTO LUMINOSO;ESPACIO PUBLICO;GESTION PREVIA HRL;MAR-16;DISPONIBLE;OTROS ESTABLECIMIENTOS;MACHADO;94;;MACHADO, ANTONIO 94;CABALLITO;COMUNA 6
-58.4029185524954;-34.6503866080475;708;SEDE NIDO - BARRIO ZAVALETA;ESPACIO PUBLICO;GESTION PREVIA HRL;DIC-15;DISPONIBLE;INCLUSION;IGUAZU;0;IRIARTE;IGUAZU Y IRIARTE, GRAL. AV.;NUEVA POMPEYA;COMUNA 4
-58.3698240113815;-34.6106759684483;707;MINISTERIO DE EDUCACION;ESPACIO PUBLICO;GESTION PREVIA HRL;DIC-15;DISPONIBLE;EDIFICIOS DEL GCABA;PASEO COLON;255;;PASEO COLON AV. 255;MONSERRAT;COMUNA 1
-58.4538434338092;-34.6766188757883;706;CIM VILLA LUGANO;ESPACIO PUBLICO;GESTION PREVIA HRL;NOV-15;DISPONIBLE;INCLUSION;ESCALADA AV.;4502;;ESCALADA AV. 4502;VILLA SOLDATI;COMUNA 8
-58.4116817268224;-34.6120925777804;705;CIM MARGARITA MALHARRO;ESPACIO PUBLICO;GESTION PREVIA HRL;NOV-15;DISPONIBLE;INCLUSION;24 DE NOVIEMBRE;113;;24 DE NOVIEMBRE 113;BALVANERA;COMUNA 3
-58.4191822994397;-34.6012555765468;704;CIM ELVIRA RAWSON;ESPACIO PUBLICO;GESTION PREVIA HRL;NOV-15;DISPONIBLE;INCLUSION;SALGUERO;765;;SALGUERO, JERONIMO 765;ALMAGRO;COMUNA 5
-58.4089384900678;-34.5872706916232;703;SERVICIO SOCIAL ZONAL 14;ESPACIO PUBLICO;GESTION PREVIA HRL;NOV-15;DISPONIBLE;SERVICIO SOCIAL ZONAL;CORONEL DIAZ;2110;;DIAZ, CNEL. AV. 2110;PALERMO;COMUNA 14
-58.4640249624256;-34.5537815833309;702;SERVICIO SOCIAL ZONAL 13;ESPACIO PUBLICO;GESTION PREVIA HRL;NOV-15;DISPONIBLE;SERVICIO SOCIAL ZONAL;CABILDO;3067;;CABILDO AV. 3067;NUÑEZ;COMUNA 13
-58.3915509579091;-34.6000166542063;701;SERVICIO SOCIAL ZONAL 2;ESPACIO PUBLICO;GESTION PREVIA HRL;NOV-15;DISPONIBLE;SERVICIO SOCIAL ZONAL;RODRIGUEZ PEÑA;780;;RODRIGUEZ PEÑA 780;SAN NICOLAS;COMUNA 1
-58.4218481731296;-34.6276971096281;700;SERVICIO SOCIAL ZONAL 5;ESPACIO PUBLICO;GESTION PREVIA HRL;OCT-15;DISPONIBLE;SERVICIO SOCIAL ZONAL;COCHABAMBA;4048;;COCHABAMBA 4048;BOEDO;COMUNA 5
-58.3986181999926;-34.623219703625;699;SERVICIO SOCIAL ZONAL 3;ESPACIO PUBLICO;GESTION PREVIA HRL;OCT-15;DISPONIBLE;SERVICIO SOCIAL ZONAL;AV SAN JUAN;2353;;SAN JUAN AV. 2353;SAN CRISTOBAL;COMUNA 3
-58.4623346735102;-34.6016829598231;698;SERVICIO SOCIAL ZONAL 15;ESPACIO PUBLICO;GESTION PREVIA HRL;OCT-15;DISPONIBLE;SERVICIO SOCIAL ZONAL;SEGUI;2125;;SEGUI, F. J., ALTE. 2125;PATERNAL;COMUNA 15
-58.4623346735102;-34.6016829598231;697;SERVICIO SOCIAL ZONAL 10;ESPACIO PUBLICO;GESTION PREVIA HRL;OCT-15;DISPONIBLE;SERVICIO SOCIAL ZONAL;SEGUI;2125;;SEGUI, F. J., ALTE. 2125;PATERNAL;COMUNA 15
-58.4272873629078;-34.6285242258581;678;ISC - ASI DESARROLLO;ESPACIO PUBLICO;GESTION PREVIA HRL;SEP-15;DISPONIBLE;EDIFICIOS DEL GCABA;ZUVIRIA;64;;ZUVIRIA 64;PARQUE CHACABUCO;COMUNA 7
-58.3749264148556;-34.5841200414108;677;PORTAL INCLUSIVO VILLA 31;ESPACIO PUBLICO;GESTION PREVIA HRL;SEP-15;DISPONIBLE;INCLUSION;GENDARMERIA;0;WALSH;GENDARMERIA NACIONAL AV. Y WALSH, RODOLFO;RETIRO;COMUNA 1
-58.3680451216643;-34.6022568125962;674;TERMINAL COMBIS PUERTO MADERO;ESPACIO PUBLICO;GESTION PREVIA HRL;SEP-15;DISPONIBLE;OTROS ESTABLECIMIENTOS;MADERO AV.;401;;MADERO, EDUARDO AV. 401;PUERTO MADERO;COMUNA 1
-58.464141845839;-34.5805640913086;664;SERVICIO SOCIAL ZONAL 12;ESPACIO PUBLICO;GESTION PREVIA HRL;SEP-15;DISPONIBLE;SERVICIO SOCIAL ZONAL;CHARLONE;1563;;CHARLONE 1563;VILLA ORTUZAR;COMUNA 15
-58.524193640854;-34.6132846158482;663;SERVICIO SOCIAL ZONAL 11;ESPACIO PUBLICO;GESTION PREVIA HRL;SEP-15;DISPONIBLE;SERVICIO SOCIAL ZONAL;BEIRO;5229;;BEIRO, FRANCISCO AV. 5229;VILLA DEVOTO;COMUNA 11
-58.4332393496743;-34.6607972748633;662;CMB Nº 39;HOSPITALES Y CENTROS DE SALUD;GESTION PREVIA HRL;SEP-15;DISPONIBLE;CMB;AV. VARELA;3395;;VARELA AV. 3395;VILLA SOLDATI;COMUNA 8
-58.4777544804623;-34.6518262956173;661;CMB Nº 38;HOSPITALES Y CENTROS DE SALUD;GESTION PREVIA HRL;SEP-15;DISPONIBLE;CMB;MORETO;1581;;MORETO 1581;PARQUE AVELLANEDA;COMUNA 9
-58.3718220054287;-34.6461645357414;660;CMB Nº 37;HOSPITALES Y CENTROS DE SALUD;GESTION PREVIA HRL;SEP-15;DISPONIBLE;CMB;ISABEL LA CATOLICA;1492;;ISABEL LA CATOLICA 1492;BARRACAS;COMUNA 4
-58.4860670312675;-34.5852024732771;659;CMB Nº 36;HOSPITALES Y CENTROS DE SALUD;GESTION PREVIA HRL;SEP-15;DISPONIBLE;CMB;BURELA;1604;;BURELA 1604;PARQUE CHAS;COMUNA 15
-58.498832091436;-34.5912460693846;658;CMB Nº 35;HOSPITALES Y CENTROS DE SALUD;GESTION PREVIA HRL;SEP-15;DISPONIBLE;CMB;SALVADOR MARIA DEL CARRIL;2956;;CARRIL, SALVADOR MARIA DEL AV. 2956;AGRONOMIA;COMUNA 15
-58.4411670575732;-34.5894254693965;657;CMB Nº 34;HOSPITALES Y CENTROS DE SALUD;GESTION PREVIA HRL;SEP-15;DISPONIBLE;CMB;HUMBOLDT;1130;;HUMBOLDT 1130;CHACARITA;COMUNA 15
-58.476601587884;-34.5447607999572;656;CMB Nº 33;HOSPITALES Y CENTROS DE SALUD;GESTION PREVIA HRL;SEP-15;DISPONIBLE;CMB;CRAMER;4354;;CRAMER 4354;SAAVEDRA;COMUNA 12
-58.5040161329697;-34.6280012985796;655;CMB Nº 32;HOSPITALES Y CENTROS DE SALUD;GESTION PREVIA HRL;SEP-15;DISPONIBLE;CMB;CALDERON DE LA BARCA;1198;;CALDERON DE LA BARCA, PEDRO 1198;VELEZ SARSFIELD;COMUNA 10
-58.4460586762086;-34.6394122276215;654;CMB Nº 31;HOSPITALES Y CENTROS DE SALUD;GESTION PREVIA HRL;SEP-15;DISPONIBLE;CMB;AVELINO DIAZ;1971;;DIAZ, AVELINO 1971;PARQUE CHACABUCO;COMUNA 7
-58.3704862935966;-34.6335933458017;653;CMB Nº 30;HOSPITALES Y CENTROS DE SALUD;GESTION PREVIA HRL;SEP-15;DISPONIBLE;CMB;ARZOBISPO ESPINOSA;1211;;ARZOBISPO ESPINOSA 1211;BARRACAS;COMUNA 4
-58.4033114965249;-34.6124424014035;652;CMB Nº 29;HOSPITALES Y CENTROS DE SALUD;GESTION PREVIA HRL;SEP-15;DISPONIBLE;CMB;SAAVEDRA;205;;SAAVEDRA 205;BALVANERA;COMUNA 3
-58.4849701614135;-34.6658770993537;651;CMB Nº 28;HOSPITALES Y CENTROS DE SALUD;GESTION PREVIA HRL;SEP-15;DISPONIBLE;CMB;ECHEANDIA;5567;;ECHEANDIA 5567;VILLA LUGANO;COMUNA 8
-58.4448889910928;-34.6051603143746;648;CMB Nº 27;HOSPITALES Y CENTROS DE SALUD;GESTION PREVIA HRL;AGO-15;DISPONIBLE;CMB;ANTEZANA;340;;ANTEZANA 340;VILLA CRESPO;COMUNA 15
-58.4631591247924;-34.5517267713519;647;CMB Nº 26;HOSPITALES Y CENTROS DE SALUD;GESTION PREVIA HRL;AGO-15;DISPONIBLE;CMB;GUAYRA;2193;;GUAYRA 2193;NUÑEZ;COMUNA 13
-58.4040087005944;-34.6328125406703;645;CMB Nº 24;HOSPITALES Y CENTROS DE SALUD;GESTION PREVIA HRL;AGO-15;DISPONIBLE;CMB;BRASIL;2867;;BRASIL 2867;PARQUE PATRICIOS;COMUNA 4
-58.429706136227;-34.6297947919835;644;CMB Nº 23;HOSPITALES Y CENTROS DE SALUD;GESTION PREVIA HRL;AGO-15;DISPONIBLE;CMB;TEJEDOR;251;;TEJEDOR 251;PARQUE CHACABUCO;COMUNA 7
-58.3794235704549;-34.6030770684934;643;"CONSERVATORIO S. M. ""MANUEL DE FALLA""";ESPACIO PUBLICO;GESTION PREVIA HRL;AGO-15;DISPONIBLE;OTROS ESTABLECIMIENTOS;SUIPACHA;443;;SUIPACHA 443;SAN NICOLAS;COMUNA 1
-58.3794345083749;-34.603041018269;642;"CONSERVATORIO S. M. ""MANUEL DE FALLA""";ESPACIO PUBLICO;GESTION PREVIA HRL;AGO-15;DISPONIBLE;OTROS ESTABLECIMIENTOS;SUIPACHA;443;;SUIPACHA 443;SAN NICOLAS;COMUNA 1
-58.5136080983807;-34.6465934118243;641;POLIDEPORTIVO SANTOJANNI;ESPACIO PUBLICO;GESTION PREVIA HRL;AGO-15;DISPONIBLE;OTROS ESTABLECIMIENTOS;PATRON;6222;;PATRON 6222;LINIERS;COMUNA 9
-58.4455456567543;-34.5798824150905;640;POLIDEPORTIVO COLEGIALES;ESPACIO PUBLICO;GESTION PREVIA HRL;AGO-15;DISPONIBLE;OTROS ESTABLECIMIENTOS;CONDE;235;;CONDE 235;COLEGIALES;COMUNA 13
-58.4137084531004;-34.5849896360167;637;CMB Nº 22;HOSPITALES Y CENTROS DE SALUD;GESTION PREVIA HRL;AGO-15;DISPONIBLE;CMB;ARAOZ;2637;;ARAOZ 2637;PALERMO;COMUNA 14
-58.4943617241047;-34.64935435663;636;CMB Nº 20;HOSPITALES Y CENTROS DE SALUD;GESTION PREVIA HRL;AGO-15;DISPONIBLE;CMB;ARAUJO;1246;;ARAUJO 1246;MATADEROS;COMUNA 9
-58.5266752081579;-34.6137422033411;635;CMB Nº 19;HOSPITALES Y CENTROS DE SALUD;GESTION PREVIA HRL;AGO-15;DISPONIBLE;CMB;COLIGUE;2977;;COLIGUE 2977;VILLA REAL;COMUNA 10
-58.4318016908883;-34.6505420699384;634;SECHI MADRE DEL PUEBLO;ESPACIO PUBLICO;GESTION PREVIA HRL;AGO-15;DISPONIBLE;INCLUSION;AV. PERITO MORENO;0;AV. CRUZ;MORENO, PERITO AV. Y FERNANDEZ DE LA CRUZ, F., GRAL. AV.;FLORES;COMUNA 7
-58.4060370153051;-34.6089352938547;633;ESTACION ONCE - 30 DE DICIEMBRE - LINEA H;SUBTE;GESTION PREVIA HRL;JUN-15;DISPONIBLE;LINEA H;MITRE;0;PUEYRREDON;MITRE, BARTOLOME Y PUEYRREDON AV.;BALVANERA;COMUNA 3
-58.4023148748249;-34.6230849406998;629;ESTACION HUMBERTO 1º - LINEA H;SUBTE;GESTION PREVIA HRL;JUL-15;DISPONIBLE;LINEA H;JUJUY;0;HUMBERTO PRIMO;JUJUY AV. Y HUMBERTO 1°;SAN CRISTOBAL;COMUNA 3
-58.4123823455799;-34.6412716991422;625;ESTACION HOSPITALES - LINEA H;SUBTE;GESTION PREVIA HRL;JUL-15;DISPONIBLE;LINEA H;PUNA;0;ALMAFUERTE;PUNA Y ALMAFUERTE AV.;PARQUE PATRICIOS;COMUNA 4
-58.404742418805;-34.6152386603117;622;ESTACION VENEZUELA - LINEA H;SUBTE;GESTION PREVIA HRL;JUL-15;DISPONIBLE;LINEA H;BELGRANO;0;JUJUY;BELGRANO AV. Y JUJUY AV.;BALVANERA;COMUNA 3
-58.4009708300861;-34.6293755371748;617;ESTACION INCLAN - LINEA H;SUBTE;GESTION PREVIA HRL;JUL-15;DISPONIBLE;LINEA H;INCLAN;0;JUJUY;INCLAN Y JUJUY AV.;PARQUE PATRICIOS;COMUNA 4
-58.398947219082;-34.6357440290381;611;ESTACION CASEROS - LINEA H;SUBTE;GESTION PREVIA HRL;JUL-15;DISPONIBLE;LINEA H;CASEROS;0;JUJUY;CASEROS AV. Y JUJUY AV.;PARQUE PATRICIOS;COMUNA 4
-58.4623805023815;-34.5556425339622;606;ESTACION CONGRESO DE TUCUMAN - LINEA D;SUBTE;GESTION PREVIA HRL;JUL-15;DISPONIBLE;LINEA D;CONGRESO;0;CABILDO;CONGRESO Y CABILDO AV.;BELGRANO;COMUNA 13
-58.4566895713406;-34.5620382144594;601;ESTACION JURAMENTO - LINEA D;SUBTE;GESTION PREVIA HRL;JUL-15;DISPONIBLE;LINEA D;JURAMENTO;0;CABILDO;JURAMENTO AV. Y CABILDO AV.;BELGRANO;COMUNA 13
-58.4521262292013;-34.5662146200467;596;ESTACION JOSE HERNANDEZ - LINEA D;SUBTE;GESTION PREVIA HRL;JUL-15;DISPONIBLE;LINEA D;CABILDO;0;VIRREY DEL PINO;CABILDO AV. Y PINO, VIRREY DEL;BELGRANO;COMUNA 13
-58.4446699003404;-34.5700115457276;591;ESTACION OLLEROS - LINEA D;SUBTE;GESTION PREVIA HRL;JUL-15;DISPONIBLE;LINEA D;LACROZE;0;CABILDO;LACROZE, FEDERICO AV. Y CABILDO AV.;PALERMO;COMUNA 14
-58.4350113441592;-34.5751744284973;586;ESTACION MINISTRO CARRANZA - LINEA D;SUBTE;GESTION PREVIA HRL;JUL-15;DISPONIBLE;LINEA D;DORREGO;0;SANTA FE;DORREGO Y SANTA FE AV.;PALERMO;COMUNA 14
-58.3931270745717;-34.599637225615;580;ESTACION CALLAO - LINEA D;SUBTE;GESTION PREVIA HRL;JUL-15;DISPONIBLE;LINEA D;CALLAO;0;CORDOBA;CALLAO AV. Y CORDOBA AV.;BALVANERA;COMUNA 3
-58.4023958478884;-34.5944248440641;577;ESTACION PUEYRREDON  - LINEA D;SUBTE;GESTION PREVIA HRL;JUL-15;DISPONIBLE;LINEA D;PUEYRREDON;0;SANTA FE;PUEYRREDON AV. Y SANTA FE AV.;RECOLETA;COMUNA 2
-58.4112947370444;-34.5882372352057;573;ESTACION BULNES - LINEA D;SUBTE;GESTION PREVIA HRL;JUL-15;DISPONIBLE;LINEA D;BULNES;0;SANTA FE;BULNES Y SANTA FE AV.;PALERMO;COMUNA 14
-58.415955515409;-34.5851555763336;569;ESTACION R. SCALABRINI ORTIZ - LINEA D;SUBTE;GESTION PREVIA HRL;JUL-15;DISPONIBLE;LINEA D;SCALABRINI ORTIZ;0;SANTA FE;SCALABRINI ORTIZ, RAUL Y SANTA FE AV.;PALERMO;COMUNA 14
-58.4071584490875;-34.5916302763783;563;ESTACION AGÜERO - LINEA D;SUBTE;GESTION PREVIA HRL;JUL-15;DISPONIBLE;LINEA D;AGUERO;0;SANTA FE;AGUERO Y SANTA FE AV.;RECOLETA;COMUNA 2
-58.3851434461024;-34.6015879654865;557;ESTACION TRIBUNALES - LINEA D;SUBTE;GESTION PREVIA HRL;JUL-15;DISPONIBLE;LINEA D;TUCUMAN;0;TALCAHUANO;TUCUMAN Y TALCAHUANO;SAN NICOLAS;COMUNA 1
-58.406039193396;-34.6089389006323;556;ESPACIO SUBTE DIGITAL ONCE - 30 DE DICIEMBRE - LINEA H;SUBTE;GESTION PREVIA HRL;JUL-15;DISPONIBLE;LINEA H;MITRE;0;PUEYRREDON;MITRE, BARTOLOME Y PUEYRREDON AV.;BALVANERA;COMUNA 3
-58.4023312218609;-34.6230984703822;555;ESPACIO SUBTE DIGITAL HUMBERTO 1º - LINEA H;SUBTE;GESTION PREVIA HRL;JUL-15;DISPONIBLE;LINEA H;JUJUY;0;HUMBERTO PRIMO;JUJUY AV. Y HUMBERTO 1°;SAN CRISTOBAL;COMUNA 3
-58.3989472204614;-34.6357422261638;554;ESPACIO SUBTE DIGITAL CASEROS - LINEA H;SUBTE;GESTION PREVIA HRL;JUL-15;DISPONIBLE;LINEA H;CASEROS;0;JUJUY;CASEROS AV. Y JUJUY AV.;PARQUE PATRICIOS;COMUNA 4
-58.3736804948211;-34.6092400867061;553;ESPACIO SUBTE DIGITAL BOLIVAR - LINEA E;SUBTE;GESTION PREVIA HRL;JUL-15;DISPONIBLE;LINEA E;JULIO A. ROCA;0;YRIGOYEN;ROCA, JULIO A., PRESIDENTE AV. Y YRIGOYEN, HIPOLITO;MONSERRAT;COMUNA 1
-58.3739569974545;-34.6078001792052;552;ESPACIO SUBTE DIGITAL CATEDRAL - LINEA D;SUBTE;GESTION PREVIA HRL;JUL-15;DISPONIBLE;LINEA D;ROQUE SAENZ PEÑA;0;RIVADAVIA;SAENZ PEÑA, ROQUE, PRES. AV. Y RIVADAVIA AV.;MONSERRAT;COMUNA 1
-58.3805632618275;-34.6042390960248;551;ESPACIO SUBTE DIGITAL 9 DE JULIO LINEA D;SUBTE;GESTION PREVIA HRL;JUL-15;DISPONIBLE;LINEA D;ROQUE SAENZ PEÑA;0;CARLOS PELLEGRINI;SAENZ PEÑA, ROQUE, PRES. AV. Y PELLEGRINI, CARLOS;SAN NICOLAS;COMUNA 1
-58.3979272085267;-34.5997643798604;550;ESPACIO SUBTE DIGITAL FACULTAD DE MEDICINA - LINEA D;SUBTE;GESTION PREVIA HRL;JUL-15;DISPONIBLE;LINEA D;CORDOBA;0;URIBURU;CORDOBA AV. Y URIBURU JOSE E., PRES.;BALVANERA;COMUNA 3
-58.4210828778419;-34.5815040333635;549;ESPACIO SUBTE DIGITAL PLAZA ITALIA - LINEA D;SUBTE;GESTION PREVIA HRL;JUL-15;DISPONIBLE;LINEA D;SANTA FE;0;THAMES;SANTA FE AV. Y THAMES;PALERMO;COMUNA 14
-58.425252448352;-34.5786635010942;548;ESPACIO SUBTE DIGITAL PALERMO - LINEA D;SUBTE;GESTION PREVIA HRL;JUL-15;DISPONIBLE;LINEA D;SANTA FE;0;GODOY CRUZ;SANTA FE AV. Y GODOY CRUZ;PALERMO;COMUNA 14
-58.4350097564353;-34.5751711958501;547;ESPACIO SUBTE DIGITAL CARRANZA - LINEA D;SUBTE;GESTION PREVIA HRL;JUL-15;DISPONIBLE;LINEA D;SANTA FE;0;DORREGO;SANTA FE AV. Y DORREGO;PALERMO;COMUNA 14
-58.3699297247645;-34.6029923433781;546;ESPACIO SUBTE DIGITAL ALEM - LINEA B;SUBTE;GESTION PREVIA HRL;JUL-15;DISPONIBLE;LINEA B;ALEM;0;CORRIENTES;ALEM, LEANDRO N. AV. Y CORRIENTES AV.;SAN NICOLAS;COMUNA 1
-58.3923081544692;-34.6044180631755;545;ESPACIO SUBTE DIGITAL CALLAO - LINEA B;SUBTE;GESTION PREVIA HRL;JUL-15;DISPONIBLE;LINEA B;CALLAO;0;CORRIENTES;CALLAO AV. Y CORRIENTES AV.;SAN NICOLAS;COMUNA 1
-58.469639651188;-34.6307070600453;544;ESPACIO SUBTE DIGITAL SAN PEDRITO - LINEA A;SUBTE;GESTION PREVIA HRL;JUL-15;DISPONIBLE;LINEA A;NAZCA;0;RIVADAVIA;NAZCA AV. Y RIVADAVIA AV.;FLORES;COMUNA 7
-58.4797546183575;-34.6120039293508;543;CMB Nº 13;HOSPITALES Y CENTROS DE SALUD;GESTION PREVIA HRL;JUN-15;DISPONIBLE;CMB;CAMARONES;2834;;CAMARONES 2834;VILLA SANTA RITA;COMUNA 11
-58.4651482800009;-34.6193106613858;541;CMB Nº 12;HOSPITALES Y CENTROS DE SALUD;GESTION PREVIA HRL;JUN-15;DISPONIBLE;CMB;PAEZ;2283;;PAEZ 2283;FLORES;COMUNA 7
-58.4556782711074;-34.6559179970118;540;SECHI PLAZA CARRILLO;ESPACIO PUBLICO;GESTION PREVIA HRL;JUN-15;DISPONIBLE;INCLUSION;ACOSTA;2461;;ACOSTA, MARIANO 2461;VILLA SOLDATI;COMUNA 8
-58.4471031767715;-34.660474033834;537;SECHI SEDE BARRIO FATIMA;ESPACIO PUBLICO;GESTION PREVIA HRL;JUN-15;DISPONIBLE;INCLUSION;PERGAMINO;2950;;PERGAMINO 2950;VILLA SOLDATI;COMUNA 8
-58.4316876865409;-34.6409743206695;536;CMB Nº 8;HOSPITALES Y CENTROS DE SALUD;GESTION PREVIA HRL;MAY-15;DISPONIBLE;CMB;LA CAPITAL;1131;;LA CAPITAL 1131;PARQUE CHACABUCO;COMUNA 7
-58.5124123417808;-34.6452086369702;535;CMB Nº 7;HOSPITALES Y CENTROS DE SALUD;GESTION PREVIA HRL;MAY-15;DISPONIBLE;CMB;PATRON;6119;;PATRON 6119;LINIERS;COMUNA 9
-58.3937070289882;-34.6196032137453;534;CMB Nº 6;HOSPITALES Y CENTROS DE SALUD;GESTION PREVIA HRL;MAY-15;DISPONIBLE;CMB;ESTADOS UNIDOS;1936;;ESTADOS UNIDOS 1936;SAN CRISTOBAL;COMUNA 3
-58.3795260056173;-34.6548670990032;533;POSTA DIGITAL - CMD;ESPACIO PUBLICO;GESTION PREVIA HRL;MAY-15;DISPONIBLE;INCLUSION;ALGARROBO;1041;;ALGARROBO 1041;BARRACAS;COMUNA 4
-58.4350465839634;-34.6084660945371;531;INST. DE ZOONOSIS LUIS PASTEUR;HOSPITALES Y CENTROS DE SALUD;GESTION PREVIA HRL;MAY-15;DISPONIBLE;HOSPITAL;DIAZ VELEZ;4821;;DIAZ VELEZ AV. 4821;CABALLITO;COMUNA 6
-58.4074178685168;-34.6097192799921;530;ESTACION SALUDABLE PLAZA MISERERE;HOSPITALES Y CENTROS DE SALUD;GESTION PREVIA HRL;MAY-15;DISPONIBLE;ESTACION SALUDABLE;PUEYRREDON;0;BARTOLOME MITRE;PUEYRREDON AV. Y MITRE, BARTOLOME;BALVANERA;COMUNA 3
-58.4636224864458;-34.6284891515178;529;ESTACION SALUDABLE PLAZA FLORES;HOSPITALES Y CENTROS DE SALUD;GESTION PREVIA HRL;MAY-15;DISPONIBLE;ESTACION SALUDABLE;FRAY CAYETANO RODRIGUEZ;0;RIVADAVIA;FRAY CAYETANO RODRIGUEZ Y RIVADAVIA AV.;FLORES;COMUNA 7
-58.4059199094467;-34.6378829374324;528;ESTACION SALUDABLE PARQUE PATRICIOS;HOSPITALES Y CENTROS DE SALUD;GESTION PREVIA HRL;MAY-15;DISPONIBLE;ESTACION SALUDABLE;PATAGONES;0;MONTEAGUDO;PATAGONES Y MONTEAGUDO;PARQUE PATRICIOS;COMUNA 4
-58.4481111164194;-34.5916779789863;527;ESTACION SALUDABLE PARQUE LOS ANDES;HOSPITALES Y CENTROS DE SALUD;GESTION PREVIA HRL;MAY-15;DISPONIBLE;ESTACION SALUDABLE;JORGE NEWBERY;4100;;NEWBERY, JORGE AV. 4100;CHACARITA;COMUNA 15
-58.4752130047154;-34.5976564671343;525;HTAL. DE EMERG. PSIQUIATRICAS TORCUATO DE ALVEAR;HOSPITALES Y CENTROS DE SALUD;GESTION PREVIA HRL;MAY-15;DISPONIBLE;HOSPITAL;WARNES;2630;;WARNES AV. 2630;PATERNAL;COMUNA 15
-58.4108974552092;-34.6432024419744;524;HTAL. J. A. PENNA;HOSPITALES Y CENTROS DE SALUD;GESTION PREVIA HRL;MAY-15;DISPONIBLE;HOSPITAL;PEDRO CHUTRO;3380;;CHUTRO, PEDRO, PROF., DR. 3380;PARQUE PATRICIOS;COMUNA 4
-58.3843648643223;-34.6393032299615;523;HTAL. DE SALUD MENTAL BRAULIO MOYANO;HOSPITALES Y CENTROS DE SALUD;GESTION PREVIA HRL;MAY-15;DISPONIBLE;HOSPITAL;BRANDSEN;2570;;BRANDSEN 2570;BARRACAS;COMUNA 4
-58.4024121525409;-34.6391665336357;522;CENTRO DEL DISTRITO TECNOLOGICO (ESPACIOS DE RECEPCION AL PUBLICO);ESPACIO PUBLICO;GESTION PREVIA HRL;ABR-15;DISPONIBLE;DISTRITO TECNOLOGICO;USPALLATA;2802;;USPALLATA 2802;PARQUE PATRICIOS;COMUNA 4
-58.4145093167028;-34.5733898111286;512;PLAZA RAMON FERNANDEZ;PARQUES Y PLAZAS;GESTION PREVIA HRL;MAR-15;DISPONIBLE;PARQUES Y PLAZAS;SARMIENTO;0;IRAOLA;SARMIENTO AV. Y IRAOLA AV.;PALERMO;COMUNA 14
-58.4085884120845;-34.640258803505;511;PZTA. DR. GENARO GIACOBINI;PARQUES Y PLAZAS;GESTION PREVIA HRL;ABR-15;DISPONIBLE;PARQUES Y PLAZAS;USPALLATA;0;PEPIRI;USPALLATA Y PEPIRI;PARQUE PATRICIOS;COMUNA 4
-58.4104745715627;-34.6445294775024;510;PLAZA JOSE C. PAZ;PARQUES Y PLAZAS;GESTION PREVIA HRL;ABR-15;DISPONIBLE;PARQUES Y PLAZAS;JOSE C. PAZ;0;DIOGENES TABORDA;PAZ, JOSE C. Y TABORDA, DIOGENES;PARQUE PATRICIOS;COMUNA 4
-58.4097209295311;-34.6422697864467;509;PARQUE URIBURU;PARQUES Y PLAZAS;GESTION PREVIA HRL;ABR-15;DISPONIBLE;PARQUES Y PLAZAS;PEPIRI;0;PEDRO CHUTRO;PEPIRI Y CHUTRO, PEDRO, PROF., DR.;PARQUE PATRICIOS;COMUNA 4
-58.4089913501943;-34.638963729305;508;PARQUE PATRICIOS (DISTRITO TECNOLOGICO);PARQUES Y PLAZAS;GESTION PREVIA HRL;ABR-15;DISPONIBLE;PARQUES Y PLAZAS;CASEROS;0;ALMAFUERTE;CASEROS AV. Y ALMAFUERTE AV.;BOEDO;COMUNA 5
-58.4668024158405;-34.6643661847337;507;ESTACION SALUDABLE PARQUE INDOAMERICANO;HOSPITALES Y CENTROS DE SALUD;GESTION PREVIA HRL;ABR-15;DISPONIBLE;ESTACION SALUDABLE;CASTAÑARES;0;LACARRA;CASTAÑARES AV. Y LACARRA AV.;VILLA SOLDATI;COMUNA 8
-58.4397298258896;-34.6349495301177;506;ESTACION SALUDABLE PARQUE CHACABUCO;HOSPITALES Y CENTROS DE SALUD;GESTION PREVIA HRL;ABR-15;DISPONIBLE;ESTACION SALUDABLE;ASAMBLEA;0;EMILIO MITRE;ASAMBLEA AV. Y MITRE, EMILIO;PARQUE CHACABUCO;COMUNA 7
-58.43456604098;-34.6051255094866;505;ESTACION SALUDABLE PARQUE CENTENARIO;HOSPITALES Y CENTROS DE SALUD;GESTION PREVIA HRL;ABR-15;DISPONIBLE;ESTACION SALUDABLE;ANTONIO MACHADO;0;PATRICIAS ARGENTINAS;MACHADO, ANTONIO Y PATRICIAS ARGENTINAS AV.;CABALLITO;COMUNA 6
-58.4755730884447;-34.6453579639086;504;ESTACION SALUDABLE PARQUE AVELLANEDA;HOSPITALES Y CENTROS DE SALUD;GESTION PREVIA HRL;ABR-15;DISPONIBLE;ESTACION SALUDABLE;BILBAO;0;LACARRA;BILBAO, FRANCISCO AV. Y LACARRA AV.;PARQUE AVELLANEDA;COMUNA 9
-58.382230244483;-34.6269400252844;503;ESTACION SALUDABLE CONSTITUCION;HOSPITALES Y CENTROS DE SALUD;GESTION PREVIA HRL;ABR-15;DISPONIBLE;ESTACION SALUDABLE;JUAN DE GARAY;0;LIMA;GARAY, JUAN DE AV. Y LIMA;CONSTITUCION;COMUNA 1
-58.4054498832977;-34.6044987708221;502;ESTACION SALUDABLE CORRIENTES LINEA H;HOSPITALES Y CENTROS DE SALUD;GESTION PREVIA HRL;MAR-15;DISPONIBLE;ESTACION SALUDABLE;CORRIENTES;0;PUEYRREDON;CORRIENTES AV. Y PUEYRREDON AV.;BALVANERA;COMUNA 3
-58.4276435228447;-34.6147258053099;500;HTAL. DE ODONTOLOGIA  J. DUEÑAS;HOSPITALES Y CENTROS DE SALUD;GESTION PREVIA HRL;ABR-15;DISPONIBLE;HOSPITAL;MUÑIZ;15;;MUÑIZ 15;ALMAGRO;COMUNA 5
-58.4026050472699;-34.5845100290469;499;HTAL. ODONTOLOGICO DR. R. CARRILLO (EX NACIONAL);HOSPITALES Y CENTROS DE SALUD;GESTION PREVIA HRL;ABR-15;DISPONIBLE;HOSPITAL;SANCHEZ DE BUSTAMANTE;2529;;SANCHEZ DE BUSTAMANTE 2529;RECOLETA;COMUNA 2
-58.4408846202799;-34.553907886517;498;HTAL. DE REHABILITACION PSICOFISICA;HOSPITALES Y CENTROS DE SALUD;GESTION PREVIA HRL;ABR-15;DISPONIBLE;HOSPITAL;ECHEVERRIA;955;;ECHEVERRIA 955;BELGRANO;COMUNA 13
-58.3821666207014;-34.6366246934182;497;HTAL. DE SALUD MENTAL J. BORDA;HOSPITALES Y CENTROS DE SALUD;GESTION PREVIA HRL;ABR-13;DISPONIBLE;HOSPITAL;RAMON CARRILLO;375;;CARRILLO, RAMON, DR. 375;BARRACAS;COMUNA 4
-58.4694760287131;-34.624125573923;496;HTAL. ALVAREZ;HOSPITALES Y CENTROS DE SALUD;GESTION PREVIA HRL;ABR-15;DISPONIBLE;HOSPITAL;ARANGUREN;2701;;ARANGUREN, JUAN F., DR. 2701;FLORES;COMUNA 7
-58.4008016124095;-34.5845643853643;495;HTAL. RIVADAVIA;HOSPITALES Y CENTROS DE SALUD;GESTION PREVIA HRL;MAR-15;DISPONIBLE;HOSPITAL;LAS HERAS;2670;;LAS HERAS GENERAL AV. 2670;RECOLETA;COMUNA 2
-58.4095811667103;-34.6176346384995;493;HTAL. RAMOS MEJIA;HOSPITALES Y CENTROS DE SALUD;GESTION PREVIA HRL;MAR-15;DISPONIBLE;HOSPITAL;GRAL URQUIZA;609;;URQUIZA, GRAL. 609;BALVANERA;COMUNA 3
-58.3809152482781;-34.6030823411655;492;GALERIA PASAJE OBELISCO NORTE;ESPACIO PUBLICO;GESTION PREVIA HRL;DIC-14;DISPONIBLE;OTROS ESTABLECIMIENTOS;PELLEGRINI;451;;PELLEGRINI, CARLOS 451;SAN NICOLAS;COMUNA 1
-58.3808200499735;-34.6044996517548;491;GALERIA PASAJE OBELISCO SUR;ESPACIO PUBLICO;GESTION PREVIA HRL;DIC-14;DISPONIBLE;OTROS ESTABLECIMIENTOS;PELLEGRINI;327;;PELLEGRINI, CARLOS 327;SAN NICOLAS;COMUNA 1
-58.4212278581642;-34.5813904368909;485;ESTACION PLAZA ITALIA - LINEA D;SUBTE;GESTION PREVIA HRL;NOV-14;DISPONIBLE;LINEA D;SANTA FE;4100;;SANTA FE AV. 4100;PALERMO;COMUNA 14
-58.4256254111963;-34.5784717941763;480;ESTACION PALERMO - LINEA D;SUBTE;GESTION PREVIA HRL;NOV-14;DISPONIBLE;LINEA D;SANTA FE;4600;;SANTA FE AV. 4600;PALERMO;COMUNA 14
-58.3978864874877;-34.5997567983729;473;ESTACION FACULTAD DE MEDICINA - LINEA D;SUBTE;GESTION PREVIA HRL;NOV-14;DISPONIBLE;LINEA D;CORDOBA;2100;;CORDOBA AV. 2100;BALVANERA;COMUNA 3
-58.3805933007944;-34.6042293079128;472;ESTACION 9 DE JULIO - LINEA D;SUBTE;GESTION PREVIA HRL;NOV-14;DISPONIBLE;LINEA D;ROQUE SAENZ PEÑA;951;;SAENZ PEÑA, ROQUE, PRES. AV. 951;SAN NICOLAS;COMUNA 1
-58.3739458317206;-34.6077839159391;471;ESTACION CATEDRAL - LINEA D;SUBTE;GESTION PREVIA HRL;NOV-14;DISPONIBLE;LINEA D;ROQUE SAENZ PEÑA;501;;SAENZ PEÑA, ROQUE, PRES. AV. 501;SAN NICOLAS;COMUNA 1
-58.37551917489;-34.5979223885568;466;FLORIDA 870;AREA CENTRAL;GESTION PREVIA HRL;MAR-15;DISPONIBLE;FLORIDA;FLORIDA;870;;FLORIDA 870;RETIRO;COMUNA 1
-58.3753948224462;-34.6017229371545;465;FLORIDA 540;AREA CENTRAL;GESTION PREVIA HRL;MAR-15;DISPONIBLE;FLORIDA;FLORIDA;540;;FLORIDA 540;SAN NICOLAS;COMUNA 1
-58.375288553859;-34.6039209919588;464;FLORIDA 364;AREA CENTRAL;GESTION PREVIA HRL;MAR-15;DISPONIBLE;FLORIDA;FLORIDA;364;;FLORIDA 364;SAN NICOLAS;COMUNA 1
-58.3751688477101;-34.606006332772;463;FLORIDA 180;AREA CENTRAL;GESTION PREVIA HRL;MAR-15;DISPONIBLE;FLORIDA;FLORIDA;180;;FLORIDA 180;SAN NICOLAS;COMUNA 1
-58.3747963460282;-34.607770081199;462;FLORIDA 25;AREA CENTRAL;GESTION PREVIA HRL;MAR-15;DISPONIBLE;FLORIDA;FLORIDA;25;;FLORIDA 25;SAN NICOLAS;COMUNA 1
-58.375838905154;-34.6065376511491;461;SUBSECRETARIA CIUDAD INTELIGENTE;ESPACIO PUBLICO;GESTION PREVIA HRL;FEB-15;DISPONIBLE;EDIFICIOS DEL GCABA;SAENZ PEÑA, ROQUE, PRES. AV.;637;;SAENZ PEÑA, ROQUE, PRES. AV. 637;SAN NICOLAS;COMUNA 1
-58.4069130256873;-34.6412710325493;460;NUEVA SEDE GCBA (RECEPCIONES PUBLICO);ESPACIO PUBLICO;GESTION PREVIA HRL;FEB-15;DISPONIBLE;EDIFICIOS DEL GCABA;LOS PATOS;3151;;LOS PATOS 3151;PARQUE PATRICIOS;COMUNA 4
-58.4126537094449;-34.5715362374776;459;ESTACION SALUDABLE ROSEDAL;HOSPITALES Y CENTROS DE SALUD;GESTION PREVIA HRL;FEB-15;DISPONIBLE;ESTACION SALUDABLE;IRAOLA AV.;0;SARMIENTO AV.;IRAOLA  AV. Y SARMIENTO AV.;PALERMO;COMUNA 14
-58.3744623222062;-34.6087571006617;458;ESTACION SALUDABLE PERU;HOSPITALES Y CENTROS DE SALUD;GESTION PREVIA HRL;FEB-15;DISPONIBLE;ESTACION SALUDABLE;AV. DE MAYO;570;;AV. DE MAYO 570;MONSERRAT;COMUNA 1
-58.3751324374879;-34.6069507914693;456;ESTACION SALUDABLE DIAGONAL Y FLORIDA (REFUERZO);HOSPITALES Y CENTROS DE SALUD;GESTION PREVIA HRL;FEB-15;DISPONIBLE;ESTACION SALUDABLE;SAENZ PEÑA, ROQUE, PRES. AV.;0;FLORIDA;SAENZ PEÑA, ROQUE, PRES. AV. Y FLORIDA;SAN NICOLAS;COMUNA 1
-58.4318602389053;-34.6505898477812;455;SECHI PLAZA ROTONDA / ESPEJO;ESPACIO PUBLICO;GESTION PREVIA HRL;FEB-15;DISPONIBLE;INCLUSION;PERITO MORENO AV.;0;FERNANDEZ DE LA CRUZ, F., GRAL. AV.;PERITO MORENO AV. FERNANDEZ DE LA CRUZ, F. GRAL. AV.;FLORES;COMUNA 7
-58.433346503365;-34.6497929862705;452;SECHI NIDITO;ESPACIO PUBLICO;GESTION PREVIA HRL;FEB-15;DISPONIBLE;INCLUSION;PERITO MORENO AV.;0;EREZCANO;PERITO MORENO AV. Y EREZCANO;FLORES;COMUNA 7
-58.4378712846774;-34.6507409020397;451;SECHI - CORREDOR SALUDABLE PERITO MORENO;ESPACIO PUBLICO;GESTION PREVIA HRL;FEB-15;DISPONIBLE;INCLUSION;PERITO MORENO AV.;1701;;PERITO MORENO AV. 1701;NUEVA POMPEYA;COMUNA 4
-58.3663126292929;-34.6211941479523;446;COPIDIS;ESPACIO PUBLICO;GESTION PREVIA HRL;SEP-14;DISPONIBLE;INCLUSION;HUERGO, ING. AV.;1189;;HUERGO, ING. AV. 1189;SAN TELMO;COMUNA 1
-58.3796335557595;-34.6277409870507;445;ESTACION CONSTITUCION;METROBUS;GESTION PREVIA HRL;SEP-14;DISPONIBLE;SUR;BRASIL;0;GRAL. HORNOS;BRASIL Y HORNOS. GRAL.;CONSTITUCION;COMUNA 1
-58.4502477016849;-34.5914273758394;444;BALDOMERO FERNANDEZ MORENO;BIBLIOTECA;GESTION PREVIA HRL;SEP-14;DISPONIBLE;BIBLIOTECA;CONCEPCION ARENAL;4206;;ARENAL, CONCEPCION  4206;CHACARITA;COMUNA 15
-58.4093596424251;-34.6033847196876;443;PASAJE CARLOS GARDEL;ESPACIO PUBLICO;GESTION PREVIA HRL;SEP-14;DISPONIBLE;OTROS ESTABLECIMIENTOS;CARLOS GARDEL;0;JEAN JAURES;GARDEL, CARLOS Y JAURES, JEAN;BALVANERA;COMUNA 3
-58.4197741740788;-34.5809046335167;442;JARDIN ZOOLOGICO;ESPACIO PUBLICO;GESTION PREVIA HRL;SEP-14;DISPONIBLE;ZOOLOGICO;CALZADA CIRCULAR PLAZA ITALIA;0;LAS HERAS GENERAL AV.;CALZADA CIRCULAR PLAZA ITALIA Y LAS HERAS GENERAL AV.;PALERMO;COMUNA 14
-58.4302299712055;-34.5976889032328;440;EMAD - ESCUELA METROPOLITANA DE ARTE DRAMATICO;ESPACIO PUBLICO;GESTION PREVIA HRL;JUL-14;DISPONIBLE;OTROS ESTABLECIMIENTOS;JUFRE;141;;JUFRE 141;VILLA CRESPO;COMUNA 15
-58.4669382206226;-34.6302498357574;439;SEDE DE COMUNA 7;SEDE COMUNAL;GESTION PREVIA HRL;4TA. ETAPA / SEPTIEMBRE 2012 (SEDES COMUNALES);DISPONIBLE;SEDE COMUNAL;RIVADAVIA AV.;7202;;RIVADAVIA AV. 7202;FLORES;COMUNA 7
-58.4488644898114;-34.680530730857;438;ESTACION SALUDABLE SACTA;HOSPITALES Y CENTROS DE SALUD;GESTION PREVIA HRL;JUL-14;DISPONIBLE;ESTACION SALUDABLE;AV. ROCA;0;Y AV. ESCALADA;AV. ROCA Y AV. ESCALADA;VILLA SOLDATI;COMUNA 8
-58.456522993909;-34.615598175299;436;PLAZA IRLANDA - CENTRO DE JUBILADOS;PARQUES Y PLAZAS;GESTION PREVIA HRL;JUL-14;DISPONIBLE;PARQUES Y PLAZAS;SEGUI;850;;SEGUI, F. J., ALTE. 850;CABALLITO;COMUNA 6
-58.4009970869445;-34.6317707424733;435;ESTACION JUJUY;METROBUS;GESTION PREVIA HRL;JUL-14;DISPONIBLE;SUR;JUJUY;0;BRASIL;JUJUY AV. Y BRASIL;PARQUE PATRICIOS;COMUNA 4
-58.3819702457595;-34.6052778473174;432;ESTACION DE COMBIS;METROBUS;GESTION PREVIA HRL;;DISPONIBLE;9 DE JULIO;9 DE JULIO AV.;0;SARMIENTO;9 DE JULIO AV. Y SARMIENTO;SAN NICOLAS;COMUNA 1
-58.426978337133;-34.5775415770425;431;ESTACION SALUDABLE PACIFICO;HOSPITALES Y CENTROS DE SALUD;GESTION PREVIA HRL;JUL-14;DISPONIBLE;ESTACION SALUDABLE;SANTA FE;0;BULLRICH;SANTA FE AV. Y BULLRICH, INT. AV.;PALERMO;COMUNA 14
-58.3741427089095;-34.5926733185879;429;ESTACION SALUDABLE RETIRO;HOSPITALES Y CENTROS DE SALUD;GESTION PREVIA HRL;JUL-14;DISPONIBLE;ESTACION SALUDABLE;DEL LIBERTADOR;0;RAMOS MEJIA;DEL LIBERTADOR AV. Y RAMOS MEJIA, JOSE MARIA, DR. AV.;RETIRO;COMUNA 1
-58.4944126578934;-34.6381491094026;428;CENTRO DE DIA NRO. 27;ESPACIO PUBLICO;GESTION PREVIA HRL;JUL-14;DISPONIBLE;INCLUSION;RAMON FALCON;4778;;FALCON, RAMON L.,CNEL. 4778;VILLA LURO;COMUNA 10
-58.412013617429;-34.6442007919524;426;DISTRITO TECNOLOGICO MIRIÑAY 3532;ESPACIO PUBLICO;GESTION PREVIA HRL;JUN-14;DISPONIBLE;DISTRITO TECNOLOGICO;MIRIÑAY;3532;;MIRIÑAY 3532;PARQUE PATRICIOS;COMUNA 4
-58.4117103927509;-34.6438312415118;425;DISTRITO TECNOLOGICO CORTAJARENA 3514;ESPACIO PUBLICO;GESTION PREVIA HRL;JUN-14;DISPONIBLE;DISTRITO TECNOLOGICO;CORTEJARENA;3514;;CORTEJARENA, JOSE A. 3514;PARQUE PATRICIOS;COMUNA 4
-58.4120568132717;-34.6429170762078;424;DISTRITO TECNOLOGICO DR. PROF. P. CHUTRO 3434;ESPACIO PUBLICO;GESTION PREVIA HRL;JUN-14;DISPONIBLE;DISTRITO TECNOLOGICO;CHUTRO;3434;;CHUTRO, PEDRO, PROF., DR. 3434;PARQUE PATRICIOS;COMUNA 4
-58.4126983663937;-34.6417387733591;423;DISTRITO TECNOLOGICO ALMAFUERTE Y PUNA;ESPACIO PUBLICO;GESTION PREVIA HRL;JUN-14;DISPONIBLE;DISTRITO TECNOLOGICO;ALMAFUERTE;0;PUNA;ALMAFUERTE AV. Y PUNA;PARQUE PATRICIOS;COMUNA 4
-58.4118257380824;-34.6396184160357;422;DISTRITO TECNOLOGICO ALMAFUERTE Y POMAR;ESPACIO PUBLICO;GESTION PREVIA HRL;JUN-14;DISPONIBLE;DISTRITO TECNOLOGICO;ALMAFUERTE;0;POMAR;ALMAFUERTE AV. Y POMAR, GREGORIO TTE. CNEL.;NUEVA POMPEYA;COMUNA 4
-58.413540413247;-34.6182239809075;421;CENTRO DE DIA NRO. 17;ESPACIO PUBLICO;GESTION PREVIA HRL;JUL-14;DISPONIBLE;INCLUSION;AGRELO;3356;;AGRELO 3356;ALMAGRO;COMUNA 5
-58.3761999543141;-34.6247820936002;420;CENTRO DE DIA NRO. 19;ESPACIO PUBLICO;GESTION PREVIA HRL;JUL-14;DISPONIBLE;INCLUSION;JUAN DE GARAY;765;;GARAY, JUAN DE AV. 765;SAN TELMO;COMUNA 1
-58.4091212538291;-34.6416736607398;419;DISTRITO TECNOLOGICO PEPIRI Y LOS PATOS;ESPACIO PUBLICO;GESTION PREVIA HRL;JUN-14;DISPONIBLE;DISTRITO TECNOLOGICO;PEPIRI;0;LOS PATOS;PEPIRI Y LOS PATOS;PARQUE PATRICIOS;COMUNA 4
-58.3857528339668;-34.6040297788742;418;CORRIENTES 1350;AREA CENTRAL;GESTION PREVIA HRL;JUN-14;DISPONIBLE;CORRIENTES;CORRIENTES;1350;;CORRIENTES AV. 1350;SAN NICOLAS;COMUNA 1
-58.4306316576717;-34.5797587169826;417;CENTRO DE DIA NRO. 9;ESPACIO PUBLICO;GESTION PREVIA HRL;JUL-14;DISPONIBLE;INCLUSION;PARAGUAY;5170;;PARAGUAY 5170;PALERMO;COMUNA 14
-58.3843421626731;-34.6039481985071;416;CORRIENTES 1250;AREA CENTRAL;GESTION PREVIA HRL;JUN-14;DISPONIBLE;CORRIENTES;CORRIENTES;1250;;CORRIENTES AV. 1250;SAN NICOLAS;COMUNA 1
-58.3828744091875;-34.6038617220974;415;CORRIENTES 1150;AREA CENTRAL;GESTION PREVIA HRL;JUN-14;DISPONIBLE;CORRIENTES;CORRIENTES;1150;;CORRIENTES AV. 1150;SAN NICOLAS;COMUNA 1
-58.5031971356607;-34.5811910834447;414;CENTRO DE DIA NRO. 8;ESPACIO PUBLICO;GESTION PREVIA HRL;JUL-14;DISPONIBLE;INCLUSION;CONDARCO;5155;;CONDARCO 5155;VILLA PUEYRREDON;COMUNA 12
-58.3859897878331;-34.5783955977772;413;PORTAL INCLUSIVO 31. EDIF. POLICIA METROPOLITANA;ESPACIO PUBLICO;GESTION PREVIA HRL;;DISPONIBLE;INCLUSION;CASTILLO, RAMON S., PRES. AV.;1728;;CASTILLO, RAMON S., PRES. AV. 1728;RETIRO;COMUNA 1
-58.4133764153874;-34.6383980825525;412;DISTRITO TECNOLOGICO CASEROS 3405;ESPACIO PUBLICO;GESTION PREVIA HRL;JUN-14;DISPONIBLE;DISTRITO TECNOLOGICO;CASEROS;3405;;CASEROS AV. 3405;BOEDO;COMUNA 5
-58.4054498907215;-34.6044879535193;403;ESTACION CORRIENTES - LINEA H;SUBTE;GESTION PREVIA HRL;;DISPONIBLE;LINEA H;CORRIENTES AV.;0;PUEYRREDON AV.;CORRIENTES AV. Y PUEYRREDON AV.;BALVANERA;COMUNA 3
-58.4137369658183;-34.6058146807227;402;CONSERVATORIO SUPERIOR DE MUSICA MANUEL DE FALLA;ESPACIO PUBLICO;GESTION PREVIA HRL;JUL-14;DISPONIBLE;OTROS ESTABLECIMIENTOS;GALLO;238;;GALLO 238;ALMAGRO;COMUNA 5
-58.4109273635771;-34.6370431670748;401;DISTRITO TECNOLOGICO SANCHEZ DE LORIA Y RONDEAU;ESPACIO PUBLICO;GESTION PREVIA HRL;JUN-14;DISPONIBLE;DISTRITO TECNOLOGICO;SANCHEZ DE LORIA;0;RONDEAU;SANCHEZ DE LORIA AV. Y RONDEAU;BOEDO;COMUNA 5
-58.3776505339998;-34.6059998516346;400;MINISTERIO DE MODERNIZACION;ESPACIO PUBLICO;GESTION PREVIA HRL;JUL-14;DISPONIBLE;EDIFICIOS DEL GCABA;ROQUE SAENZ PEÑA;788;;SAENZ PEÑA, ROQUE, PRES. AV. 788;SAN NICOLAS;COMUNA 1
-58.4054694625903;-34.6045636838448;399;ESPACIO SUBTE DIGITAL PUEYRREDON - LINEA B;SUBTE;GESTION PREVIA HRL;JUL-14;DISPONIBLE;LINEA B;CORRIENTES;0;PUEYRREDON;CORRIENTES AV. Y PUEYRREDON AV.;BALVANERA;COMUNA 3
-58.4116257957169;-34.6381590606751;398;DISTRITO TECNOLOGICO CASEROS Y ALMAFUERTE;ESPACIO PUBLICO;GESTION PREVIA HRL;JUN-14;DISPONIBLE;DISTRITO TECNOLOGICO;CASEROS;0;ALMAFUERTE;CASEROS AV. Y ALMAFUERTE AV.;BOEDO;COMUNA 5
-58.457660033764;-34.6725298671986;394;CENTRO DE ATENCION PRIMARIA DE ALTA RESOLUCION CECILIA GRIERSON;HOSPITALES Y CENTROS DE SALUD;GESTION PREVIA HRL;ABR-14;DISPONIBLE;HOSPITAL;FERNANDEZ DE LA CRUZ F, GRAL. AV.;0;ESCALADA  AV.;FERNANDEZ DE LA CRUZ, F., GRAL. AV. Y ESCALADA AV.;VILLA SOLDATI;COMUNA 8
-58.3746718346442;-34.6075645003778;392;MINISTERIO DE AMBIENTE Y ESPACIO PUBLICO;ESPACIO PUBLICO;GESTION PREVIA HRL;JUL-14;DISPONIBLE;EDIFICIOS DEL GCABA;ROQUE SAENZ PEÑA;570;;SAENZ PEÑA, ROQUE, PRES. AV. 570;SAN NICOLAS;COMUNA 1
-58.3914207553958;-34.6044585464367;389;CORRIENTES 1750;AREA CENTRAL;GESTION PREVIA HRL;JUN-14;DISPONIBLE;CORRIENTES;CORRIENTES;1750;;CORRIENTES AV. 1750;SAN NICOLAS;COMUNA 1
-58.4760047448475;-34.5972607180699;388;HOGAR SAN MARTIN;ESPACIO PUBLICO;GESTION PREVIA HRL;JUL-14;DISPONIBLE;OTROS ESTABLECIMIENTOS;WARNES;2650;;WARNES AV. 2650;PATERNAL;COMUNA 15
-58.4696396292697;-34.6307070870644;383;ESTACION SAN PEDRITO - LINEA A;SUBTE;GESTION PREVIA HRL;;DISPONIBLE;LINEA A;RIVADAVIA AV.;0;SAN PEDRITO AV.;RIVADAVIA AV. Y SAN PEDRITO AV.;FLORES;COMUNA 7
-58.3823107735532;-34.6355920301867;362;HTAL. TOBAR GARCIA;HOSPITALES Y CENTROS DE SALUD;GESTION PREVIA HRL;JUL-14;DISPONIBLE;HOSPITAL;RAMON CARRILLO;315;;CARRILLO, RAMON, DR. 315;BARRACAS;COMUNA 4
-58.446934847961;-34.6350614133523;360;"INSTITUTO VOCACIONAL DE ARTE "" M. J. LABARDEN"" - SEDE CURAPALIGUE";ESPACIO PUBLICO;GESTION PREVIA HRL;ABR-14;DISPONIBLE;OTROS ESTABLECIMIENTOS;CURAPALIGUE;1026;;CURAPALIGUE AV. 1026;PARQUE CHACABUCO;COMUNA 7
-58.4027254390375;-34.6348915984303;352;HTAL. MATERNO INFANTIL R. SARDA;HOSPITALES Y CENTROS DE SALUD;GESTION PREVIA HRL;JUL-14;DISPONIBLE;HOSPITAL;ESTEBAN DE LUCA;2151;;LUCA, ESTEBAN DE 2151;PARQUE PATRICIOS;COMUNA 4
-58.4635183093806;-34.6889179089334;351;CENTRO CULTURAL SALADILLO;ESPACIO PUBLICO;GESTION PREVIA HRL;41730;DISPONIBLE;CENTRO DE EXPOSICIONES Y CULTURALES;BERON DE ASTRADA;5920;;BERON DE ASTRADA 5920;VILLA LUGANO;COMUNA 8
-58.3886955916161;-34.6053058851314;350;CENTRO CULTURAL GENERAL SAN MARTIN;ESPACIO PUBLICO;GESTION PREVIA HRL;ABR-14;DISPONIBLE;CENTRO DE EXPOSICIONES Y CULTURALES;SARMIENTO;1551;;SARMIENTO 1551;SAN NICOLAS;COMUNA 1
-58.389149770302;-34.627363456331;349;"INSTITUTO VOCACIONAL DE ARTE "" M. J. LABARDEN"" - SEDE GARAY";ESPACIO PUBLICO;GESTION PREVIA HRL;ABR-14;DISPONIBLE;OTROS ESTABLECIMIENTOS;GARAY;1684;;GARAY, JUAN DE AV. 1684;CONSTITUCION;COMUNA 1
-58.5017332862506;-34.6184941240534;348;HTAL. DE REHABILITACION M. ROCCA;HOSPITALES Y CENTROS DE SALUD;GESTION PREVIA HRL;JUL-14;DISPONIBLE;HOSPITAL;SEGUROLA;1949;;SEGUROLA AV. 1949;MONTE CASTRO;COMUNA 10
-58.4711132795588;-34.5649499384993;342;HTAL. PIROVANO;HOSPITALES Y CENTROS DE SALUD;GESTION PREVIA HRL;JUL-14;DISPONIBLE;HOSPITAL;MONROE;3555;;MONROE AV. 3555;COGHLAN;COMUNA 12
-58.4098981772845;-34.6380844777247;340;TEMPLETE PARQUE PATRICIOS;ESPACIO PUBLICO;GESTION PREVIA HRL;ABR-14;DISPONIBLE;EDIFICIOS DEL GCABA;CASEROS;3250;;CASEROS AV. 3250;PARQUE PATRICIOS;COMUNA 4
-58.4601694091779;-34.6054311064096;321;HTAL. LAGLEYZE;HOSPITALES Y CENTROS DE SALUD;GESTION PREVIA HRL;JUL-14;DISPONIBLE;HOSPITAL;JUAN B. JUSTO;4151;;JUSTO, JUAN B. AV. 4151;CABALLITO;COMUNA 6
-58.4558386728106;-34.6565452646213;313;PLAZOLETA LACARRA Y SOMELLERA;PARQUES Y PLAZAS;GESTION PREVIA HRL;ABR-14;DISPONIBLE;PARQUES Y PLAZAS;ACOSTA;0;CASTAÑARES;ACOSTA, MARIANO Y CASTAÑARES AV.;FLORES;COMUNA 7
-58.3944342850863;-34.6226153068356;310;HTAL. SANTA LUCIA;HOSPITALES Y CENTROS DE SALUD;GESTION PREVIA HRL;JUL-14;DISPONIBLE;HOSPITAL;AV SAN JUAN;2021;;SAN JUAN AV. 2021;SAN CRISTOBAL;COMUNA 3
-58.5079179241421;-34.5685328749955;308;MUSEO CORNELIO SAAVEDRA;MUSEOS;GESTION PREVIA HRL;JUL-14;DISPONIBLE;MUSEOS;CRISOLOGO LARRALDE;6293;;LARRALDE, CRISOLOGO AV. 6293;SAAVEDRA;COMUNA 12
-58.4183798656311;-34.5790617636534;307;TEATRO SARMIENTO;ESPACIO PUBLICO;GESTION PREVIA HRL;ABR-14;DISPONIBLE;TEATRO;SARMIENTO AV.;2715;;SARMIENTO AV. 2715;PALERMO;COMUNA 14
-58.4029021724375;-34.5685386532384;305;PARQUE MANUEL BELGRANO (EX KTD);PARQUES Y PLAZAS;GESTION PREVIA HRL;1RA. ETAPA / DISPONIBLE;DISPONIBLE;PARQUES Y PLAZAS;SALGUERO, JERONIMO;3400;;SALGUERO, JERONIMO 3400;RECOLETA;COMUNA 2
-58.3659244153058;-34.6278843798365;302;HTAL. ARGERICH;HOSPITALES Y CENTROS DE SALUD;GESTION PREVIA HRL;JUL-14;DISPONIBLE;HOSPITAL;PI Y MARGALL;750;;PI Y MARGALL 750;BOCA;COMUNA 4
-58.4520283511224;-34.5902634785757;301;CENTRO UNICO DE COORDINACION Y CONTROL;ESPACIO PUBLICO;GESTION PREVIA HRL;JUL-14;DISPONIBLE;EDIFICIOS DEL GCABA;NEWBERY;0;GUZMAN;NEWBERY, JORGE AV. Y GUZMAN;CHACARITA;COMUNA 15
-58.4431410853125;-34.6652895592504;300;SECHI;ESPACIO PUBLICO;GESTION PREVIA HRL;JUL-14;DISPONIBLE;INCLUSION;ACOSTA, MARIANO;0;CORRALES;ACOSTA, MARIANO Y CORRALES;VILLA SOLDATI;COMUNA 8
-58.4625239766791;-34.6359544244191;299;ENTE DE HIGIENE URBANA;ESPACIO PUBLICO;GESTION PREVIA HRL;JUL-14;DISPONIBLE;EDIFICIOS DEL GCABA;VARELA;555;;VARELA AV. 555;FLORES;COMUNA 7
-58.3705064409783;-34.6120207338252;298;ENTE DE TURISMO;ESPACIO PUBLICO;GESTION PREVIA HRL;JUL-14;DISPONIBLE;EDIFICIOS DEL GCABA;BALCARCE;360;;BALCARCE 360;MONSERRAT;COMUNA 1
-58.4419465224494;-34.580057891379;297;CENTRO DE EXPOSICIONES EL DORREGO;ESPACIO PUBLICO;GESTION PREVIA HRL;JUL-14;DISPONIBLE;CENTRO DE EXPOSICIONES Y CULTURALES;DORREGO;0;ZAPIOLA;DORREGO Y ZAPIOLA;PALERMO;COMUNA 14
-58.3901157642737;-34.6043592935059;296;CORRIENTES 1650;AREA CENTRAL;GESTION PREVIA HRL;JUN-14;DISPONIBLE;CORRIENTES;CORRIENTES;1650;;CORRIENTES AV. 1650;SAN NICOLAS;COMUNA 1
-58.3548569013877;-34.6160299195915;294;RESERVA ECOLOGICA COSTANERA SUR (SALON EVENTOS Y OFICINAS);PARQUES Y PLAZAS;GESTION PREVIA HRL;JUL-14;DISPONIBLE;PARQUES Y PLAZAS;ACHAVAL RODRIGUEZ, T., DR. AV.;1402;;ACHAVAL RODRIGUEZ, T., DR. AV. 1402;PUERTO MADERO;COMUNA 1
-58.3871848722785;-34.6041262644881;292;CORRIENTES 1450;AREA CENTRAL;GESTION PREVIA HRL;JUN-14;DISPONIBLE;CORRIENTES;CORRIENTES;1450;;CORRIENTES AV. 1450;SAN NICOLAS;COMUNA 1
-58.3806970261291;-34.605494217604;291;DIRECCION GRAL. DE INFRACCIONES;ESPACIO PUBLICO;GESTION PREVIA HRL;;DISPONIBLE;EDIFICIOS DEL GCABA;CARLOS PELLEGRINI;211;;PELLEGRINI, CARLOS 211;SAN NICOLAS;COMUNA 1
-58.4115964109827;-34.6002795644387;290;CENTRO CULTURAL ALFONSINA STORNI;ESPACIO PUBLICO;GESTION PREVIA HRL;;DISPONIBLE;CENTRO DE EXPOSICIONES Y CULTURALES;TUCUMAN;3233;;TUCUMAN 3233;BALVANERA;COMUNA 3
-58.4172183197889;-34.5918177680513;289;CENTRO CULTURAL TATO BORES;ESPACIO PUBLICO;GESTION PREVIA HRL;;DISPONIBLE;CENTRO DE EXPOSICIONES Y CULTURALES;SOLER;3929;;SOLER 3929;PALERMO;COMUNA 14
-58.4082197456076;-34.6077698204081;286;AGENCIA GUBENAMENTAL DE CONTROL;ESPACIO PUBLICO;GESTION PREVIA HRL;;DISPONIBLE;EDIFICIOS DEL GCABA;PERON, JUAN DOMINGO, TTE. GENERAL;2941;;PERON, JUAN DOMINGO, TTE. GENERAL 2941;BALVANERA;COMUNA 3
-58.3777581653677;-34.6075373695418;285;MINISTERIO DE EDUCACION GCBA;ESPACIO PUBLICO;GESTION PREVIA HRL;;DISPONIBLE;EDIFICIOS DEL GCABA;ESMERALDA;55;;ESMERALDA 55;SAN NICOLAS;COMUNA 1
-58.4361381568079;-34.6384719790709;284;CENTRO CULTURAL PLAZA FLORES;ESPACIO PUBLICO;GESTION PREVIA HRL;;DISPONIBLE;CENTRO DE EXPOSICIONES Y CULTURALES;CACHIMAYO;1675;;CACHIMAYO 1675;PARQUE CHACABUCO;COMUNA 7
-58.3842176489055;-34.6063520688123;283;JOAQUIN V. GONZALEZ;BIBLIOTECA;GESTION PREVIA HRL;;DISPONIBLE;BIBLIOTECA;PERON, JUAN DOMINGO, TTE. GENERAL;1242;;PERON, JUAN DOMINGO, TTE. GENERAL 1242;SAN NICOLAS;COMUNA 1
-58.456448305911;-34.6378141566443;282;MARIANO PELLIZA;BIBLIOTECA;GESTION PREVIA HRL;;DISPONIBLE;BIBLIOTECA;CRANWEL;819;;CRANWELL 819;FLORES;COMUNA 7
-58.4382975013565;-34.6340362105459;279;ESTANISLAO DEL CAMPO;BIBLIOTECA;GESTION PREVIA HRL;;DISPONIBLE;BIBLIOTECA;DE LAS ARTES;1210;;DE LAS ARTES 1210;PARQUE CHACABUCO;COMUNA 7
-58.4538277741592;-34.6442095473877;248;HTAL. PIÑERO;HOSPITALES Y CENTROS DE SALUD;GESTION PREVIA HRL;;DISPONIBLE;HOSPITAL;VARELA;1301;;VARELA AV. 1301;FLORES;COMUNA 7
-58.4397976402116;-34.5989412491147;246;ESTACION MALABIA - OSVALDO PUGLIESE - LINEA B;SUBTE;GESTION PREVIA HRL;;DISPONIBLE;LINEA B;CORRIENTES AV.;0;MALABIA;CORRIENTES AV. Y MALABIA;VILLA CRESPO;COMUNA 15
-58.420961056652;-34.6031660406215;240;ESTACION MEDRANO - LINEA B;SUBTE;GESTION PREVIA HRL;;DISPONIBLE;LINEA B;CORRIENTES AV.;0;MEDRANO;CORRIENTES AV. Y MEDRANO AV.;ALMAGRO;COMUNA 5
-58.3923146942135;-34.6044198698324;239;ESTACION CALLAO - LINEA B;SUBTE;GESTION PREVIA HRL;;DISPONIBLE;LINEA B;CORRIENTES AV.;0;CALLAO;CORRIENTES AV. Y CALLAO AV.;SAN NICOLAS;COMUNA 1
-58.3872962517645;-34.6040936483628;236;ESTACION URUGUAY - LINEA B;SUBTE;GESTION PREVIA HRL;;DISPONIBLE;LINEA B;CORRIENTES AV.;0;URUGUAY;CORRIENTES AV. Y URUGUAY;SAN NICOLAS;COMUNA 1
-58.4433986756609;-34.6340647280761;234;CENTRO CULTURAL ADAN BUENOSAYRES;ESPACIO PUBLICO;GESTION PREVIA HRL;;DISPONIBLE;CENTRO DE EXPOSICIONES Y CULTURALES;ASAMBLEA;1200;;ASAMBLEA AV. 1200;PARQUE CHACABUCO;COMUNA 7
-58.4060795600347;-34.6371958769812;228;ESTACION PARQUE PATRICIOS - LINEA H;SUBTE;GESTION PREVIA HRL;;DISPONIBLE;LINEA H;CASEROS AV.;0;LA RIOJA;CASEROS AV. Y LA RIOJA;PARQUE PATRICIOS;COMUNA 4
-58.3887117031641;-34.6042484290622;226;CORRIENTES 1550;AREA CENTRAL;GESTION PREVIA HRL;JUN-14;DISPONIBLE;CORRIENTES;CORRIENTES;1550;;CORRIENTES AV. 1550;SAN NICOLAS;COMUNA 1
-58.3880545662544;-34.6148582303323;224;ALFONSINA STORNI Y MARTIN DEL BARCO CENTENERA;BIBLIOTECA;GESTION PREVIA HRL;5TA. ETAPA / NOVIEMBRE 2012 (BIBLIOTECAS PUBLICAS);DISPONIBLE;BIBLIOTECA;REPUBLICA BOLIVARIANA DE VENEZUELA;1538;;REPUBLICA BOLIVARIANA DE VENEZUELA 1538;MONSERRAT;COMUNA 1
-58.4114191098301;-34.5691150394096;222;PLAZA GOULD - PLANETARIO;PARQUES Y PLAZAS;GESTION PREVIA HRL;;DISPONIBLE;PARQUES Y PLAZAS;AV. SARMIENTO;0;FIGUEROA ALCORTA;SARMIENTO AV. Y FIGUEROA ALCORTA, PRES. AV.;PALERMO;COMUNA 14
-58.3568738498806;-34.6286775379831;215;USINA DEL ARTE;ESPACIO PUBLICO;GESTION PREVIA HRL;;DISPONIBLE;CENTRO DE EXPOSICIONES Y CULTURALES;DON PEDRO DE MENDOZA AV.;501;;DON PEDRO DE MENDOZA AV. 501;BOCA;COMUNA 4
-58.3741886796675;-34.5927778768163;213;TORRE MONUMENTAL;ESPACIO PUBLICO;GESTION PREVIA HRL;;DISPONIBLE;MUSEOS;DEL LIBERTADOR AV.;49;;DEL LIBERTADOR AV. 49;RETIRO;COMUNA 1
-58.3886178630316;-34.6043767825154;212;TEATRO SAN MARTIN;ESPACIO PUBLICO;GESTION PREVIA HRL;;DISPONIBLE;TEATRO;CORRIENTES AV.;1530;;CORRIENTES AV. 1530;SAN NICOLAS;COMUNA 1
-58.4848591212175;-34.6457329604874;211;SUBSEDE COMUNAL 9;SEDE COMUNAL;GESTION PREVIA HRL;;DISPONIBLE;SUBEDE COMUNAL;DIRECTORIO AV.;4344;;DIRECTORIO AV. 4344;PARQUE AVELLANEDA;COMUNA 9
-58.4410671831614;-34.6321643684323;210;SUBSEDE COMUNAL 6;SEDE COMUNAL;GESTION PREVIA HRL;;DISPONIBLE;SUBEDE COMUNAL;MITRE, EMILIO;954;;MITRE, EMILIO 954;PARQUE CHACABUCO;COMUNA 7
-58.4103509605161;-34.6381304682077;209;SUBSEDE COMUNAL 5;SEDE COMUNAL;GESTION PREVIA HRL;;DISPONIBLE;SUBEDE COMUNAL;CASEROS AV.;3250;;CASEROS AV. 3250;PARQUE PATRICIOS;COMUNA 4
-58.4980980687797;-34.6014064306566;208;SUBSEDE COMUNAL 11;SEDE COMUNAL;GESTION PREVIA HRL;;DISPONIBLE;SUBEDE COMUNAL;GUTIERREZ, RICARDO;3253;;GUTIERREZ, RICARDO 3253;VILLA DEL PARQUE;COMUNA 11
-58.5049435876355;-34.6595468354037;207;SEDE DE COMUNA 9;SEDE COMUNAL;GESTION PREVIA HRL;4TA. ETAPA / SEPTIEMBRE 2012 (SEDES COMUNALES);DISPONIBLE;SEDE COMUNAL;GORDILLO, TIMOTEO;2212;;GORDILLO, TIMOTEO 2212;MATADEROS;COMUNA 9
-58.455093197257;-34.6849235949623;206;SEDE DE COMUNA 8;SEDE COMUNAL;GESTION PREVIA HRL;4TA. ETAPA / SEPTIEMBRE 2012 (SEDES COMUNALES);DISPONIBLE;SEDE COMUNAL;ROCA, CNEL. AV.;5252;;ROCA, CNEL. AV. 5252;VILLA RIACHUELO;COMUNA 8
-58.4312329362698;-34.6089557385182;204;SEDE DE COMUNA 6;SEDE COMUNAL;GESTION PREVIA HRL;4TA. ETAPA / SEPTIEMBRE 2012 (SEDES COMUNALES);DISPONIBLE;SEDE COMUNAL;DIAZ VELEZ AV.;4558;;DIAZ VELEZ AV. 4558;CABALLITO;COMUNA 6
-58.3939157470549;-34.6237712348651;203;SEDE DE COMUNA 5;SEDE COMUNAL;GESTION PREVIA HRL;4TA. ETAPA / SEPTIEMBRE 2012 (SEDES COMUNALES);DISPONIBLE;SEDE COMUNAL;SARANDI;1273;;SARANDI 1273;SAN CRISTOBAL;COMUNA 3
-58.3922508692999;-34.6284011836441;202;POLO CIRCO;ESPACIO PUBLICO;GESTION PREVIA HRL;;DISPONIBLE;CENTRO DE EXPOSICIONES Y CULTURALES;COMBATE DE LOS POZOS;1700;AV. JUAN DE GARAY;COMBATE DE LOS POZOS 1700;PARQUE PATRICIOS;COMUNA 4
-58.4247170117109;-34.6502263309906;201;SEDE DE COMUNA 4;SEDE COMUNAL;GESTION PREVIA HRL;4TA. ETAPA / SEPTIEMBRE 2012 (SEDES COMUNALES);DISPONIBLE;SEDE COMUNAL;CALDERON DE LA BARCA, PEDRO;2906;;BARCO CENTENERA DEL 2906;VILLA DEVOTO;COMUNA 11
-58.3966816232213;-34.6030254923214;200;SEDE DE COMUNA 3;SEDE COMUNAL;GESTION PREVIA HRL;4TA. ETAPA / SEPTIEMBRE 2012 (SEDES COMUNALES);DISPONIBLE;SEDE COMUNAL;JUNIN;521;;JUNIN 521;BALVANERA;COMUNA 3
-58.3936249720034;-34.5889216086894;199;SUBSEDE COMUNAL 2;SEDE COMUNAL;GESTION PREVIA HRL;4TA. ETAPA / SEPTIEMBRE 2012 (SEDES COMUNALES);DISPONIBLE;SUBEDE COMUNAL;VICENTE LOPEZ;2050;;LOPEZ, VICENTE 2050;RECOLETA;COMUNA 2
-58.3990151523522;-34.5967187592215;197;SEDE DE COMUNA 2;SEDE COMUNAL;GESTION PREVIA HRL;4TA. ETAPA / SEPTIEMBRE 2012 (SEDES COMUNALES);DISPONIBLE;SEDE COMUNAL;URIBURU JOSE E., PRES.;1022;;URIBURU JOSE E., PRES. 1022;RECOLETA;COMUNA 2
-58.4414454403581;-34.5870408901359;196;SEDE DE COMUNA 15;SEDE COMUNAL;GESTION PREVIA HRL;4TA. ETAPA / SEPTIEMBRE 2012 (SEDES COMUNALES);DISPONIBLE;SEDE COMUNAL;CORDOBA AV.;5690;;CORDOBA AV. 5690;CHACARITA;COMUNA 15
-58.4090752291575;-34.5871946684559;195;SEDE DE COMUNA 14;SEDE COMUNAL;GESTION PREVIA HRL;4TA. ETAPA / SEPTIEMBRE 2012 (SEDES COMUNALES);DISPONIBLE;SEDE COMUNAL;BERUTI;3325;;BERUTI 3325;PALERMO;COMUNA 14
-58.4639856684465;-34.5536943583089;192;SEDE DE COMUNA 13;SEDE COMUNAL;GESTION PREVIA HRL;4TA. ETAPA / SEPTIEMBRE 2012 (SEDES COMUNALES);DISPONIBLE;SEDE COMUNAL;CABILDO AV.;3067;;CABILDO AV. 3067;NUÑEZ;COMUNA 13
-58.4827880530232;-34.5686236694961;191;SEDE DE COMUNA 12;SEDE COMUNAL;GESTION PREVIA HRL;4TA. ETAPA / SEPTIEMBRE 2012 (SEDES COMUNALES);DISPONIBLE;SEDE COMUNAL;MILLER;2751;;MILLER 2751;VILLA URQUIZA;COMUNA 12
-58.516082742722;-34.6082133321452;188;SEDE DE COMUNA 11;SEDE COMUNAL;GESTION PREVIA HRL;4TA. ETAPA / SEPTIEMBRE 2012 (SEDES COMUNALES);DISPONIBLE;SEDE COMUNAL;BEIRO, FRANCISCO AV.;4629;;BEIRO, FRANCISCO AV. 4629;VILLA DEVOTO;COMUNA 11
-58.483288168496;-34.6318212184487;187;SEDE DE COMUNA 10;SEDE COMUNAL;GESTION PREVIA HRL;4TA. ETAPA / SEPTIEMBRE 2012 (SEDES COMUNALES);DISPONIBLE;SEDE COMUNAL;BACACAY;3952;;BACACAY 3952;FLORESTA;COMUNA 10
-58.3870218543798;-34.600087448613;186;SEDE DE COMUNA 1;SEDE COMUNAL;GESTION PREVIA HRL;4TA. ETAPA / SEPTIEMBRE 2012 (SEDES COMUNALES);DISPONIBLE;SEDE COMUNAL;URUGUAY AV.;740;;URUGUAY AV. 740;SAN NICOLAS;COMUNA 1
-58.4486314420913;-34.5612503363944;185;REINA BATATA (INFANTIL);BIBLIOTECA;GESTION PREVIA HRL;5TA. ETAPA / NOVIEMBRE 2012 (BIBLIOTECAS PUBLICAS);DISPONIBLE;BIBLIOTECA;LA PAMPA;0;11 DE SEPTIEMBRE DE 1888;LA PAMPA Y 11 DE SEPTIEMBRE DE 1888;BELGRANO;COMUNA 13
-58.3934316670673;-34.5848979513757;184;PZA. ALVEAR / PZA. FRANCIA;PARQUES Y PLAZAS;GESTION PREVIA HRL;1RA. ETAPA / DISPONIBLE;DISPONIBLE;PARQUES Y PLAZAS;DEL LIBERTADOR AV.;0;PUEYRREDON AV.;DEL LIBERTADOR AV. Y PUEYRREDON AV.;RECOLETA;COMUNA 2
-58.4551593478384;-34.6559969530935;183;PORTAL INCLUSIVO BARRIO RAMON CARRILLO;ESPACIO PUBLICO;GESTION PREVIA HRL;;DISPONIBLE;INCLUSION;ACOSTA, MARIANO;0;PASAJE K;ACOSTA, MARIANO Y PASAJE K;VILLA SOLDATI;COMUNA 8
-58.3761724022273;-34.6524242517934;182;CENTRO DE PRIMERA INFANCIA PULGARCITO;ESPACIO PUBLICO;GESTION PREVIA HRL;JUL-14;DISPONIBLE;INCLUSION;OSVALDO CRUZ;2101;;CRUZ, OSVALDO AV. 2101;BARRACAS;COMUNA 4
-58.4116997670265;-34.5696999980328;178;PLANETARIO;ESPACIO PUBLICO;GESTION PREVIA HRL;;DISPONIBLE;CENTRO DE EXPOSICIONES Y CULTURALES;SARMIENTO AV.;0;ROLDAN, BELISARIO AV.;SARMIENTO AV. Y ROLDAN, BELISARIO AV.;PALERMO;COMUNA 14
-58.3917027809039;-34.5878084532115;177;PLAZOLETA JUAN XXIII;PARQUES Y PLAZAS;GESTION PREVIA HRL;;DISPONIBLE;PARQUES Y PLAZAS;ORTIZ, ROBERTO M., PRES.;0;QUINTANA, MANUEL, PRES. AV.;ORTIZ, ROBERTO M., PRES. Y QUINTANA, MANUEL, PRES. AV.;RECOLETA;COMUNA 2
-58.3827005890398;-34.6006237268021;176;PLAZA VATICANO;PARQUES Y PLAZAS;GESTION PREVIA HRL;;DISPONIBLE;PARQUES Y PLAZAS;VIAMONTE;0;CERRITO;VIAMONTE Y CERRITO;SAN NICOLAS;COMUNA 1
-58.3755546858542;-34.5945230004446;175;PLAZA SAN MARTIN;PARQUES Y PLAZAS;GESTION PREVIA HRL;;DISPONIBLE;PARQUES Y PLAZAS;SUIPACHA;1300;;SUIPACHA 1300;RETIRO;COMUNA 1
-58.3845916538931;-34.6009632750952;173;PLAZA LAVALLE;PARQUES Y PLAZAS;GESTION PREVIA HRL;1RA. ETAPA / DISPONIBLE;DISPONIBLE;PARQUES Y PLAZAS;TUCUMAN;0;TALCAHUANO;TUCUMAN Y TALCAHUANO;SAN NICOLAS;COMUNA 1
-58.4578191782196;-34.6146891377429;172;PLAZA IRLANDA;PARQUES Y PLAZAS;GESTION PREVIA HRL;2DA. ETAPA / JULIO 2012;DISPONIBLE;PARQUES Y PLAZAS;GAONA AV.;0;ALVAREZ, DONATO, TTE. GRAL.;GAONA AV. Y ALVAREZ, DONATO, TTE. GRAL.;CABALLITO;COMUNA 6
-58.3981426030067;-34.599140621116;170;PLAZA HOUSSAY;PARQUES Y PLAZAS;GESTION PREVIA HRL;;DISPONIBLE;PARQUES Y PLAZAS;CORDOBA AV.;2100;;CORDOBA AV. 2100;BALVANERA;COMUNA 3
-58.4548225713544;-34.5616662614927;169;PLAZA GRAL. MANUEL BELGRANO;PARQUES Y PLAZAS;GESTION PREVIA HRL;3RA. ETAPA / AGOSTO 2012;DISPONIBLE;PARQUES Y PLAZAS;VUELTA DE OBLIGADO;0;JURAMENTO AV.;VUELTA DE OBLIGADO Y JURAMENTO AV.;BELGRANO;COMUNA 13
-58.5078090359757;-34.6258021242455;167;PLAZA DON BOSCO;PARQUES Y PLAZAS;GESTION PREVIA HRL;2DA. ETAPA / JULIO 2012;DISPONIBLE;PARQUES Y PLAZAS;CALDERON DE LA BARCA, PEDRO;1500;;CALDERON DE LA BARCA, PEDRO 1500;MONTE CASTRO;COMUNA 10
-58.3816295807524;-34.6033146431118;163;PLAZA DE LA REPUBLICA;PARQUES Y PLAZAS;PRIMERA ETAPA HRL;JUL-16;DISPONIBLE;PARQUES Y PLAZAS;CORRIENTES AV.;0;9 DE JULIO AV.;CORRIENTES AV. Y 9 DE JULIO AV.;SAN NICOLAS;COMUNA 1
-58.5122468954911;-34.5993846139389;160;PLAZA ARENALES (PZA. DEVOTO);PARQUES Y PLAZAS;GESTION PREVIA HRL;2DA. ETAPA / JULIO 2012;DISPONIBLE;PARQUES Y PLAZAS;MERCEDES;0;PAREJA;MERCEDES Y PAREJA;VILLA DEVOTO;COMUNA 11
-58.3806496804856;-34.6054758733795;158;EDIFICIO DEL PLATA;ESPACIO PUBLICO;GESTION PREVIA HRL;1RA. ETAPA / DISPONIBLE;DISPONIBLE;EDIFICIOS DEL GCABA;PELLEGRINI, CARLOS;200;;PELLEGRINI, CARLOS 200;SAN NICOLAS;COMUNA 1
-58.3745760174691;-34.6084004956973;157;PATIO DE LA CULTURA;ESPACIO PUBLICO;GESTION PREVIA HRL;;DISPONIBLE;EDIFICIOS DEL GCABA;DE MAYO AV.;575;;DE MAYO AV. 575;MONSERRAT;COMUNA 1
-58.429219026885;-34.6152573675007;156;PASEO DE LA VICTORIA;ESPACIO PUBLICO;GESTION PREVIA HRL;;DISPONIBLE;PARQUES Y PLAZAS;LA PLATA AV.;0;YRIGOYEN, HIPOLITO AV.;LA PLATA AV. Y YRIGOYEN, HIPOLITO AV.;CABALLITO;COMUNA 6
-58.3937819801425;-34.5890715496828;153;PASEO DE LA RECOLETA;PARQUES Y PLAZAS;GESTION PREVIA HRL;3RA. ETAPA / AGOSTO 2012;DISPONIBLE;PARQUES Y PLAZAS;JUNIN;0;LOPEZ, VICENTE;JUNIN Y LOPEZ, VICENTE;RECOLETA;COMUNA 2
-58.4997723194923;-34.5573636158096;149;PARQUE SARMIENTO;PARQUES Y PLAZAS;GESTION PREVIA HRL;1RA. ETAPA / DISPONIBLE;DISPONIBLE;PARQUES Y PLAZAS;BALBIN, RICARDO, DR. AV.;4750;;BALBIN, RICARDO, DR. AV. 4750;SAAVEDRA;COMUNA 12
-58.5140684161612;-34.64782921422;148;PARQUE SANTOJANNI;PARQUES Y PLAZAS;GESTION PREVIA HRL;2DA. ETAPA / JULIO 2012;DISPONIBLE;PARQUES Y PLAZAS;LEGUIZAMON, MARTINIANO;0;PATRON;LEGUIZAMON, MARTINIANO Y PATRON;LINIERS;COMUNA 9
-58.4413459514516;-34.674653689653;145;PARQUE ROCA;PARQUES Y PLAZAS;GESTION PREVIA HRL;3RA. ETAPA / AGOSTO 2012;DISPONIBLE;PARQUES Y PLAZAS;ROCA, CNEL. AV.;3400;;ROCA, CNEL. AV. 3400;VILLA SOLDATI;COMUNA 8
-58.4067585768478;-34.63861027923;144;PARQUE PATRICIOS;PARQUES Y PLAZAS;GESTION PREVIA HRL;3RA. ETAPA / AGOSTO 2012;DISPONIBLE;PARQUES Y PLAZAS;USPALLATA;0;MONTEAGUDO;USPALLATA Y MONTEAGUDO;PARQUE PATRICIOS;COMUNA 4
-58.3920022966057;-34.5828076747071;143;FACULTAD DE DERECHO;ESPACIO PUBLICO;GESTION PREVIA HRL;;DISPONIBLE;OTROS ESTABLECIMIENTOS;ALCORTA;0;PUEYRREDON AV.;FIGUEROA ALCORTA, PRES. AV. Y PUEYRREDON AV.;RECOLETA;COMUNA 2
-58.450454777315;-34.5898896102022;142;PARQUE LOS ANDES;PARQUES Y PLAZAS;GESTION PREVIA HRL;1RA. ETAPA / DISPONIBLE;DISPONIBLE;PARQUES Y PLAZAS;CORRIENTES AV.;0;ARENAL, CONCEPCION;CORRIENTES AV. Y ARENAL, CONCEPCION;CHACARITA;COMUNA 15
-58.4591109950493;-34.6652987965427;140;PARQUE INDOAMERICANO;PARQUES Y PLAZAS;GESTION PREVIA HRL;1RA. ETAPA / DISPONIBLE;DISPONIBLE;PARQUES Y PLAZAS;ESCALADA AV.;0;CASTAÑARES AV.;ESCALADA AV. Y CASTAÑARES AV.;VILLA SOLDATI;COMUNA 8
-58.3854147571991;-34.6338288332998;139;PARQUE ESPAÑA;PARQUES Y PLAZAS;GESTION PREVIA HRL;3RA. ETAPA / AGOSTO 2012;DISPONIBLE;PARQUES Y PLAZAS;ALCORTA, AMANCIO AV.;0;BAIGORRI;ALCORTA, AMANCIO AV. Y BAIGORRI;BARRACAS;COMUNA 4
-58.4577579497587;-34.5284958723103;138;PARQUE DE LOS NIÑOS;PARQUES Y PLAZAS;GESTION PREVIA HRL;3RA. ETAPA / AGOSTO 2012;DISPONIBLE;PARQUES Y PLAZAS;PAZ, GRAL. AV.;0;CANTILO, INT.;PAZ, GRAL. AV. Y CANTILO, INT.;NUÑEZ;COMUNA 13
-58.4585264176268;-34.6793026146634;136;PARQUE DE LAS VICTORIAS;PARQUES Y PLAZAS;GESTION PREVIA HRL;3RA. ETAPA / AGOSTO 2012;DISPONIBLE;PARQUES Y PLAZAS;ROCA, CNEL. AV.;0;LARRAZABAL AV.;ROCA, CNEL. AV. Y LARRAZABAL AV.;VILLA LUGANO;COMUNA 8
-58.4382144015995;-34.5410387601409;135;PARQUE DE LA MEMORIA;PARQUES Y PLAZAS;GESTION PREVIA HRL;1RA. ETAPA / DISPONIBLE;DISPONIBLE;PARQUES Y PLAZAS;OBLIGADO RAFAEL, AV.COSTANERA;5700;;OBLIGADO RAFAEL, AV.COSTANERA 5700;PALERMO;COMUNA 14
-58.4510940952315;-34.6717343086363;133;PARQUE DE LA CIUDAD;PARQUES Y PLAZAS;GESTION PREVIA HRL;2DA. ETAPA / JULIO 2012;DISPONIBLE;PARQUES Y PLAZAS;FERNANDEZ DE LA CRUZ, F., GRAL. AV.;0;ESCALADA AV.;FERNANDEZ DE LA CRUZ, F., GRAL. AV. Y ESCALADA AV.;VILLA SOLDATI;COMUNA 8
-58.4422012066418;-34.6347811925796;131;PARQUE CHACABUCO - EXTENSION;PARQUES Y PLAZAS;GESTION PREVIA HRL;3RA. ETAPA / AGOSTO 2012;DISPONIBLE;PARQUES Y PLAZAS;ASAMBLEA AV.;0;CURAPALIGUE AV.;ASAMBLEA AV. Y CURAPALIGUE AV.;PARQUE CHACABUCO;COMUNA 7
-58.4429484187357;-34.634943956263;130;PARQUE CHACABUCO;PARQUES Y PLAZAS;GESTION PREVIA HRL;1RA. ETAPA / DISPONIBLE;DISPONIBLE;PARQUES Y PLAZAS;PERON, EVA AV.;0;CURAPALIGUE;PERON, EVA AV. Y CURAPALIGUE;PARQUE CHACABUCO;COMUNA 7
-58.4375498244725;-34.6070592787277;129;PARQUE CENTENARIO - EXTENSION;PARQUES Y PLAZAS;GESTION PREVIA HRL;;DISPONIBLE;PARQUES Y PLAZAS;DIAZ VELEZ AV.;0;LOBOS, ELEODORO, DR.;DIAZ VELEZ AV. Y LOBOS, ELEODORO, DR.;CABALLITO;COMUNA 6
-58.4357032105035;-34.6065385142438;128;PARQUE CENTENARIO;PARQUES Y PLAZAS;GESTION PREVIA HRL;1RA. ETAPA / DISPONIBLE;DISPONIBLE;PARQUES Y PLAZAS;DIAZ VELEZ AV.;0;LOBOS, ELEODORO, DR.;DIAZ VELEZ AV. Y LOBOS, ELEODORO, DR.;CABALLITO;COMUNA 6
-58.4791780437484;-34.6451854780061;127;PARQUE AVELLANEDA;PARQUES Y PLAZAS;GESTION PREVIA HRL;3RA. ETAPA / AGOSTO 2012;DISPONIBLE;PARQUES Y PLAZAS;DIRECTORIO AV.;0;LACARRA;DIRECTORIO AV. Y LACARRA;PARQUE AVELLANEDA;COMUNA 9
-58.421432051906;-34.5705766106117;125;MUSEO SIVORI;MUSEOS;GESTION PREVIA HRL;;DISPONIBLE;MUSEOS;ISABEL, INFANTA AV.;555;;ISABEL, INFANTA AV. 555;PALERMO;COMUNA 14
-58.4525188846842;-34.6177388141442;124;MUSEO LUIS PERLOTTI;MUSEOS;GESTION PREVIA HRL;;DISPONIBLE;MUSEOS;PUJOL;642;;PUJOL 642;CABALLITO;COMUNA 6
-58.4556919522339;-34.5612675974179;123;MUSEO LARRETA;MUSEOS;GESTION PREVIA HRL;;DISPONIBLE;MUSEOS;JURAMENTO AV.;2291;;JURAMENTO AV. 2291;BELGRANO;COMUNA 13
-58.4049701604744;-34.5796091968091;122;MUSEO JOSE HERNANDEZ;MUSEOS;GESTION PREVIA HRL;;DISPONIBLE;MUSEOS;DEL LIBERTADOR AV.;2373;;DEL LIBERTADOR AV. 2373;PALERMO;COMUNA 14
-58.3802370529598;-34.5910625898017;121;MUSEO FERNANDEZ BLANCO;MUSEOS;GESTION PREVIA HRL;;DISPONIBLE;MUSEOS;SUIPACHA;1422;;SUIPACHA 1422;RETIRO;COMUNA 1
-58.3570953812576;-34.6294879750609;119;MUSEO DEL CINE;MUSEOS;GESTION PREVIA HRL;;DISPONIBLE;MUSEOS;CAFFARENA, AGUSTIN R.;49;;CAFFARENA, AGUSTIN R. 49;BOCA;COMUNA 4
-58.3722231289722;-34.6104476482742;117;MUSEO DE LA CIUDAD;MUSEOS;GESTION PREVIA HRL;;DISPONIBLE;MUSEOS;DEFENSA;219;;DEFENSA 219;MONSERRAT;COMUNA 1
-58.3705271174278;-34.6219734371874;116;MUSEO DE ARTE MODERNO (MAMBA);MUSEOS;GESTION PREVIA HRL;;DISPONIBLE;MUSEOS;SAN JUAN AV.;350;;SAN JUAN AV. 350;SAN TELMO;COMUNA 1
-58.4077622868369;-34.6016784123375;115;MUSEO CARLOS GARDEL;MUSEOS;GESTION PREVIA HRL;;DISPONIBLE;MUSEOS;JAURES, JEAN;735;;JAURES, JEAN 735;BALVANERA;COMUNA 3
-58.5264579247518;-34.6348297946947;114;MIGUEL CANE;BIBLIOTECA;GESTION PREVIA HRL;;DISPONIBLE;BIBLIOTECA;JUSTO, JUAN B. AV.;9668;;JUSTO, JUAN B. AV. 9668;LINIERS;COMUNA 9
-58.3890008786666;-34.5995792789846;113;MANUEL GALVEZ;BIBLIOTECA;GESTION PREVIA HRL;5TA. ETAPA / NOVIEMBRE 2012 (BIBLIOTECAS PUBLICAS);DISPONIBLE;BIBLIOTECA;CORDOBA AV.;1558;;CORDOBA AV. 1558;SAN NICOLAS;COMUNA 1
-58.4525973819311;-34.5636772401267;112;LEOPOLDO LUGONES;BIBLIOTECA;GESTION PREVIA HRL;5TA. ETAPA / NOVIEMBRE 2012 (BIBLIOTECAS PUBLICAS);DISPONIBLE;BIBLIOTECA;LA PAMPA;2215;;LA PAMPA 2215;BELGRANO;COMUNA 13
-58.4299312778028;-34.5978075534664;111;JULIO CORTAZAR;BIBLIOTECA;GESTION PREVIA HRL;5TA. ETAPA / NOVIEMBRE 2012 (BIBLIOTECAS PUBLICAS);DISPONIBLE;BIBLIOTECA;LAVALLEJA;924;;LAVALLEJA 924;VILLA CRESPO;COMUNA 15
-58.4743663619951;-34.6651895954544;110;JULIO CESAR SAGUIER;BIBLIOTECA;GESTION PREVIA HRL;5TA. ETAPA / NOVIEMBRE 2012 (BIBLIOTECAS PUBLICAS);DISPONIBLE;BIBLIOTECA;ESCALADA AV.;0;DELLEPIANE, LUIS, TTE. GRAL.;ESCALADA AV. Y DELLEPIANE, LUIS, TTE. GRAL.;VILLA LUGANO;COMUNA 8
-58.4618197843991;-34.5648527685518;109;JOSE MARMOL;BIBLIOTECA;GESTION PREVIA HRL;5TA. ETAPA / NOVIEMBRE 2012 (BIBLIOTECAS PUBLICAS);DISPONIBLE;BIBLIOTECA;JURAMENTO;2937;;JURAMENTO 2937;BELGRANO;COMUNA 13
-58.4290247865609;-34.6594926116402;108;CENTRO CULTURAL ELADIA BLAZQUEZ;ESPACIO PUBLICO;GESTION PREVIA HRL;;DISPONIBLE;CENTRO DE EXPOSICIONES Y CULTURALES;RABANAL;2275;;RABANAL, FRANCISCO, INTENDENTE AV. 2275;VILLA SOLDATI;COMUNA 8
-58.4910133329428;-34.5505371979479;106;PARQUE DEL PRECINTO 12 (PLAZA HUNGRIA);ESPACIO PUBLICO;GESTION PREVIA HRL;ABR-14;DISPONIBLE;PARQUES Y PLAZAS;GOYENECHE;0;RAMALLO;GOYENECHE, ROBERTO PARQUE AV. Y RAMALLO;SAAVEDRA;COMUNA 12
-58.3601267430462;-34.6388929303699;105;HTAL. QUINQUELA MARTIN;HOSPITALES Y CENTROS DE SALUD;GESTION PREVIA HRL;;DISPONIBLE;HOSPITAL;DON PEDRO DE MENDOZA AV.;1795;;DON PEDRO DE MENDOZA AV. 1795;BOCA;COMUNA 4
-58.375845218526;-34.630212291207;102;HTAL. MARIA FERRER;HOSPITALES Y CENTROS DE SALUD;GESTION PREVIA HRL;;DISPONIBLE;HOSPITAL;FINOCHIETTO ENRIQUE DR.;849;;FINOCHIETTO ENRIQUE DR. 849;BARRACAS;COMUNA 4
-58.4331500579085;-34.6071615843299;101;HTAL. MARIA CURIE;HOSPITALES Y CENTROS DE SALUD;GESTION PREVIA HRL;;DISPONIBLE;HOSPITAL;CANGALLO;0;PATRICIAS ARGENTINAS AV.;CANGALLO Y PATRICIAS ARGENTINAS AV.;CABALLITO;COMUNA 6
-58.381255566549;-34.6099440878641;98;ESTACION YRIGOYEN;METROBUS;GESTION PREVIA HRL;;DISPONIBLE;9 DE JULIO;9 DE JULIO AV.;0;YRIGOYEN, HIPOLITO;9 DE JULIO AV. Y YRIGOYEN, HIPOLITO;MONSERRAT;COMUNA 1
-58.381030356945;-34.6145006069406;97;ESTACION VENEZUELA;METROBUS;GESTION PREVIA HRL;;DISPONIBLE;9 DE JULIO;9 DE JULIO AV.;0;REPUBLICA BOLIVARIANA DE VENEZUELA;9 DE JULIO AV. Y  REPUBLICA BOLIVARIANA DE VENEZUELA;MONSERRAT;COMUNA 1
-58.3818123103929;-34.6005804300295;96;ESTACION TEATRO COLON;METROBUS;GESTION PREVIA HRL;;DISPONIBLE;9 DE JULIO;9 DE JULIO AV.;0;VIAMONTE;9 DE JULIO AV. Y VIAMONTE;SAN NICOLAS;COMUNA 1
-58.3821303401802;-34.595845005054;95;ESTACION SANTA FE;METROBUS;GESTION PREVIA HRL;;DISPONIBLE;9 DE JULIO;9 DE JULIO AV.;0;SANTA FE AV.;9 DE JULIO AV. Y SANTA FE AV.;RETIRO;COMUNA 1
-58.5156373291473;-34.6491866976531;94;HTAL. SANTOJANNI;HOSPITALES Y CENTROS DE SALUD;GESTION PREVIA HRL;;DISPONIBLE;HOSPITAL;PILAR;950;;PILAR 950;LINIERS;COMUNA 9
-58.3818950222302;-34.5982531573038;93;ESTACION PARAGUAY;METROBUS;GESTION PREVIA HRL;;DISPONIBLE;9 DE JULIO;9 DE JULIO AV.;0;PARAGUAY;9 DE JULIO AV. Y PARAGUAY;RETIRO;COMUNA 1
-58.3815394202477;-34.6053778858849;92;ESTACION OBELISCO SUR;METROBUS;GESTION PREVIA HRL;;DISPONIBLE;9 DE JULIO;9 DE JULIO AV.;0;SARMIENTO;9 DE JULIO AV. Y SARMIENTO;SAN NICOLAS;COMUNA 1
-58.3817535578343;-34.6017254419825;91;ESTACION OBELISCO NORTE;METROBUS;GESTION PREVIA HRL;;DISPONIBLE;9 DE JULIO;9 DE JULIO AV.;0;TUCUMAN;9 DE JULIO AV. Y TUCUMAN;SAN NICOLAS;COMUNA 1
-58.3813918661666;-34.6075846089842;90;ESTACION MITRE;METROBUS;GESTION PREVIA HRL;;DISPONIBLE;9 DE JULIO;9 DE JULIO AV.;0;MITRE, BARTOLOME;9 DE JULIO AV. Y MITRE, BARTOLOME;SAN NICOLAS;COMUNA 1
-58.3809905284027;-34.6155097729598;89;ESTACION MEXICO;METROBUS;GESTION PREVIA HRL;;DISPONIBLE;9 DE JULIO;9 DE JULIO AV.;0;MEXICO;9 DE JULIO AV. Y MEXICO;MONSERRAT;COMUNA 1
-58.3820015194344;-34.5971201763966;88;ESTACION MARCELO T. DE ALVEAR;METROBUS;GESTION PREVIA HRL;;DISPONIBLE;9 DE JULIO;9 DE JULIO AV.;0;ALVEAR, MARCELO T. DE;9 DE JULIO AV. Y ALVEAR, MARCELO T. DE;RETIRO;COMUNA 1
-58.4863853484926;-34.5743189142063;83;ESTACION JUAN MANUEL DE ROSAS - LINEA B;SUBTE;GESTION PREVIA HRL;;DISPONIBLE;LINEA B;TRIUNVIRATO AV.;0;MONROE;TRIUNVIRATO AV. Y MONROE;VILLA URQUIZA;COMUNA 12
-58.3814587397799;-34.6064568154422;82;ESTACION JUAN D. PERON;METROBUS;GESTION PREVIA HRL;;DISPONIBLE;9 DE JULIO;9 DE JULIO AV.;0;PERON, JUAN DOMINGO, TTE. GENERAL;9 DE JULIO AV. Y PERON, JUAN DOMINGO, TTE. GENERAL;SAN NICOLAS;COMUNA 1
-58.444300153847;-34.5947640307614;81;ESTACION AV. CORRIENTES;METROBUS;SEGUNDA ETAPA HRL;2015;DISPONIBLE;JUAN B. JUSTO;CORRIENTES AV.;0;JUSTO, JUAN B. AV.;CORRIENTES AV. Y JUSTO, JUAN B. AV.;VILLA CRESPO;COMUNA 15
-58.3808827691278;-34.6178904773706;80;ESTACION INDEPENDENCIA;METROBUS;GESTION PREVIA HRL;;DISPONIBLE;9 DE JULIO;9 DE JULIO AV.;0;INDEPENDENCIA AV.;9 DE JULIO AV. E INDEPENDENCIA AV.;MONSERRAT;COMUNA 1
-58.4810135041216;-34.5777973778049;76;ESTACION ESTEBAN ECHEVERRIA - LINEA B;SUBTE;GESTION PREVIA HRL;;DISPONIBLE;LINEA B;TRIUNVIRATO AV.;0;JURAMENTO;TRIUNVIRATO AV. Y JURAMENTO;VILLA URQUIZA;COMUNA 12
-58.3808540572395;-34.6188767140538;75;ESTACION ESTADOS UNIDOS;METROBUS;GESTION PREVIA HRL;;DISPONIBLE;9 DE JULIO;9 DE JULIO AV.;0;ESTADOS UNIDOS;9 DE JULIO AV. Y ESTADOS UNIDOS;CONSTITUCION;COMUNA 1
-58.3818550522952;-34.5994274672618;74;ESTACION CORDOBA;METROBUS;GESTION PREVIA HRL;;DISPONIBLE;9 DE JULIO;9 DE JULIO AV.;0;CORDOBA AV.;9 DE JULIO AV. Y CORDOBA AV.;RETIRO;COMUNA 1
-58.3809449927938;-34.6166794883139;73;ESTACION CHILE;METROBUS;GESTION PREVIA HRL;;DISPONIBLE;9 DE JULIO;9 DE JULIO AV.;0;CHILE;9 DE JULIO AV. Y CHILE;MONSERRAT;COMUNA 1
-58.3810424601935;-34.6134730732241;72;ESTACION BELGRANO;METROBUS;GESTION PREVIA HRL;;DISPONIBLE;9 DE JULIO;9 DE JULIO AV.;0;BELGRANO AV.;9 DE JULIO AV. Y BELGRANO AV.;MONSERRAT;COMUNA 1
-58.381171727514;-34.611070891371;71;ESTACION ALSINA;METROBUS;GESTION PREVIA HRL;;DISPONIBLE;9 DE JULIO;9 DE JULIO AV.;0;ALSINA, ADOLFO;9 DE JULIO AV. Y ALSINA, ADOLFO;MONSERRAT;COMUNA 1
-58.4077330908641;-34.6379349572243;70;ENRIQUE BANCHS;BIBLIOTECA;GESTION PREVIA HRL;5TA. ETAPA / NOVIEMBRE 2012 (BIBLIOTECAS PUBLICAS);DISPONIBLE;BIBLIOTECA;CASEROS AV.;0;URQUIZA, GRAL.;CASEROS AV. Y URQUIZA, GRAL.;PARQUE PATRICIOS;COMUNA 4
-58.4746023514832;-34.676923360823;69;EL PROGRESO;BIBLIOTECA;GESTION PREVIA HRL;5TA. ETAPA / NOVIEMBRE 2012 (BIBLIOTECAS PUBLICAS);DISPONIBLE;BIBLIOTECA;RIESTRA AV.;5655;;RIESTRA AV. 5655;VILLA LUGANO;COMUNA 8
-58.3602658369179;-34.6094311596753;67;DIRECCION GRAL. DE MUSEOS;ESPACIO PUBLICO;GESTION PREVIA HRL;;DISPONIBLE;EDIFICIOS DEL GCABA;DE LOS ITALIANOS AV.;0;MARTA LYNCH;DE LOS ITALIANOS AV. Y LYNCH MARTA;PUERTO MADERO;COMUNA 1
-58.374854938614;-34.6103442931861;64;DIAGONAL SUR Y PERU;PARQUES Y PLAZAS;GESTION PREVIA HRL;1RA. ETAPA / DISPONIBLE;DISPONIBLE;PARQUES Y PLAZAS;ROCA, JULIO A., PRESIDENTE AV.;0;PERU;ROCA, JULIO A., PRESIDENTE AV. Y PERU;MONSERRAT;COMUNA 1
-58.3790286025624;-34.6048900950283;63;DIAGONAL NORTE Y SARMIENTO;AREA CENTRAL;GESTION PREVIA HRL;;DISPONIBLE;DIAGONAL NORTE;SAENZ PEÑA, ROQUE, PRES. AV.;0;SARMIENTO;SAENZ PEÑA, ROQUE, PRES. AV. Y SARMIENTO;SAN NICOLAS;COMUNA 1
-58.3737067236271;-34.6076443815688;62;DIAGONAL NORTE Y SAN MARTIN;AREA CENTRAL;GESTION PREVIA HRL;;DISPONIBLE;DIAGONAL NORTE;SAENZ PEÑA, ROQUE, PRES. AV.;0;SAN MARTIN;SAENZ PEÑA, ROQUE, PRES. AV. Y SAN MARTIN;MONSERRAT;COMUNA 1
-58.3772660055996;-34.6057782667736;61;DIAGONAL NORTE Y PERON;AREA CENTRAL;GESTION PREVIA HRL;;DISPONIBLE;DIAGONAL NORTE;SAENZ PEÑA, ROQUE, PRES. AV.;0;PERON, JUAN DOMINGO, TTE. GENERAL;SAENZ PEÑA, ROQUE, PRES. AV. Y PERON, JUAN DOMINGO, TTE. GENERAL;SAN NICOLAS;COMUNA 1
-58.3763846689;-34.6062456866607;60;DIAGONAL NORTE Y MAIPU;AREA CENTRAL;GESTION PREVIA HRL;;DISPONIBLE;DIAGONAL NORTE;SAENZ PEÑA, ROQUE, PRES. AV.;0;MAIPU;SAENZ PEÑA, ROQUE, PRES. AV. Y MAIPU;SAN NICOLAS;COMUNA 1
-58.3748931714984;-34.6070196315074;59;DIAGONAL NORTE Y FLORIDA;AREA CENTRAL;GESTION PREVIA HRL;;DISPONIBLE;DIAGONAL NORTE;SAENZ PEÑA, ROQUE, PRES. AV.;0;FLORIDA;SAENZ PEÑA, ROQUE, PRES. AV. Y FLORIDA;SAN NICOLAS;COMUNA 1
-58.3916273578678;-34.6245876275318;58;DEL DOCENTE;BIBLIOTECA;GESTION PREVIA HRL;5TA. ETAPA / NOVIEMBRE 2012 (BIBLIOTECAS PUBLICAS);DISPONIBLE;BIBLIOTECA;ENTRE RIOS AV.;1349;;ENTRE RIOS AV. 1349;SAN CRISTOBAL;COMUNA 3
-58.4053996790446;-34.604578074168;52;ESTACION PUEYRREDON - LINEA B;SUBTE;GESTION PREVIA HRL;;DISPONIBLE;LINEA B;CORRIENTES AV.;0;PUEYRREDON AV.;CORRIENTES AV. Y PUEYRREDON AV.;BALVANERA;COMUNA 3
-58.3794978082552;-34.6547384614982;51;CENTRO METROPOLITANO DE DISEÑO;ESPACIO PUBLICO;GESTION PREVIA HRL;;DISPONIBLE;CENTRO DE EXPOSICIONES Y CULTURALES;ALGARROBO;1041;;ALGARROBO 1041;BARRACAS;COMUNA 4
-58.3778740475355;-34.6081412139402;50;CTRO. DE INF. TURISTICA 'ROBERTO ARLT';ESPACIO PUBLICO;GESTION PREVIA HRL;;DISPONIBLE;OTROS ESTABLECIMIENTOS;RIVADAVIA AV.;0;ESMERALDA;RIVADAVIA AV. Y ESMERALDA;MONSERRAT;COMUNA 1
-58.490829477189;-34.5511265769768;49;COMISARIA COMUNAL 12;ESPACIO PUBLICO;GESTION PREVIA HRL;;DISPONIBLE;OTROS ESTABLECIMIENTOS;RAMALLO;4389;;RAMALLO 4389;SAAVEDRA;COMUNA 12
-58.4610775798888;-34.665894627401;48;CIFA;PARQUES Y PLAZAS;GESTION PREVIA HRL;3RA. ETAPA / AGOSTO 2012;DISPONIBLE;PARQUES Y PLAZAS;ESCALADA AV.;0;CASTAÑARES AV.;ESCALADA AV. Y CASTAÑARES AV.;VILLA SOLDATI;COMUNA 8
-58.4635405106623;-34.6290872274132;33;ESTACION SAN JOSE DE FLORES - LINEA A;SUBTE;GESTION PREVIA HRL;;DISPONIBLE;LINEA A;RIVADAVIA AV.;0;PEDERNERA;RIVADAVIA AV. Y PEDERNERA;FLORES;COMUNA 7
-58.3866636169241;-34.6335531292623;31;CENTRO CULTURAL SUR;ESPACIO PUBLICO;GESTION PREVIA HRL;;DISPONIBLE;CENTRO DE EXPOSICIONES Y CULTURALES;CASEROS AV.;1750;;CASEROS AV. 1750;BARRACAS;COMUNA 4
-58.3918049157745;-34.5865924992157;21;CENTRO CULTURAL RECOLETA;ESPACIO PUBLICO;GESTION PREVIA HRL;;DISPONIBLE;CENTRO DE EXPOSICIONES Y CULTURALES;JUNIN;1930;;JUNIN 1930;RECOLETA;COMUNA 2
-58.4113854142757;-34.6247055639513;20;CENTRO CULTURAL JULIAN CENTEYA;ESPACIO PUBLICO;GESTION PREVIA HRL;;DISPONIBLE;CENTRO DE EXPOSICIONES Y CULTURALES;SAN JUAN AV.;3255;;SAN JUAN AV. 3255;SAN CRISTOBAL;COMUNA 3
-58.4137620223228;-34.6059549906077;17;CONSERVATORIO SUPERIOR DE MUSICA MANUEL DE FALLA;ESPACIO PUBLICO;GESTION PREVIA HRL;;DISPONIBLE;OTROS ESTABLECIMIENTOS;SARMIENTO;3401;;SARMIENTO 3401;ALMAGRO;COMUNA 5
-58.4237989317588;-34.5812818946845;16;CARLOS GUIDO Y SPANO;BIBLIOTECA;GESTION PREVIA HRL;5TA. ETAPA / NOVIEMBRE 2012 (BIBLIOTECAS PUBLICAS);DISPONIBLE;BIBLIOTECA;GUEMES;4601;;GUEMES 4601;PALERMO;COMUNA 14
-58.3627060646101;-34.63934310901;15;CAMINITO;ESPACIO PUBLICO;GESTION PREVIA HRL;2DA. ETAPA / JULIO 2012;DISPONIBLE;OTROS ESTABLECIMIENTOS;MAGALLANES;0;GARIBALDI;MAGALLANES Y GARIBALDI;BOCA;COMUNA 4
-58.4031550568903;-34.6062337965054;9;EMAD - ESCUELA METROPOLITANA DE ARTE DRAMATICO;ESPACIO PUBLICO;GESTION PREVIA HRL;;DISPONIBLE;OTROS ESTABLECIMIENTOS;SARMIENTO;2573;;SARMIENTO 2573;BALVANERA;COMUNA 3
-58.3747834538112;-34.6083884251727;8;AV. DE MAYO Y PERU;ESPACIO PUBLICO;GESTION PREVIA HRL;1RA. ETAPA / DISPONIBLE;DISPONIBLE;AV. DE MAYO;DE MAYO AV.;591;;DE MAYO AV. 591;MONSERRAT;COMUNA 1
-58.5107247353059;-34.5992834288627;7;ANTONIO DEVOTO;BIBLIOTECA;GESTION PREVIA HRL;5TA. ETAPA / NOVIEMBRE 2012 (BIBLIOTECAS PUBLICAS);DISPONIBLE;BIBLIOTECA;BAHIA BLANCA;4025;;BAHIA BLANCA 4025;VILLA DEVOTO;COMUNA 11
-58.4366871485887;-34.6060097185183;6;ANFITEATRO PARQUE CENTENARIO;ESPACIO PUBLICO;GESTION PREVIA HRL;;DISPONIBLE;TEATRO;GALLARDO, ANGEL AV.;0;MARECHAL, LEOPOLDO;GALLARDO, ANGEL AV. Y MARECHAL, LEOPOLDO;VILLA CRESPO;COMUNA 15
-58.4633488397356;-34.6849788440007;5;ALVARO YUNQUE;BIBLIOTECA;GESTION PREVIA HRL;5TA. ETAPA / NOVIEMBRE 2012 (BIBLIOTECAS PUBLICAS);DISPONIBLE;BIBLIOTECA;SOLDADO DE LA FRONTERA AV.;5210;;SOLDADO DE LA FRONTERA AV. 5210;VILLA LUGANO;COMUNA 8
-58.3662602147304;-34.6161348963839;4;ALICIA MOREAU DE JUSTO Y CHILE;ESPACIO PUBLICO;GESTION PREVIA HRL;1RA. ETAPA / DISPONIBLE;DISPONIBLE;ALICIA MOREAU DE JUST;MOREAU DE JUSTO, ALICIA AV.;0;EYLE, PETRONA;MOREAU DE JUSTO, ALICIA AV. Y EYLE, PETRONA;PUERTO MADERO;COMUNA 1
-58.3602750053352;-34.6298260831398;1;DEPOSITO MUSEO DEL CINE;ESPACIO PUBLICO;GESTION PREVIA HRL;GESTION PREVIA HRL;DISPONIBLE;OTROS ESTABLECIMIENTOS;MINISTRO BRIN;615;;BRIN, MINISTRO 615;BOCA;COMUNA 4
